{
  "type": "FeatureCollection",
  "features": [
    {
      "type": "Feature",
      "properties": {
        "db_school_name": "Harton Academy"
      },
      "geometry": {
        "type": "Polygon",
        "coordinates": [
          [
            [-1.400738, 55.011248],
            [-1.40088, 55.010913],
            [-1.401539, 55.010305],
            [-1.402572, 55.009757],
            [-1.403637, 55.009407],
            [-1.405077, 55.009099],
            [-1.405113, 55.008941],
            [-1.40532, 55.008863],
            [-1.409091, 55.008093],
            [-1.411676, 55.006626],
            [-1.41156, 55.005303],
            [-1.411767, 55.005166],
            [-1.411705, 55.004751],
            [-1.411435, 55.004513],
            [-1.410991, 55.004491],
            [-1.410689, 55.004114],
            [-1.410692, 55.003956],
            [-1.410831, 55.003819],
            [-1.411344, 55.003801],
            [-1.411347, 55.003584],
            [-1.411014, 55.00299],
            [-1.409864, 55.002254],
            [-1.40973, 55.002036],
            [-1.409669, 55.001582],
            [-1.408929, 55.000828],
            [-1.40769, 54.999164],
            [-1.405503, 54.996883],
            [-1.404161, 54.995316],
            [-1.403181, 54.994561],
            [-1.403051, 54.994146],
            [-1.402849, 54.993908],
            [-1.402612, 54.993769],
            [-1.402305, 54.993767],
            [-1.402064, 54.993845],
            [-1.401963, 54.993746],
            [-1.401622, 54.993744],
            [-1.401584, 54.993981],
            [-1.401378, 54.994039],
            [-1.4008, 54.993858],
            [-1.400665, 54.993719],
            [-1.400187, 54.993697],
            [-1.400086, 54.993637],
            [-1.400296, 54.993263],
            [-1.400372, 54.99277],
            [-1.400035, 54.992492],
            [-1.399695, 54.992333],
            [-1.399734, 54.992076],
            [-1.399361, 54.991857],
            [-1.397962, 54.991712],
            [-1.397761, 54.991474],
            [-1.397557, 54.991394],
            [-1.397181, 54.991392],
            [-1.396906, 54.991469],
            [-1.395785, 54.991089],
            [-1.393839, 54.990941],
            [-1.393706, 54.990703],
            [-1.393991, 54.989915],
            [-1.393996, 54.989639],
            [-1.393388, 54.989181],
            [-1.39347, 54.988294],
            [-1.393233, 54.988095],
            [-1.391868, 54.988009],
            [-1.391422, 54.988105],
            [-1.390909, 54.988123],
            [-1.390391, 54.988515],
            [-1.389294, 54.988687],
            [-1.388368, 54.988939],
            [-1.387924, 54.988897],
            [-1.387825, 54.988699],
            [-1.387928, 54.988621],
            [-1.387931, 54.988423],
            [-1.387354, 54.988164],
            [-1.386808, 54.988161],
            [-1.386669, 54.988279],
            [-1.386363, 54.988178],
            [-1.386403, 54.987823],
            [-1.385685, 54.987839],
            [-1.385549, 54.987779],
            [-1.385517, 54.987661],
            [-1.385209, 54.987659],
            [-1.384768, 54.987479],
            [-1.384945, 54.987046],
            [-1.384707, 54.986966],
            [-1.384951, 54.986651],
            [-1.384957, 54.986316],
            [-1.384376, 54.986313],
            [-1.384203, 54.98641],
            [-1.383793, 54.986408],
            [-1.383722, 54.986605],
            [-1.383005, 54.986562],
            [-1.382765, 54.9866],
            [-1.382592, 54.986738],
            [-1.38239, 54.986559],
            [-1.382116, 54.986558],
            [-1.381771, 54.986773],
            [-1.381397, 54.986653],
            [-1.381336, 54.986179],
            [-1.381031, 54.986019],
            [-1.381033, 54.98592],
            [-1.380726, 54.98586],
            [-1.380557, 54.985721],
            [-1.380182, 54.985659],
            [-1.380355, 54.985542],
            [-1.380358, 54.985345],
            [-1.380019, 54.985145],
            [-1.379643, 54.985163],
            [-1.379373, 54.984945],
            [-1.378999, 54.984844],
            [-1.379274, 54.984727],
            [-1.379243, 54.98451],
            [-1.379074, 54.984371],
            [-1.378531, 54.984171],
            [-1.378401, 54.983696],
            [-1.377993, 54.983576],
            [-1.377995, 54.983457],
            [-1.378201, 54.98336],
            [-1.378204, 54.983202],
            [-1.378034, 54.983161],
            [-1.377933, 54.983023],
            [-1.377626, 54.983001],
            [-1.377628, 54.982863],
            [-1.377905, 54.982628],
            [-1.378349, 54.98263],
            [-1.378451, 54.98269],
            [-1.379066, 54.982673],
            [-1.379269, 54.982852],
            [-1.380466, 54.982779],
            [-1.380674, 54.982543],
            [-1.380644, 54.982306],
            [-1.380407, 54.982167],
            [-1.380374, 54.982048],
            [-1.380103, 54.981909],
            [-1.37983, 54.981887],
            [-1.379764, 54.981749],
            [-1.380108, 54.981593],
            [-1.380288, 54.981021],
            [-1.379411, 54.980247],
            [-1.379038, 54.980048],
            [-1.378702, 54.979691],
            [-1.378396, 54.979551],
            [-1.377953, 54.979509],
            [-1.377749, 54.979429],
            [-1.377481, 54.979072],
            [-1.377284, 54.978578],
            [-1.37678, 54.978003],
            [-1.376101, 54.977703],
            [-1.37556, 54.977326],
            [-1.375287, 54.977324],
            [-1.374978, 54.977421],
            [-1.3744, 54.977181],
            [-1.37427, 54.976786],
            [-1.384842, 54.97153],
            [-1.387378, 54.97103],
            [-1.388477, 54.9707],
            [-1.390196, 54.969998],
            [-1.391604, 54.969551],
            [-1.393112, 54.969283],
            [-1.395198, 54.969155],
            [-1.396533, 54.969004],
            [-1.396605, 54.968787],
            [-1.395738, 54.967421],
            [-1.396662, 54.967307],
            [-1.396506, 54.966339],
            [-1.397669, 54.966266],
            [-1.398591, 54.96633],
            [-1.399412, 54.966275],
            [-1.399487, 54.965841],
            [-1.403865, 54.965568],
            [-1.404068, 54.965727],
            [-1.404683, 54.96573],
            [-1.40482, 54.965691],
            [-1.404857, 54.965494],
            [-1.407835, 54.965213],
            [-1.408979, 54.968574],
            [-1.409179, 54.968931],
            [-1.410153, 54.970021],
            [-1.41062, 54.970774],
            [-1.410751, 54.97115],
            [-1.410704, 54.971939],
            [-1.41189, 54.974866],
            [-1.412964, 54.976155],
            [-1.413661, 54.977501],
            [-1.414532, 54.97863],
            [-1.417064, 54.980637],
            [-1.417029, 54.980696],
            [-1.415554, 54.981044],
            [-1.415517, 54.981241],
            [-1.417976, 54.983563],
            [-1.420783, 54.985472],
            [-1.421091, 54.985474],
            [-1.422361, 54.985066],
            [-1.423102, 54.9858],
            [-1.423981, 54.986397],
            [-1.424081, 54.986555],
            [-1.423977, 54.986693],
            [-1.423182, 54.987242],
            [-1.423145, 54.987458],
            [-1.425916, 54.989466],
            [-1.427097, 54.99044],
            [-1.427903, 54.991352],
            [-1.42867, 54.992599],
            [-1.429148, 54.992641],
            [-1.430244, 54.992489],
            [-1.43127, 54.992435],
            [-1.431474, 54.992495],
            [-1.431505, 54.992732],
            [-1.432324, 54.992796],
            [-1.43297, 54.992977],
            [-1.43341, 54.993295],
            [-1.433683, 54.993296],
            [-1.434233, 54.993062],
            [-1.434954, 54.992888],
            [-1.435294, 54.992988],
            [-1.435636, 54.99299],
            [-1.437903, 54.992212],
            [-1.438175, 54.992332],
            [-1.439811, 54.992617],
            [-1.44032, 54.992837],
            [-1.441647, 54.993199],
            [-1.44216, 54.993162],
            [-1.442783, 54.992652],
            [-1.443564, 54.992952],
            [-1.446083, 54.993636],
            [-1.44615, 54.993735],
            [-1.445102, 54.99521],
            [-1.44413, 54.996172],
            [-1.443498, 54.997314],
            [-1.443019, 54.999581],
            [-1.442973, 55.000292],
            [-1.443163, 55.00128],
            [-1.443155, 55.001852],
            [-1.442831, 55.002877],
            [-1.441397, 55.005041],
            [-1.441017, 55.005335],
            [-1.43988, 55.005921],
            [-1.43775, 55.006621],
            [-1.435931, 55.007125],
            [-1.431165, 55.008226],
            [-1.429707, 55.007468],
            [-1.429642, 55.007231],
            [-1.429334, 55.007229],
            [-1.428272, 55.007441],
            [-1.427521, 55.007378],
            [-1.426558, 55.007788],
            [-1.4257, 55.00804],
            [-1.424707, 55.008134],
            [-1.42385, 55.008327],
            [-1.423681, 55.008188],
            [-1.423616, 55.00795],
            [-1.423689, 55.007655],
            [-1.424103, 55.00744],
            [-1.423974, 55.006945],
            [-1.423704, 55.006707],
            [-1.423331, 55.006528],
            [-1.422522, 55.005793],
            [-1.421642, 55.005216],
            [-1.420184, 55.004498],
            [-1.41896, 55.004097],
            [-1.41756, 55.003991],
            [-1.416768, 55.004402],
            [-1.416766, 55.00454],
            [-1.416457, 55.004617],
            [-1.413562, 55.006241],
            [-1.412561, 55.006887],
            [-1.412006, 55.007397],
            [-1.411247, 55.007887],
            [-1.410078, 55.008335],
            [-1.408053, 55.008897],
            [-1.406545, 55.009185],
            [-1.406067, 55.009163],
            [-1.403358, 55.009761],
            [-1.402601, 55.010073],
            [-1.401912, 55.010465],
            [-1.401358, 55.010935],
            [-1.401352, 55.01133],
            [-1.401009, 55.011388],
            [-1.400738, 55.011248]
          ]
        ]
      }
    }
  ]
}
