{
  "type": "FeatureCollection",
  "features": [
    {
      "type": "Feature",
      "properties": {
        "db_school_name": "Marsden Primary School"
      },
      "geometry": {
        "type": "Polygon",
        "coordinates": [
          [
            [-1.384914, 54.970714],
            [-1.383978, 54.968231],
            [-1.382808, 54.964163],
            [-1.382825, 54.958109],
            [-1.381921, 54.957772],
            [-1.376852, 54.957459],
            [-1.369651, 54.957158],
            [-1.367565, 54.957349],
            [-1.361286, 54.957716],
            [-1.355145, 54.958386],
            [-1.354808, 54.958479],
            [-1.354339, 54.957994],
            [-1.353864, 54.957784],
            [-1.353677, 54.957535],
            [-1.355741, 54.955955],
            [-1.355913, 54.955708],
            [-1.355881, 54.954869],
            [-1.355812, 54.954717],
            [-1.35562, 54.954715],
            [-1.353512, 54.953475],
            [-1.314161, 54.953184],
            [-1.306324, 54.957529],
            [-1.306081, 54.97064],
            [-1.325596, 54.982067],
            [-1.355134, 54.982286],
            [-1.357069, 54.9812],
            [-1.357073, 54.980993],
            [-1.369459, 54.97404],
            [-1.369485, 54.973916],
            [-1.370559, 54.974089],
            [-1.37296, 54.975001],
            [-1.378058, 54.97248],
            [-1.380127, 54.971917],
            [-1.384528, 54.970863],
            [-1.384914, 54.970714]
          ]
        ]
      }
    },
    {
      "type": "Feature",
      "properties": {
        "db_school_name": "Laygate Community School"
      },
      "geometry": {
        "type": "Polygon",
        "coordinates": [
          [
            [-1.414568, 54.987913],
            [-1.414828, 54.98808],
            [-1.420501, 54.988122],
            [-1.427866, 54.992456],
            [-1.428632, 54.992475],
            [-1.428819, 54.992724],
            [-1.428649, 54.992819],
            [-1.428648, 54.992916],
            [-1.429097, 54.993208],
            [-1.429396, 54.993898],
            [-1.429768, 54.994479],
            [-1.430004, 54.99466],
            [-1.43304, 54.993595],
            [-1.43511, 54.993005],
            [-1.440044, 54.992835],
            [-1.443714, 54.993757],
            [-1.443981, 54.993538],
            [-1.443937, 54.993373],
            [-1.444641, 54.992828],
            [-1.446008, 54.991421],
            [-1.447474, 54.98978],
            [-1.447478, 54.989588],
            [-1.447866, 54.989315],
            [-1.449529, 54.987401],
            [-1.449412, 54.987263],
            [-1.446192, 54.986634],
            [-1.439322, 54.986583],
            [-1.436836, 54.986413],
            [-1.436574, 54.986329],
            [-1.43648, 54.986204],
            [-1.437382, 54.984078],
            [-1.437336, 54.98394],
            [-1.436573, 54.983783],
            [-1.436148, 54.983463],
            [-1.435657, 54.982854],
            [-1.43364, 54.98189],
            [-1.431304, 54.981336],
            [-1.431133, 54.981486],
            [-1.430982, 54.981925],
            [-1.430421, 54.985045],
            [-1.43044, 54.98532],
            [-1.430932, 54.985915],
            [-1.431023, 54.986177],
            [-1.42999, 54.986349],
            [-1.426134, 54.98643],
            [-1.424694, 54.986667],
            [-1.424356, 54.986789],
            [-1.422231, 54.98519],
            [-1.420642, 54.985674],
            [-1.419294, 54.984783],
            [-1.414577, 54.987432],
            [-1.414568, 54.987913]
          ]
        ]
      }
    }
  ]
}
