{
  "type": "FeatureCollection",
  "features": [
    {
      "type": "Feature",
      "properties": {
        "db_school_name": "Mayfield & Trafalgar (Shared Catchment)"
      },
      "geometry": {
        "type": "Polygon",
        "coordinates": [
          [
            [-1.0693934, 50.7964419],
            [-1.0707968, 50.7964033],
            [-1.0710402, 50.796434],
            [-1.0712582, 50.7965341],
            [-1.0713788, 50.7976585],
            [-1.0716178, 50.7987757],
            [-1.0723676, 50.8007526],
            [-1.0726366, 50.8022302],
            [-1.0726468, 50.8032555],
            [-1.0724776, 50.8045179],
            [-1.0725432, 50.8054343],
            [-1.0731743, 50.8066187],
            [-1.0736484, 50.8081896],
            [-1.0740477, 50.8091011],
            [-1.0742514, 50.8093454],
            [-1.0752889, 50.8100529],
            [-1.0758125, 50.8105195],
            [-1.0766254, 50.8114818],
            [-1.0769731, 50.8120494],
            [-1.0771922, 50.8127152],
            [-1.0774897, 50.812788],
            [-1.0775358, 50.8129361],
            [-1.0777217, 50.8130608],
            [-1.0777865, 50.8130946],
            [-1.0779973, 50.813067],
            [-1.0781268, 50.8131347],
            [-1.0790737, 50.8130781],
            [-1.0792132, 50.8133715],
            [-1.0806358, 50.8133016],
            [-1.0816764, 50.8130734],
            [-1.0825635, 50.8130959],
            [-1.0840786, 50.8130053],
            [-1.0888918, 50.812929],
            [-1.0889802, 50.8129614],
            [-1.0889677, 50.8130376],
            [-1.0883686, 50.8136618],
            [-1.0884333, 50.8136956],
            [-1.0892038, 50.8136571],
            [-1.0893305, 50.8143436],
            [-1.0892041, 50.8144567],
            [-1.0891961, 50.8145628],
            [-1.0894525, 50.8146003],
            [-1.0898313, 50.8145777],
            [-1.0898849, 50.8145368],
            [-1.0896069, 50.8141158],
            [-1.0895867, 50.8139813],
            [-1.0896845, 50.8137567],
            [-1.0905795, 50.813673],
            [-1.0908703, 50.8137009],
            [-1.0910396, 50.813555],
            [-1.0913339, 50.8134469],
            [-1.091943, 50.8130484],
            [-1.0923646, 50.812993],
            [-1.0930479, 50.8127712],
            [-1.0933998, 50.8125691],
            [-1.0942171, 50.8124448],
            [-1.0950831, 50.8121668],
            [-1.0952961, 50.812154],
            [-1.0954056, 50.8120871],
            [-1.0957178, 50.8120987],
            [-1.0975374, 50.8118089],
            [-1.0981337, 50.8118034],
            [-1.0984526, 50.8118598],
            [-1.0985219, 50.8119236],
            [-1.0980986, 50.8124467],
            [-1.0980849, 50.8126739],
            [-1.0982096, 50.8130285],
            [-1.0976309, 50.8134704],
            [-1.0973622, 50.8139089],
            [-1.0973245, 50.8144543],
            [-1.0974892, 50.815395],
            [-1.0973817, 50.8157937],
            [-1.0973235, 50.8165214],
            [-1.0971338, 50.8168495],
            [-1.0970928, 50.8172141],
            [-1.0968072, 50.8176988],
            [-1.0965292, 50.8183944],
            [-1.0958214, 50.8188516],
            [-1.0947232, 50.8191737],
            [-1.0939804, 50.8191577],
            [-1.0935274, 50.8190037],
            [-1.0927304, 50.8185459],
            [-1.0926347, 50.8183857],
            [-1.0920624, 50.8180729],
            [-1.0918135, 50.8178463],
            [-1.0910179, 50.8165209],
            [-1.0905957, 50.8160936],
            [-1.0903871, 50.8150197],
            [-1.0903223, 50.8149859],
            [-1.0884477, 50.8150677],
            [-1.0883941, 50.8151086],
            [-1.0884424, 50.8152717],
            [-1.0883036, 50.8154611],
            [-1.0883327, 50.8156555],
            [-1.0885816, 50.815882],
            [-1.0894732, 50.8170508],
            [-1.0896385, 50.8173577],
            [-1.0902454, 50.8180607],
            [-1.0902374, 50.8181668],
            [-1.0905502, 50.8186611],
            [-1.0908036, 50.8189175],
            [-1.0909949, 50.819238],
            [-1.0911504, 50.8193193],
            [-1.091247, 50.8196454],
            [-1.0914946, 50.8200229],
            [-1.0921795, 50.8215661],
            [-1.0926646, 50.8216956],
            [-1.0934244, 50.8216653],
            [-1.0936995, 50.8215885],
            [-1.0940728, 50.82137],
            [-1.0943761, 50.8213217],
            [-1.0947379, 50.8213454],
            [-1.0948857, 50.8212158],
            [-1.0951461, 50.8212003],
            [-1.095393, 50.821095],
            [-1.0956753, 50.821146],
            [-1.0966315, 50.8219489],
            [-1.0978043, 50.822603],
            [-1.0984901, 50.8231957],
            [-1.0992057, 50.8244655],
            [-1.0992064, 50.8249483],
            [-1.0990832, 50.8252423],
            [-1.0987894, 50.8254333],
            [-1.098458, 50.8254531],
            [-1.098143, 50.8253437],
            [-1.0981939, 50.8252049],
            [-1.098398, 50.8251324],
            [-1.0983073, 50.825085],
            [-1.0978204, 50.8250235],
            [-1.0975408, 50.8250704],
            [-1.0972241, 50.825029],
            [-1.0965939, 50.825127],
            [-1.0960437, 50.8252806],
            [-1.0953853, 50.8253501],
            [-1.0950472, 50.825325],
            [-1.0946796, 50.8254224],
            [-1.0943674, 50.8254109],
            [-1.0939998, 50.8255083],
            [-1.0934635, 50.8258345],
            [-1.0926027, 50.8266253],
            [-1.0926251, 50.8267748],
            [-1.0927658, 50.8269173],
            [-1.0934181, 50.8272856],
            [-1.0935317, 50.8275655],
            [-1.0923655, 50.8276729],
            [-1.0919138, 50.827368],
            [-1.091669, 50.8274882],
            [-1.091183, 50.8271929],
            [-1.0911481, 50.8271195],
            [-1.0912338, 50.8270541],
            [-1.0911257, 50.82697],
            [-1.0910947, 50.8264438],
            [-1.0902221, 50.8259603],
            [-1.0897164, 50.8267298],
            [-1.0894086, 50.8267482],
            [-1.0893296, 50.8268585],
            [-1.0892135, 50.8268806],
            [-1.0887284, 50.8267511],
            [-1.0887341, 50.8266301],
            [-1.0885313, 50.8265517],
            [-1.0884875, 50.8264185],
            [-1.0890217, 50.8253607],
            [-1.0889525, 50.8252969],
            [-1.0886322, 50.8253915],
            [-1.0879832, 50.825204],
            [-1.087742, 50.8251882],
            [-1.0875575, 50.8253124],
            [-1.0879414, 50.8258024],
            [-1.0878213, 50.8258775],
            [-1.0875891, 50.8259215],
            [-1.087262, 50.8255714],
            [-1.0869573, 50.8253709],
            [-1.0862055, 50.8252951],
            [-1.0858977, 50.8253135],
            [-1.0851343, 50.82508],
            [-1.0850051, 50.8246954],
            [-1.0848992, 50.8246263],
            [-1.0848365, 50.8242076],
            [-1.0847717, 50.8241738],
            [-1.0843603, 50.824138],
            [-1.0839694, 50.82392],
            [-1.0835071, 50.824023],
            [-1.0833621, 50.8242505],
            [-1.0831455, 50.8243992],
            [-1.0829772, 50.824711],
            [-1.0828566, 50.8258196],
            [-1.0829184, 50.8260724],
            [-1.0827856, 50.8269403],
            [-1.0830111, 50.8279678],
            [-1.0835249, 50.8282087],
            [-1.0835607, 50.828448],
            [-1.0833931, 50.8292425],
            [-1.0829626, 50.8296379],
            [-1.0815001, 50.8302382],
            [-1.0813719, 50.8304194],
            [-1.0813435, 50.8307077],
            [-1.0808796, 50.8312786],
            [-1.0792564, 50.8324015],
            [-1.0791909, 50.8326016],
            [-1.079386, 50.8335857],
            [-1.0794093, 50.8350176],
            [-1.0793796, 50.8354569],
            [-1.079243, 50.8356612],
            [-1.0789898, 50.8358046],
            [-1.0787316, 50.8358351],
            [-1.0782761, 50.835983],
            [-1.077817, 50.8362669],
            [-1.0777009, 50.8362889],
            [-1.0775317, 50.8364348],
            [-1.0772521, 50.8364817],
            [-1.0769363, 50.8366062],
            [-1.0764347, 50.836606],
            [-1.0754869, 50.8364966],
            [-1.0753065, 50.8365678],
            [-1.0749491, 50.836574],
            [-1.07469, 50.8364387],
            [-1.0743429, 50.8363538],
            [-1.0739101, 50.8363344],
            [-1.0733701, 50.8363968],
            [-1.0732817, 50.8363644],
            [-1.0732311, 50.8361864],
            [-1.0725353, 50.835368],
            [-1.072313, 50.8345213],
            [-1.0722538, 50.8339666],
            [-1.071988, 50.8337863],
            [-1.0697039, 50.8308148],
            [-1.0695174, 50.8302074],
            [-1.0696227, 50.8297937],
            [-1.0699445, 50.8292314],
            [-1.0707731, 50.8280654],
            [-1.0709781, 50.8270423],
            [-1.0712504, 50.8264678],
            [-1.0709162, 50.8263897],
            [-1.0675099, 50.8262915],
            [-1.0658631, 50.8262994],
            [-1.0650864, 50.8263759],
            [-1.0649653, 50.8262851],
            [-1.064378, 50.8252339],
            [-1.0642071, 50.8247312],
            [-1.0635002, 50.8216051],
            [-1.0623342, 50.8176464],
            [-1.0621528, 50.8164352],
            [-1.0622041, 50.8163793],
            [-1.0659118, 50.8160974],
            [-1.0659654, 50.8160565],
            [-1.0658849, 50.815918],
            [-1.0655084, 50.8159556],
            [-1.0654177, 50.8159082],
            [-1.0651864, 50.8150017],
            [-1.0651765, 50.814776],
            [-1.0654454, 50.8147373],
            [-1.0656016, 50.8145846],
            [-1.0654721, 50.8145169],
            [-1.0654148, 50.814294],
            [-1.0650249, 50.8142419],
            [-1.06476, 50.8131111],
            [-1.0646693, 50.8130637],
            [-1.0644822, 50.81309],
            [-1.0643937, 50.8130575],
            [-1.0643601, 50.8128332],
            [-1.0642953, 50.8127994],
            [-1.0635186, 50.812876],
            [-1.0622099, 50.8129089],
            [-1.0616315, 50.813034],
            [-1.0611128, 50.8126802],
            [-1.0608719, 50.8123476],
            [-1.0605297, 50.8108594],
            [-1.0602744, 50.8102711],
            [-1.0602702, 50.8099244],
            [-1.0604228, 50.8095079],
            [-1.0602713, 50.8093736],
            [-1.0599868, 50.8093076],
            [-1.0630815, 50.8020619],
            [-1.0648087, 50.7984433],
            [-1.0651574, 50.7980604],
            [-1.0658348, 50.7975598],
            [-1.0670754, 50.7969123],
            [-1.0683866, 50.7965775],
            [-1.0693934, 50.7964419]
          ]
        ]
      }
    }
  ]
}
