{
  "type": "FeatureCollection",
  "features": [
    {
      "type": "Feature",
      "properties": {
        "db_school_name": "Admiral Lord Nelson School",
        "urn": "140697",
        "source_name": "Admiral Lord Nelson Secondary School"
      },
      "geometry": {
        "type": "Polygon",
        "coordinates": [
          [
            [-1.0520743, 50.806022],
            [-1.0529213, 50.8058949],
            [-1.053187, 50.8059047],
            [-1.054414, 50.8061929],
            [-1.0550216, 50.8062548],
            [-1.0557155, 50.8062464],
            [-1.0579958, 50.8057988],
            [-1.0597483, 50.8056823],
            [-1.059857, 50.8055619],
            [-1.059898, 50.8051112],
            [-1.0600631, 50.8050551],
            [-1.0602746, 50.8050742],
            [-1.0605964, 50.8052499],
            [-1.0606572, 50.8054613],
            [-1.0605723, 50.8058087],
            [-1.0613183, 50.8070856],
            [-1.061743, 50.8080849],
            [-1.0621522, 50.8085691],
            [-1.0626581, 50.8088704],
            [-1.0628129, 50.808927],
            [-1.0631431, 50.8088147],
            [-1.0658245, 50.8083536],
            [-1.0659106, 50.8083851],
            [-1.0659911, 50.8085746],
            [-1.0661459, 50.8086312],
            [-1.0663626, 50.8085939],
            [-1.0664215, 50.80863],
            [-1.0670497, 50.8098347],
            [-1.0672046, 50.8098912],
            [-1.0674999, 50.8098682],
            [-1.0676369, 50.810122],
            [-1.0678704, 50.8101927],
            [-1.0679729, 50.8104339],
            [-1.0678247, 50.8105981],
            [-1.0676424, 50.8106479],
            [-1.0675066, 50.810773],
            [-1.067932, 50.8115688],
            [-1.0681578, 50.8117241],
            [-1.0685542, 50.8116651],
            [-1.0687768, 50.8120521],
            [-1.0687003, 50.8121115],
            [-1.0647605, 50.8128259],
            [-1.0646716, 50.8129244],
            [-1.0651892, 50.8140741],
            [-1.0675592, 50.8182147],
            [-1.0696173, 50.8221686],
            [-1.0705412, 50.8232485],
            [-1.0707451, 50.8233521],
            [-1.0715503, 50.8231951],
            [-1.073409, 50.8229864],
            [-1.0773203, 50.8226836],
            [-1.077672, 50.8227248],
            [-1.0775535, 50.8235402],
            [-1.077648, 50.8246518],
            [-1.0768729, 50.8267263],
            [-1.0768884, 50.8272413],
            [-1.0770912, 50.8276502],
            [-1.0775077, 50.8281517],
            [-1.0806579, 50.8308455],
            [-1.0810745, 50.831347],
            [-1.0816954, 50.8325344],
            [-1.0827701, 50.8334219],
            [-1.0829165, 50.8337665],
            [-1.0822581, 50.8341663],
            [-1.0815689, 50.8342201],
            [-1.0817079, 50.8338634],
            [-1.0812976, 50.8336844],
            [-1.077469, 50.8342503],
            [-1.0755489, 50.834451],
            [-1.0717781, 50.8346742],
            [-1.0691721, 50.8346971],
            [-1.0673046, 50.8346115],
            [-1.0662051, 50.8344862],
            [-1.0623742, 50.8336105],
            [-1.0612205, 50.8334945],
            [-1.0596407, 50.8334704],
            [-1.0582476, 50.8335435],
            [-1.0563099, 50.8338398],
            [-1.0556877, 50.8337434],
            [-1.0556061, 50.8338591],
            [-1.0558367, 50.8340598],
            [-1.0563455, 50.8342311],
            [-1.0564436, 50.8343252],
            [-1.0564875, 50.8344286],
            [-1.0563297, 50.8345019],
            [-1.055907, 50.834362],
            [-1.0550036, 50.8337408],
            [-1.054102, 50.833295],
            [-1.0515955, 50.833005],
            [-1.0502258, 50.8327228],
            [-1.0500073, 50.8325848],
            [-1.0496434, 50.8324809],
            [-1.049456, 50.831903],
            [-1.049595, 50.8315463],
            [-1.0496638, 50.8308874],
            [-1.0492853, 50.8300651],
            [-1.0490788, 50.8293056],
            [-1.0484902, 50.8287412],
            [-1.0482493, 50.8279691],
            [-1.0474553, 50.8277082],
            [-1.0465959, 50.8278744],
            [-1.0462687, 50.8278568],
            [-1.0460052, 50.8279206],
            [-1.0455747, 50.8278652],
            [-1.044865, 50.8274603],
            [-1.0446044, 50.8273942],
            [-1.0436599, 50.8265397],
            [-1.0436233, 50.8264536],
            [-1.0440728, 50.8260065],
            [-1.0441255, 50.8257201],
            [-1.043878, 50.8254114],
            [-1.0437232, 50.8253548],
            [-1.0433736, 50.8253872],
            [-1.0433443, 50.8253183],
            [-1.0435369, 50.8251558],
            [-1.0435273, 50.825065],
            [-1.0431986, 50.8247702],
            [-1.0428494, 50.8247008],
            [-1.0429856, 50.824474],
            [-1.0428831, 50.8242328],
            [-1.042905, 50.8236005],
            [-1.04276, 50.8235329],
            [-1.0427307, 50.823464],
            [-1.0428493, 50.8233327],
            [-1.0426143, 50.8229849],
            [-1.0426845, 50.822603],
            [-1.0431611, 50.8221513],
            [-1.0433484, 50.8213611],
            [-1.0430117, 50.8212526],
            [-1.0429729, 50.8210929],
            [-1.0430841, 50.8209443],
            [-1.0429193, 50.8202146],
            [-1.0426016, 50.8196037],
            [-1.0423197, 50.8192824],
            [-1.0414976, 50.8186472],
            [-1.0412919, 50.8183683],
            [-1.040444, 50.8166468],
            [-1.040176, 50.8158794],
            [-1.0401628, 50.8154379],
            [-1.0399549, 50.8150854],
            [-1.0377337, 50.8134151],
            [-1.0375445, 50.813346],
            [-1.0359955, 50.8136678],
            [-1.0358407, 50.8136113],
            [-1.0357184, 50.8133919],
            [-1.0357949, 50.8133326],
            [-1.036972, 50.8130932],
            [-1.0370609, 50.8129947],
            [-1.0365023, 50.8122957],
            [-1.0362439, 50.8116191],
            [-1.0362724, 50.8112075],
            [-1.0366263, 50.8106382],
            [-1.0374315, 50.8104812],
            [-1.0400551, 50.8096788],
            [-1.0418815, 50.8088471],
            [-1.0423002, 50.8087381],
            [-1.0445227, 50.8086333],
            [-1.04503, 50.8085275],
            [-1.0461683, 50.8081284],
            [-1.0467591, 50.8080823],
            [-1.0474677, 50.8081084],
            [-1.0483908, 50.8080236],
            [-1.0489676, 50.8077395],
            [-1.0499083, 50.8068752],
            [-1.0509455, 50.806512],
            [-1.0520743, 50.806022]
          ]
        ]
      }
    },
    {
      "type": "Feature",
      "properties": {
        "db_school_name": "Ark Charter Academy",
        "urn": "135965",
        "source_name": "Charter Academy"
      },
      "geometry": {
        "type": "Polygon",
        "coordinates": [
          [
            [-1.0887048, 50.777303],
            [-1.0897468, 50.7773156],
            [-1.0900467, 50.7774048],
            [-1.0911711, 50.7780391],
            [-1.0923652, 50.7785885],
            [-1.0931306, 50.7788546],
            [-1.0941021, 50.7795405],
            [-1.0942542, 50.7800774],
            [-1.0947793, 50.7805117],
            [-1.0965149, 50.7815065],
            [-1.0965954, 50.7816252],
            [-1.0977508, 50.7823454],
            [-1.0990971, 50.7834317],
            [-1.0996849, 50.7840167],
            [-1.1011193, 50.784965],
            [-1.1012861, 50.7850098],
            [-1.1016254, 50.7849069],
            [-1.1023356, 50.7853328],
            [-1.1029494, 50.7861749],
            [-1.1026722, 50.7864498],
            [-1.1035473, 50.7869847],
            [-1.1036818, 50.7869863],
            [-1.1039443, 50.7872035],
            [-1.1044802, 50.7872742],
            [-1.1047566, 50.7875878],
            [-1.1051359, 50.7878385],
            [-1.1056977, 50.7881663],
            [-1.1063978, 50.7883674],
            [-1.107285, 50.789063],
            [-1.1076566, 50.7890032],
            [-1.1077701, 50.7891437],
            [-1.1074625, 50.7893112],
            [-1.1076768, 50.7894529],
            [-1.1078614, 50.7894659],
            [-1.107855, 50.7896798],
            [-1.1080034, 50.7897779],
            [-1.1091347, 50.7901768],
            [-1.1094709, 50.7901809],
            [-1.1096839, 50.7903653],
            [-1.1097131, 50.7905155],
            [-1.1096084, 50.7906427],
            [-1.1097359, 50.7908796],
            [-1.1100675, 50.7910334],
            [-1.1099629, 50.7911606],
            [-1.1104175, 50.7917011],
            [-1.1103439, 50.7919143],
            [-1.1102069, 50.7919982],
            [-1.1100216, 50.7925738],
            [-1.1096246, 50.7929222],
            [-1.1091534, 50.7929379],
            [-1.1087874, 50.792805],
            [-1.1086816, 50.7924078],
            [-1.1085332, 50.7923097],
            [-1.1083962, 50.7923937],
            [-1.1071183, 50.7923997],
            [-1.106195, 50.7917893],
            [-1.1060409, 50.7918837],
            [-1.105966, 50.7921396],
            [-1.1071779, 50.7926572],
            [-1.1074461, 50.7926818],
            [-1.1076757, 50.7928772],
            [-1.1081799, 50.7928833],
            [-1.1085933, 50.793113],
            [-1.109008, 50.7938671],
            [-1.1087916, 50.7943567],
            [-1.1084168, 50.7945234],
            [-1.1087288, 50.7947733],
            [-1.1089641, 50.7947762],
            [-1.1091182, 50.7946817],
            [-1.1090973, 50.7942534],
            [-1.1093662, 50.7942567],
            [-1.1094441, 50.7950281],
            [-1.1088295, 50.7953417],
            [-1.1088929, 50.7954709],
            [-1.1087876, 50.7956194],
            [-1.1090026, 50.7957397],
            [-1.109243, 50.7955714],
            [-1.109529, 50.7955642],
            [-1.109986, 50.7971534],
            [-1.1098662, 50.7972269],
            [-1.1096645, 50.7972244],
            [-1.1094686, 50.7970295],
            [-1.1087931, 50.7971283],
            [-1.1086047, 50.7972437],
            [-1.1086016, 50.7973507],
            [-1.1082122, 50.7974423],
            [-1.1076102, 50.7978952],
            [-1.1077586, 50.7979933],
            [-1.1081639, 50.797934],
            [-1.1102321, 50.7973597],
            [-1.1104134, 50.7974796],
            [-1.1102244, 50.7976164],
            [-1.1081911, 50.7981483],
            [-1.1078321, 50.7983473],
            [-1.1081118, 50.798554],
            [-1.1086515, 50.7984963],
            [-1.1089191, 50.7985424],
            [-1.1093954, 50.7983555],
            [-1.1107844, 50.7980084],
            [-1.1108662, 50.7980843],
            [-1.1107786, 50.798201],
            [-1.1098787, 50.7985004],
            [-1.1100733, 50.7987382],
            [-1.1092577, 50.799028],
            [-1.1095373, 50.7992347],
            [-1.1115441, 50.798467],
            [-1.1118123, 50.7984917],
            [-1.112275, 50.8004555],
            [-1.1121875, 50.8005722],
            [-1.1117619, 50.800749],
            [-1.1119103, 50.8008471],
            [-1.1122952, 50.8009052],
            [-1.1123174, 50.8012907],
            [-1.1123127, 50.8025748],
            [-1.1121072, 50.8027007],
            [-1.1120127, 50.8070014],
            [-1.1118935, 50.8070534],
            [-1.1080959, 50.8069862],
            [-1.1067718, 50.8062854],
            [-1.1065429, 50.8060686],
            [-1.1063412, 50.8060661],
            [-1.1059449, 50.8058259],
            [-1.1055435, 50.8057569],
            [-1.1044006, 50.8057431],
            [-1.1042465, 50.8058375],
            [-1.1043771, 50.8059675],
            [-1.1043676, 50.8062884],
            [-1.1042299, 50.8063938],
            [-1.1043535, 50.8067591],
            [-1.1042134, 50.80695],
            [-1.1043414, 50.8071656],
            [-1.1044898, 50.8072637],
            [-1.1062034, 50.8073058],
            [-1.1063486, 50.8075109],
            [-1.1060378, 50.8077853],
            [-1.1061862, 50.8078834],
            [-1.1068248, 50.8078911],
            [-1.1069726, 50.8080106],
            [-1.1068926, 50.8084377],
            [-1.1064169, 50.8086032],
            [-1.106682, 50.8087348],
            [-1.1067112, 50.808885],
            [-1.1044265, 50.810516],
            [-1.0953622, 50.8089085],
            [-1.0951072, 50.8090017],
            [-1.0952715, 50.8091321],
            [-1.0949252, 50.8094704],
            [-1.0948395, 50.8095228],
            [-1.0944711, 50.8094756],
            [-1.0941876, 50.8093972],
            [-1.0941991, 50.8090121],
            [-1.0943761, 50.8087147],
            [-1.094229, 50.8085738],
            [-1.0917606, 50.8090362],
            [-1.0916065, 50.8091307],
            [-1.0910005, 50.8114134],
            [-1.0911463, 50.811597],
            [-1.0914216, 50.8113863],
            [-1.0916543, 50.8114748],
            [-1.092338, 50.8110978],
            [-1.0927414, 50.8111026],
            [-1.0929469, 50.8109767],
            [-1.0933502, 50.8109816],
            [-1.0936134, 50.8111774],
            [-1.0956784, 50.8107101],
            [-1.0958629, 50.810723],
            [-1.0959257, 50.8108736],
            [-1.0953473, 50.811102],
            [-1.095495, 50.8112215],
            [-1.0970133, 50.8110472],
            [-1.0972816, 50.8110718],
            [-1.0974858, 50.8109887],
            [-1.097768, 50.8111098],
            [-1.0975777, 50.8112894],
            [-1.0973431, 50.8112652],
            [-1.0971725, 50.8113488],
            [-1.0957557, 50.8115029],
            [-1.0955337, 50.8116179],
            [-1.0955121, 50.8117782],
            [-1.0950415, 50.8117725],
            [-1.0942988, 50.8124377],
            [-1.0943564, 50.8127594],
            [-1.0925824, 50.8141826],
            [-1.0922152, 50.8140926],
            [-1.0877809, 50.8139534],
            [-1.0857058, 50.8136288],
            [-1.0839497, 50.8138858],
            [-1.0823033, 50.8138445],
            [-1.082259, 50.8136407],
            [-1.0821106, 50.8135426],
            [-1.0817079, 50.8135163],
            [-1.0813356, 50.8135974],
            [-1.0811377, 50.8134666],
            [-1.0809697, 50.8134646],
            [-1.0807249, 50.8132155],
            [-1.0803926, 50.8130831],
            [-1.0802811, 50.8123113],
            [-1.0798418, 50.8112573],
            [-1.079488, 50.8107179],
            [-1.0791316, 50.8102642],
            [-1.0778888, 50.8090935],
            [-1.0776486, 50.8081275],
            [-1.0774611, 50.8065201],
            [-1.077063, 50.8052098],
            [-1.0771247, 50.8042688],
            [-1.0775314, 50.8030324],
            [-1.0777339, 50.8018792],
            [-1.0777074, 50.8005091],
            [-1.0773817, 50.7990284],
            [-1.0772785, 50.7979785],
            [-1.0773422, 50.7958391],
            [-1.0775357, 50.7955525],
            [-1.0791993, 50.7950161],
            [-1.0795583, 50.7948171],
            [-1.0796744, 50.7943049],
            [-1.0799719, 50.7939125],
            [-1.080438, 50.794068],
            [-1.0806258, 50.7939739],
            [-1.0806125, 50.7938561],
            [-1.0801311, 50.7936469],
            [-1.0801679, 50.7935404],
            [-1.0803227, 50.7934245],
            [-1.0807565, 50.7935368],
            [-1.0809448, 50.7934213],
            [-1.0817809, 50.7924469],
            [-1.0820721, 50.7917014],
            [-1.0824285, 50.791588],
            [-1.0825959, 50.7916114],
            [-1.0827501, 50.791517],
            [-1.0828801, 50.7911012],
            [-1.0832156, 50.7911266],
            [-1.0833697, 50.7910322],
            [-1.0833869, 50.7904545],
            [-1.0835792, 50.7896436],
            [-1.0831499, 50.7893816],
            [-1.0833566, 50.7858314],
            [-1.0837105, 50.7852364],
            [-1.0849854, 50.7842031],
            [-1.0845542, 50.7840052],
            [-1.0846246, 50.7838991],
            [-1.0842619, 50.7836593],
            [-1.0843691, 50.7834466],
            [-1.0845886, 50.7834171],
            [-1.0850553, 50.7835511],
            [-1.0852246, 50.7835104],
            [-1.0854244, 50.783577],
            [-1.0855944, 50.7835149],
            [-1.085822, 50.7837744],
            [-1.0860446, 50.783638],
            [-1.0856763, 50.7824564],
            [-1.0854521, 50.7809556],
            [-1.0851408, 50.7801172],
            [-1.0849924, 50.7800191],
            [-1.0811519, 50.779138],
            [-1.080316, 50.7789781],
            [-1.078839, 50.7788961],
            [-1.0786691, 50.7783911],
            [-1.0806795, 50.7780622],
            [-1.085769, 50.7776528],
            [-1.0870857, 50.7774761],
            [-1.0881961, 50.7774467],
            [-1.0887048, 50.777303]
          ]
        ]
      }
    },
    {
      "type": "Feature",
      "properties": {
        "db_school_name": "Castle View Academy",
        "urn": "145372",
        "source_name": "Castle View Academy"
      },
      "geometry": {
        "type": "Polygon",
        "coordinates": [
          [
            [-1.0892625, 50.8284102],
            [-1.0897273, 50.8284119],
            [-1.0905281, 50.8286567],
            [-1.0907575, 50.8289935],
            [-1.0902885, 50.8294486],
            [-1.0889627, 50.8311906],
            [-1.0889195, 50.831298],
            [-1.0891086, 50.8314196],
            [-1.0892772, 50.831474],
            [-1.0902977, 50.830779],
            [-1.0905943, 50.8306994],
            [-1.0916501, 50.8307839],
            [-1.0930418, 50.8311114],
            [-1.0957032, 50.8312286],
            [-1.0962932, 50.8314189],
            [-1.0977844, 50.8324321],
            [-1.0992519, 50.8337274],
            [-1.1006593, 50.8346597],
            [-1.1017975, 50.8349863],
            [-1.1049112, 50.8365026],
            [-1.1074558, 50.837869],
            [-1.1074959, 50.838111],
            [-1.1072409, 50.8382713],
            [-1.1071972, 50.8384324],
            [-1.1075734, 50.8388907],
            [-1.1075712, 50.8391325],
            [-1.1072735, 50.8393464],
            [-1.1073561, 50.8395617],
            [-1.1070144, 50.8399636],
            [-1.1037484, 50.8459716],
            [-1.1043151, 50.8463902],
            [-1.1051162, 50.8466081],
            [-1.1061299, 50.8466655],
            [-1.1067204, 50.846802],
            [-1.1095086, 50.8469197],
            [-1.1098897, 50.8468404],
            [-1.1126372, 50.8467967],
            [-1.1134814, 50.8469073],
            [-1.1143689, 50.8469105],
            [-1.114984, 50.8466574],
            [-1.1150286, 50.8463888],
            [-1.1154119, 50.8460677],
            [-1.1154131, 50.8459334],
            [-1.1158794, 50.8457738],
            [-1.1155657, 50.8454099],
            [-1.1140059, 50.8449742],
            [-1.1132284, 50.8445011],
            [-1.1131875, 50.8443397],
            [-1.1133576, 50.8442328],
            [-1.1131914, 50.8439097],
            [-1.1133189, 50.8438296],
            [-1.1128142, 50.843559],
            [-1.1130282, 50.8432641],
            [-1.113261, 50.8432247],
            [-1.1135138, 50.8433062],
            [-1.1142337, 50.8431476],
            [-1.1157063, 50.8438785],
            [-1.1169316, 50.8439099],
            [-1.1173122, 50.8438844],
            [-1.1175882, 50.8437376],
            [-1.1181241, 50.842893],
            [-1.1182932, 50.8428936],
            [-1.1185656, 50.8431499],
            [-1.1189403, 50.8437694],
            [-1.1194016, 50.8441742],
            [-1.1194004, 50.8443085],
            [-1.1189328, 50.8446025],
            [-1.1191642, 50.8470757],
            [-1.1189975, 50.8515094],
            [-1.1189333, 50.8516032],
            [-1.1182568, 50.8516276],
            [-1.1179808, 50.8517744],
            [-1.1181663, 50.8546507],
            [-1.1174684, 50.8547153],
            [-1.1172346, 50.8548623],
            [-1.1171387, 50.8584765],
            [-1.1145187, 50.8584401],
            [-1.1142217, 50.8585734],
            [-1.1013423, 50.8573978],
            [-1.101151, 50.8575181],
            [-1.1004393, 50.8591145],
            [-1.0951524, 50.859579],
            [-1.085408, 50.8575549],
            [-1.0808883, 50.8572966],
            [-1.0767515, 50.856744],
            [-1.0728618, 50.856918],
            [-1.0726706, 50.8570382],
            [-1.0726213, 50.8578174],
            [-1.0721658, 50.8591192],
            [-1.0694232, 50.8586254],
            [-1.0682822, 50.8586213],
            [-1.0680272, 50.8587816],
            [-1.0673075, 50.8589134],
            [-1.0666961, 50.8587633],
            [-1.0665719, 50.8584673],
            [-1.0660472, 50.8580757],
            [-1.0639337, 50.8581217],
            [-1.0631527, 50.8580248],
            [-1.0631708, 50.8560093],
            [-1.0629817, 50.8558877],
            [-1.0603195, 50.8558511],
            [-1.0553144, 50.8555239],
            [-1.0553598, 50.8551747],
            [-1.055957, 50.8545587],
            [-1.0561722, 50.8541295],
            [-1.055772, 50.8539803],
            [-1.054758, 50.8539497],
            [-1.0546957, 50.8538286],
            [-1.0549099, 50.8535068],
            [-1.0559094, 50.8527983],
            [-1.0601467, 50.8515775],
            [-1.0617977, 50.851261],
            [-1.0641298, 50.8504095],
            [-1.0654677, 50.8496753],
            [-1.0670862, 50.8482838],
            [-1.0679355, 50.84783],
            [-1.0677681, 50.8476413],
            [-1.0678119, 50.8474802],
            [-1.0681091, 50.84732],
            [-1.0681118, 50.8470244],
            [-1.0676486, 50.8468346],
            [-1.0676505, 50.8466196],
            [-1.0679056, 50.8464593],
            [-1.0676981, 50.8460285],
            [-1.0679954, 50.8458684],
            [-1.0681244, 50.845627],
            [-1.0679565, 50.845492],
            [-1.0680002, 50.8453309],
            [-1.0684443, 50.8452922],
            [-1.0686356, 50.845172],
            [-1.0688117, 50.8443933],
            [-1.0685173, 50.8442309],
            [-1.0685185, 50.8440966],
            [-1.0687327, 50.8437749],
            [-1.0687349, 50.843533],
            [-1.0691592, 50.8433464],
            [-1.0691613, 50.8431046],
            [-1.0695434, 50.8429178],
            [-1.0696327, 50.8423807],
            [-1.0694654, 50.8421919],
            [-1.0697641, 50.8418705],
            [-1.0698955, 50.8413604],
            [-1.0706352, 50.8413497],
            [-1.0708264, 50.8412294],
            [-1.0710032, 50.8403701],
            [-1.0714357, 50.8392698],
            [-1.0713549, 50.8388664],
            [-1.0725867, 50.8381722],
            [-1.0723785, 50.837822],
            [-1.0725123, 50.8370432],
            [-1.0732544, 50.8367637],
            [-1.0744377, 50.836768],
            [-1.0751967, 50.8369589],
            [-1.075616, 50.8373366],
            [-1.0781929, 50.8374535],
            [-1.0800121, 50.8372451],
            [-1.0816665, 50.8365524],
            [-1.0829638, 50.83563],
            [-1.0876954, 50.8311323],
            [-1.0886785, 50.8298996],
            [-1.0885566, 50.8293617],
            [-1.0886464, 50.8287708],
            [-1.0889234, 50.8285165],
            [-1.0892625, 50.8284102]
          ]
        ]
      }
    },
    {
      "type": "Feature",
      "properties": {
        "db_school_name": "Miltoncross Academy",
        "urn": "140605",
        "source_name": "Miltoncross Secondary School"
      },
      "geometry": {
        "type": "Polygon",
        "coordinates": [
          [
            [-1.0606718, 50.782249],
            [-1.0607815, 50.7822738],
            [-1.0610032, 50.7830113],
            [-1.0607383, 50.7843676],
            [-1.0604988, 50.7845598],
            [-1.0602759, 50.7846194],
            [-1.0587324, 50.7845054],
            [-1.0585696, 50.7846049],
            [-1.057955, 50.7861441],
            [-1.0573541, 50.7872616],
            [-1.0570469, 50.7876483],
            [-1.0567577, 50.7878555],
            [-1.0565849, 50.7878845],
            [-1.0562717, 50.7880758],
            [-1.0561946, 50.7881842],
            [-1.055703, 50.7904752],
            [-1.0555472, 50.7907389],
            [-1.0555801, 50.7912394],
            [-1.0559797, 50.7917917],
            [-1.0563764, 50.7920548],
            [-1.0568132, 50.7922168],
            [-1.0575956, 50.7927037],
            [-1.0583574, 50.7934483],
            [-1.0588466, 50.7942674],
            [-1.0590673, 50.7950361],
            [-1.0595895, 50.7963558],
            [-1.0604508, 50.7978206],
            [-1.0613242, 50.7989105],
            [-1.0614564, 50.7989982],
            [-1.0658623, 50.7994466],
            [-1.0663543, 50.7994218],
            [-1.0671965, 50.7991984],
            [-1.0685061, 50.7989498],
            [-1.0686272, 50.7993812],
            [-1.0689317, 50.7998384],
            [-1.0633411, 50.8086895],
            [-1.0632288, 50.8087428],
            [-1.0624473, 50.8086075],
            [-1.061737, 50.8085513],
            [-1.0594776, 50.808553],
            [-1.0584297, 50.8083048],
            [-1.0574859, 50.8078705],
            [-1.0567515, 50.8077983],
            [-1.0563082, 50.8078394],
            [-1.0555652, 50.8080329],
            [-1.0545292, 50.8081756],
            [-1.0533803, 50.8087701],
            [-1.0528111, 50.8089033],
            [-1.0520517, 50.8088465],
            [-1.0510263, 50.8086611],
            [-1.0507808, 50.8086579],
            [-1.0498429, 50.8088019],
            [-1.0492042, 50.8088092],
            [-1.0475911, 50.8085693],
            [-1.0472966, 50.8085654],
            [-1.0469268, 50.8086074],
            [-1.0452199, 50.8089915],
            [-1.0427065, 50.8092555],
            [-1.0419205, 50.8092608],
            [-1.0420168, 50.8089417],
            [-1.0418641, 50.8083458],
            [-1.0423707, 50.8078679],
            [-1.0429421, 50.8069064],
            [-1.0427699, 50.8061539],
            [-1.0427906, 50.8055134],
            [-1.0425823, 50.8051199],
            [-1.0425901, 50.8041198],
            [-1.0425236, 50.8039001],
            [-1.0420804, 50.8031753],
            [-1.0419968, 50.802721],
            [-1.041788, 50.8023432],
            [-1.0416564, 50.8018569],
            [-1.0414461, 50.801526],
            [-1.0414286, 50.8013069],
            [-1.0411267, 50.8007716],
            [-1.0410616, 50.800505],
            [-1.0408037, 50.8001265],
            [-1.0407412, 50.7997819],
            [-1.0405984, 50.7996394],
            [-1.0405164, 50.7991381],
            [-1.0401193, 50.7985078],
            [-1.0397774, 50.7976906],
            [-1.0396047, 50.7969537],
            [-1.0392086, 50.7962921],
            [-1.0392718, 50.7962383],
            [-1.0394426, 50.7962717],
            [-1.0395809, 50.796172],
            [-1.0396191, 50.7957505],
            [-1.0395069, 50.7954208],
            [-1.0391989, 50.7950729],
            [-1.0392105, 50.7947136],
            [-1.0394475, 50.7945995],
            [-1.0400156, 50.7944975],
            [-1.0405377, 50.7943012],
            [-1.0407522, 50.7941242],
            [-1.0410763, 50.7939722],
            [-1.0413815, 50.793648],
            [-1.0419587, 50.7932648],
            [-1.0419372, 50.7931707],
            [-1.0423882, 50.7928953],
            [-1.0433252, 50.7920167],
            [-1.0436761, 50.7910367],
            [-1.0438369, 50.7909997],
            [-1.0445713, 50.7910718],
            [-1.0448925, 50.7910135],
            [-1.0450303, 50.7909294],
            [-1.0451074, 50.790821],
            [-1.0448475, 50.790505],
            [-1.0447599, 50.7901756],
            [-1.0444323, 50.7900541],
            [-1.0430868, 50.7898958],
            [-1.0421735, 50.7900402],
            [-1.0420111, 50.790124],
            [-1.0420511, 50.7904059],
            [-1.0419885, 50.7904441],
            [-1.0417175, 50.7904718],
            [-1.0413298, 50.7903105],
            [-1.0408849, 50.7903984],
            [-1.0389945, 50.7911395],
            [-1.0387205, 50.7912609],
            [-1.0383933, 50.7915067],
            [-1.0377204, 50.7918105],
            [-1.0370501, 50.7920362],
            [-1.0368241, 50.7921895],
            [-1.0366272, 50.7922025],
            [-1.0358045, 50.7925825],
            [-1.0354619, 50.7925468],
            [-1.0353432, 50.7924202],
            [-1.0352685, 50.7924504],
            [-1.0348041, 50.7923818],
            [-1.0339024, 50.7921669],
            [-1.0333864, 50.7921757],
            [-1.0331129, 50.7922816],
            [-1.0322987, 50.7927788],
            [-1.0322225, 50.792856],
            [-1.0323668, 50.7929517],
            [-1.0323402, 50.7930138],
            [-1.0322776, 50.7930521],
            [-1.0320822, 50.7930183],
            [-1.0319695, 50.7930871],
            [-1.0317369, 50.7934435],
            [-1.0316901, 50.7941306],
            [-1.0318342, 50.7949921],
            [-1.0318276, 50.7951952],
            [-1.0316728, 50.7954276],
            [-1.0317292, 50.7959598],
            [-1.0321815, 50.7964033],
            [-1.032472, 50.7965321],
            [-1.0324455, 50.7965943],
            [-1.0322591, 50.7966622],
            [-1.0318904, 50.796673],
            [-1.0313684, 50.7964864],
            [-1.0312548, 50.7962036],
            [-1.0310404, 50.7959976],
            [-1.0309779, 50.795653],
            [-1.0307931, 50.7952911],
            [-1.0307202, 50.7945087],
            [-1.030626, 50.7943824],
            [-1.0305465, 50.7938031],
            [-1.0304114, 50.7934262],
            [-1.0303959, 50.7931447],
            [-1.0307066, 50.7926486],
            [-1.0309664, 50.7914485],
            [-1.0309755, 50.7911673],
            [-1.0307857, 50.7909617],
            [-1.0306741, 50.7906164],
            [-1.0307092, 50.7902886],
            [-1.03059, 50.7901776],
            [-1.0306708, 50.7899599],
            [-1.0304329, 50.7897223],
            [-1.0304374, 50.7895817],
            [-1.0307537, 50.7889138],
            [-1.0309842, 50.7886199],
            [-1.0314643, 50.7882042],
            [-1.0314933, 50.7880639],
            [-1.0316682, 50.7879724],
            [-1.0316237, 50.7878312],
            [-1.0317645, 50.7876533],
            [-1.0321838, 50.7875962],
            [-1.0333291, 50.7871111],
            [-1.0341678, 50.7869971],
            [-1.0359729, 50.7866143],
            [-1.0375626, 50.7860569],
            [-1.0395815, 50.7858957],
            [-1.0415549, 50.7856246],
            [-1.0443945, 50.785146],
            [-1.0474516, 50.7847797],
            [-1.0478689, 50.7847852],
            [-1.0517405, 50.7842889],
            [-1.0538912, 50.7838481],
            [-1.0553967, 50.7836178],
            [-1.0574248, 50.7831755],
            [-1.0606718, 50.782249]
          ]
        ]
      }
    },
    {
      "type": "Feature",
      "properties": {
        "db_school_name": "Springfield School",
        "urn": "144192",
        "source_name": "Springfield Secondary School"
      },
      "geometry": {
        "type": "Polygon",
        "coordinates": [
          [
            [-1.0231612, 50.8243917],
            [-1.0234603, 50.8244244],
            [-1.0236738, 50.8245984],
            [-1.0242431, 50.8245431],
            [-1.0247592, 50.8247019],
            [-1.0257403, 50.8246826],
            [-1.0270682, 50.8250808],
            [-1.0273628, 50.8254369],
            [-1.0272924, 50.8258902],
            [-1.0275991, 50.8260789],
            [-1.0283547, 50.826053],
            [-1.0285317, 50.8259503],
            [-1.0286507, 50.8256063],
            [-1.0293721, 50.8255315],
            [-1.0296308, 50.8258625],
            [-1.0301417, 50.8260931],
            [-1.0307565, 50.8269738],
            [-1.0312067, 50.8272625],
            [-1.0343344, 50.8277851],
            [-1.0347557, 50.8279532],
            [-1.0348906, 50.8281728],
            [-1.0359031, 50.8324201],
            [-1.035794, 50.8344539],
            [-1.0359555, 50.8345665],
            [-1.0377539, 50.8341876],
            [-1.0385781, 50.8337323],
            [-1.0410704, 50.8336613],
            [-1.0414926, 50.8335538],
            [-1.0421219, 50.8331887],
            [-1.0432656, 50.8330064],
            [-1.0443526, 50.833086],
            [-1.044867, 50.8332688],
            [-1.046956, 50.8330421],
            [-1.0473679, 50.8330781],
            [-1.0482842, 50.8329131],
            [-1.0492671, 50.8328699],
            [-1.05186, 50.8329696],
            [-1.0527781, 50.8327807],
            [-1.0535302, 50.8328026],
            [-1.0553828, 50.8332401],
            [-1.0561055, 50.8336686],
            [-1.0571412, 50.8339384],
            [-1.0597866, 50.8348783],
            [-1.0624886, 50.8355563],
            [-1.0662538, 50.8361215],
            [-1.0676041, 50.8362088],
            [-1.0727163, 50.8369091],
            [-1.0741418, 50.8369986],
            [-1.0742315, 50.8370612],
            [-1.0740669, 50.8377753],
            [-1.0742939, 50.8382852],
            [-1.0729191, 50.8390599],
            [-1.0729239, 50.8395153],
            [-1.0724806, 50.840437],
            [-1.0720849, 50.8417435],
            [-1.0720241, 50.8418017],
            [-1.0712362, 50.8417547],
            [-1.0710592, 50.8418574],
            [-1.0709581, 50.8422139],
            [-1.0706742, 50.8424932],
            [-1.0708125, 50.842665],
            [-1.0705983, 50.8435454],
            [-1.0702119, 50.8436779],
            [-1.0701518, 50.8439877],
            [-1.0697071, 50.8444061],
            [-1.0697889, 50.8448398],
            [-1.0695232, 50.8459105],
            [-1.0691727, 50.846068],
            [-1.0691196, 50.8462821],
            [-1.0688084, 50.8464169],
            [-1.0687894, 50.8466799],
            [-1.0690064, 50.8468061],
            [-1.0690354, 50.8469267],
            [-1.0686045, 50.8471538],
            [-1.0685959, 50.8472734],
            [-1.0688453, 50.8474724],
            [-1.0687935, 50.8481898],
            [-1.0686362, 50.8482811],
            [-1.0687797, 50.8483811],
            [-1.0687677, 50.8485485],
            [-1.0675964, 50.8491134],
            [-1.0655989, 50.8506847],
            [-1.064213, 50.8513513],
            [-1.0615493, 50.8522321],
            [-1.0597954, 50.8525165],
            [-1.055188, 50.8537001],
            [-1.0545373, 50.8541005],
            [-1.0540157, 50.8545406],
            [-1.0543634, 50.8546825],
            [-1.0554898, 50.8547394],
            [-1.0555743, 50.8548736],
            [-1.0551876, 50.8555333],
            [-1.0544983, 50.8562082],
            [-1.0542809, 50.8566093],
            [-1.0544224, 50.8572604],
            [-1.0540056, 50.858075],
            [-1.0525477, 50.8579127],
            [-1.0520485, 50.8580419],
            [-1.0517742, 50.8579261],
            [-1.0517197, 50.8576369],
            [-1.0514506, 50.8574493],
            [-1.0507858, 50.8572622],
            [-1.0503445, 50.8576327],
            [-1.0501582, 50.8576033],
            [-1.0499788, 50.8574783],
            [-1.0497173, 50.8574467],
            [-1.0493799, 50.8571612],
            [-1.0494093, 50.8567547],
            [-1.0492137, 50.8565932],
            [-1.0460311, 50.8563086],
            [-1.0462464, 50.8551527],
            [-1.0459756, 50.854989],
            [-1.0418377, 50.854365],
            [-1.0372007, 50.8538702],
            [-1.0344642, 50.8536706],
            [-1.023, 50.8532642],
            [-1.0207745, 50.8532951],
            [-1.0204643, 50.8531543],
            [-1.0199403, 50.8520606],
            [-1.0200028, 50.8506725],
            [-1.0201045, 50.8505676],
            [-1.0215628, 50.8502027],
            [-1.0222031, 50.8499458],
            [-1.0215567, 50.8479379],
            [-1.0220755, 50.8477973],
            [-1.0227559, 50.8477692],
            [-1.0229722, 50.8476437],
            [-1.0228211, 50.8460816],
            [-1.0226272, 50.8458962],
            [-1.0215674, 50.8459612],
            [-1.0212897, 50.8458931],
            [-1.0208905, 50.8446353],
            [-1.020963, 50.8436309],
            [-1.0208181, 50.8430276],
            [-1.0205569, 50.8424688],
            [-1.0203596, 50.8423312],
            [-1.0198349, 50.842292],
            [-1.0196034, 50.8421055],
            [-1.0195713, 50.8415054],
            [-1.0201671, 50.8413431],
            [-1.0203475, 50.8411926],
            [-1.0187458, 50.8388453],
            [-1.018594, 50.8383376],
            [-1.0189976, 50.8379659],
            [-1.0189379, 50.8377485],
            [-1.0201406, 50.8362259],
            [-1.0206678, 50.8351868],
            [-1.0203348, 50.834578],
            [-1.0203421, 50.8339551],
            [-1.0204773, 50.8336476],
            [-1.0218849, 50.8324185],
            [-1.0222272, 50.8318533],
            [-1.022805, 50.8316785],
            [-1.0227661, 50.8311741],
            [-1.0229955, 50.8306056],
            [-1.0232794, 50.8303263],
            [-1.0231514, 50.8300111],
            [-1.0219264, 50.8292324],
            [-1.0216173, 50.828816],
            [-1.0218501, 50.8281997],
            [-1.0223497, 50.8275433],
            [-1.0228068, 50.8264303],
            [-1.0234879, 50.8253478],
            [-1.0235137, 50.8249891],
            [-1.0229038, 50.8245639],
            [-1.0229124, 50.8244443],
            [-1.0231612, 50.8243917]
          ]
        ]
      }
    },
    {
      "type": "Feature",
      "properties": {
        "db_school_name": "Priory School",
        "urn": "141175",
        "source_name": "Priory Secondary School"
      },
      "geometry": {
        "type": "Polygon",
        "coordinates": [
          [
            [-1.0816232, 50.7775444],
            [-1.0817767, 50.7775661],
            [-1.0818208, 50.7779115],
            [-1.0819334, 50.7780071],
            [-1.0834449, 50.7782226],
            [-1.0883132, 50.7797684],
            [-1.0885107, 50.7802442],
            [-1.0885888, 50.7808719],
            [-1.088526, 50.782666],
            [-1.0886821, 50.7838129],
            [-1.0885523, 50.7839562],
            [-1.0881393, 50.7841125],
            [-1.0878289, 50.7839755],
            [-1.0878392, 50.7838756],
            [-1.0876141, 50.7837387],
            [-1.0873684, 50.7837473],
            [-1.0869419, 50.7835843],
            [-1.0867952, 50.7836407],
            [-1.0870987, 50.7839167],
            [-1.0870269, 50.7840187],
            [-1.0873442, 50.7841796],
            [-1.0874362, 50.7843664],
            [-1.0857872, 50.7854106],
            [-1.0855413, 50.7856365],
            [-1.085251, 50.7860599],
            [-1.085032, 50.7868157],
            [-1.0848811, 50.7878105],
            [-1.0846041, 50.7886075],
            [-1.0843678, 50.7896566],
            [-1.0847873, 50.7899586],
            [-1.084384, 50.7908838],
            [-1.0841103, 50.7917742],
            [-1.0836702, 50.7917263],
            [-1.0835473, 50.7917849],
            [-1.0833046, 50.7922671],
            [-1.0829054, 50.7921996],
            [-1.082629, 50.7922907],
            [-1.0823795, 50.792749],
            [-1.081915, 50.7932962],
            [-1.0815155, 50.7936631],
            [-1.0812731, 50.7937651],
            [-1.0809179, 50.7941517],
            [-1.0807029, 50.7942407],
            [-1.0807609, 50.794308],
            [-1.0806857, 50.7944253],
            [-1.0808085, 50.7945296],
            [-1.0806308, 50.7947771],
            [-1.0805148, 50.7948053],
            [-1.0798632, 50.7945597],
            [-1.0795832, 50.7947746],
            [-1.0793781, 50.7952524],
            [-1.0791732, 50.7954587],
            [-1.0788251, 50.7955976],
            [-1.0770026, 50.7960054],
            [-1.076825, 50.7960901],
            [-1.0767499, 50.7962073],
            [-1.0766267, 50.7965917],
            [-1.0765074, 50.7965265],
            [-1.0765075, 50.7963093],
            [-1.0762824, 50.7961724],
            [-1.0729417, 50.7961779],
            [-1.0712728, 50.7964446],
            [-1.0699826, 50.7969242],
            [-1.0690027, 50.7975951],
            [-1.0672543, 50.7993517],
            [-1.0671247, 50.7992235],
            [-1.0670432, 50.7987196],
            [-1.0669511, 50.7986414],
            [-1.0647124, 50.7989491],
            [-1.0641527, 50.7989446],
            [-1.0591167, 50.7980351],
            [-1.0582613, 50.796584],
            [-1.0575462, 50.7946723],
            [-1.0572339, 50.7924871],
            [-1.056999, 50.7917985],
            [-1.0567025, 50.791275],
            [-1.0562047, 50.790671],
            [-1.0554306, 50.7900495],
            [-1.0549053, 50.7897844],
            [-1.0545506, 50.789465],
            [-1.0543393, 50.7891044],
            [-1.054193, 50.7885635],
            [-1.0543367, 50.7881422],
            [-1.0545382, 50.7878968],
            [-1.0555911, 50.7853862],
            [-1.0558335, 50.7851756],
            [-1.0560656, 50.7850649],
            [-1.0563455, 50.7850128],
            [-1.0566083, 50.7848739],
            [-1.0570659, 50.7844657],
            [-1.057568, 50.7838598],
            [-1.0591293, 50.7814732],
            [-1.0594398, 50.7814473],
            [-1.06104, 50.7817019],
            [-1.061395, 50.7815869],
            [-1.0615726, 50.7813393],
            [-1.0620171, 50.7802317],
            [-1.0619769, 50.7792195],
            [-1.0629871, 50.7790091],
            [-1.0647651, 50.778799],
            [-1.0678637, 50.7785697],
            [-1.0695974, 50.77834],
            [-1.0709385, 50.7782296],
            [-1.077552, 50.7778711],
            [-1.0795723, 50.7776675],
            [-1.0816232, 50.7775444]
          ]
        ]
      }
    }
  ]
}
