{
  "type": "FeatureCollection",
  "features": [
    {
      "type": "Feature",
      "properties": {
        "db_school_name": "Aston Academy",
        "urn": "136718",
        "source_name": "Aston Academy"
      },
      "geometry": {
        "type": "Polygon",
        "coordinates": [
          [
            [-1.2726394197957178, 53.394617620324404],
            [-1.277474284980327, 53.39361820267673],
            [-1.2860847247934706, 53.39325882766065],
            [-1.2912340220940464, 53.39411298170277],
            [-1.2929418558359072, 53.3949464081943],
            [-1.2967147999523996, 53.3957920964727],
            [-1.2963770767672123, 53.39537848275872],
            [-1.2974192500649853, 53.39476726236327],
            [-1.3029354898421086, 53.39418246412655],
            [-1.3077505849242166, 53.3944165260371],
            [-1.3229309962466709, 53.39203470660774],
            [-1.3232844274983813, 53.39141931861974],
            [-1.3213065113645892, 53.385645497449126],
            [-1.3210027877948078, 53.38296830956555],
            [-1.3189726180440398, 53.38069280293568],
            [-1.3180153172900553, 53.375747999582366],
            [-1.316664263317507, 53.37409377381157],
            [-1.3173647511848685, 53.373274601567246],
            [-1.318734497607286, 53.373694104051985],
            [-1.3204296304391177, 53.37535028305567],
            [-1.3210524654934295, 53.379675737033004],
            [-1.32341438916057, 53.382776320127746],
            [-1.3256903299542313, 53.391638856071324],
            [-1.3446122518573111, 53.392156788610485],
            [-1.347721496261817, 53.39135076154524],
            [-1.3494392371404318, 53.39156602365093],
            [-1.3515425647099897, 53.38890213452757],
            [-1.3539779434607178, 53.387063233957356],
            [-1.3608717591471193, 53.38627747589272],
            [-1.3591950700468123, 53.383181357815516],
            [-1.3557807413205223, 53.38131058070276],
            [-1.3507205163622555, 53.374285596005635],
            [-1.3514233130382212, 53.37326043475115],
            [-1.3726169498161185, 53.38304752460539],
            [-1.3767345258275474, 53.38389251251991],
            [-1.383627420163523, 53.38310543742403],
            [-1.3791713601232458, 53.38184730460638],
            [-1.3648478760332354, 53.37271589036341],
            [-1.360107780609758, 53.367339443073526],
            [-1.3511680726214066, 53.36708492633674],
            [-1.3440230036015333, 53.36169460952976],
            [-1.3392475623997362, 53.35899257279079],
            [-1.3362313912278287, 53.35362477270214],
            [-1.335208980052125, 53.35300161691303],
            [-1.3314237783924947, 53.35318608439115],
            [-1.3293852701308086, 53.35152810782304],
            [-1.3294128191655796, 53.34967602309768],
            [-1.3283783388823016, 53.349875957851474],
            [-1.3266685294677163, 53.34924882258374],
            [-1.3169953006407011, 53.35228043247625],
            [-1.3063240574676878, 53.35304156133462],
            [-1.302529163814709, 53.353842470221174],
            [-1.2952602192300022, 53.35688647157852],
            [-1.2934956314333885, 53.359757215689214],
            [-1.2924542612865064, 53.36036840804025],
            [-1.2855470440497856, 53.36217915341449],
            [-1.2854095171544981, 53.37082211475221],
            [-1.280845557994474, 53.37655699639229],
            [-1.2800155278595509, 53.38540152896279],
            [-1.2726394197957178, 53.394617620324404]
          ]
        ]
      }
    },
    {
      "type": "Feature",
      "properties": {
        "db_school_name": "Brinsworth Academy",
        "urn": "136301",
        "source_name": "Brinsworth Academy"
      },
      "geometry": {
        "type": "Polygon",
        "coordinates": [
          [
            [-1.3009103216606213, 53.41372181359624],
            [-1.3084948590898529, 53.413148948679726],
            [-1.312598299076248, 53.41502507027299],
            [-1.3146705615221923, 53.41462548018492],
            [-1.3216161274509612, 53.410755240649394],
            [-1.3236880988464637, 53.41035549289091],
            [-1.3261320735150435, 53.40810560460511],
            [-1.3282069475250895, 53.40749999262148],
            [-1.3285635043322128, 53.406678805563466],
            [-1.3309917129161086, 53.40545774153006],
            [-1.3327129861147509, 53.40546745988271],
            [-1.3344464317927427, 53.4046540114013],
            [-1.3389277053163362, 53.40426752638354],
            [-1.3403167452233775, 53.40345206829137],
            [-1.3471955708582861, 53.40390182639603],
            [-1.3472492262837001, 53.40019767620748],
            [-1.3496765324978648, 53.39897622819699],
            [-1.350703215793856, 53.399393472849624],
            [-1.3489494864163736, 53.40164766320714],
            [-1.3496141821192043, 53.40329773942312],
            [-1.3578436871523634, 53.40560652265733],
            [-1.3622841357329711, 53.408100171066124],
            [-1.3643469057183457, 53.40831707582138],
            [-1.366427030175361, 53.4072992250061],
            [-1.3702140227366977, 53.40731944946475],
            [-1.3729567729438132, 53.408157230422525],
            [-1.3760581296734573, 53.40796783037538],
            [-1.3777880215165745, 53.40735953813529],
            [-1.379165114147116, 53.40736677537871],
            [-1.3798480126732127, 53.40778196241921],
            [-1.378801037386523, 53.408805477466224],
            [-1.3760382323481335, 53.40940833941074],
            [-1.371562471881095, 53.409384642513366],
            [-1.3698496445919988, 53.40875812339],
            [-1.3674425425753785, 53.40853947290606],
            [-1.3636380294572554, 53.40975387934759],
            [-1.3629261989757355, 53.41139646459344],
            [-1.367402163173803, 53.41142048576042],
            [-1.3718666819124712, 53.412267486133004],
            [-1.3760012755616586, 53.412083569534694],
            [-1.3791085612233802, 53.41148251729367],
            [-1.380830093992508, 53.41149154280274],
            [-1.3821988815848973, 53.41211610672748],
            [-1.3866805208655435, 53.41172783122368],
            [-1.3853172756012582, 53.410691743923074],
            [-1.3819389983545611, 53.40594069115619],
            [-1.3805732323755602, 53.405110336890075],
            [-1.3806211717331567, 53.401611951756585],
            [-1.3771987578751712, 53.40015336094103],
            [-1.3754975933565614, 53.39870377325783],
            [-1.3755118132952575, 53.3976748365145],
            [-1.376905615570436, 53.39644737447485],
            [-1.3741863384915032, 53.393963385196365],
            [-1.3742034372530212, 53.392728660393516],
            [-1.3759469415717993, 53.39109145379262],
            [-1.3780174545787418, 53.39069075792009],
            [-1.3818311077659597, 53.38865273187838],
            [-1.3856332211022828, 53.387437734756844],
            [-1.3877146025628317, 53.38621371708432],
            [-1.3894628723516391, 53.38416473249987],
            [-1.37912051193682, 53.38555148839738],
            [-1.3736206646647817, 53.38511087473736],
            [-1.370194074462029, 53.38406365910703],
            [-1.3565187367538831, 53.37781594344545],
            [-1.3578626742630342, 53.38008708389614],
            [-1.3616152458882593, 53.382371234378866],
            [-1.3643127796365118, 53.38629602195576],
            [-1.3643011925457398, 53.387119171236215],
            [-1.3625719330553918, 53.387727272022865],
            [-1.3553337938883565, 53.38851125237515],
            [-1.3507921122610005, 53.39321987905629],
            [-1.3473505425748133, 53.39320094165986],
            [-1.3452766348127083, 53.39380689063499],
            [-1.3246331926526849, 53.393279252703515],
            [-1.30944926856287, 53.395867071730486],
            [-1.2991175949125193, 53.396217953850034],
            [-1.2987573471431195, 53.39724483714112],
            [-1.3009103216606213, 53.41372181359624]
          ]
        ]
      }
    },
    {
      "type": "Feature",
      "properties": {
        "db_school_name": "Clifton Community School",
        "urn": "143545",
        "source_name": "Clifton Community School"
      },
      "geometry": {
        "type": "Polygon",
        "coordinates": [
          [
            [-1.3522184124097327, 53.437680940931344],
            [-1.3532903824202382, 53.435011386439676],
            [-1.351900555532156, 53.43582698878625],
            [-1.3494920204919665, 53.43560797318185],
            [-1.3453310863237813, 53.4374372428027],
            [-1.337721481889044, 53.43945292428997],
            [-1.3318461265138473, 53.440654716977186],
            [-1.3294343542937588, 53.44064108074979],
            [-1.3259797054779818, 53.44123886772818],
            [-1.3252968011438044, 53.44082337498927],
            [-1.326001319418459, 53.43979838018998],
            [-1.3339408048424954, 53.43881430787123],
            [-1.34466303829933, 53.43599293591738],
            [-1.3505522350507966, 53.433761583256825],
            [-1.3533110678887463, 53.43357088974058],
            [-1.3512619580862115, 53.43232486571509],
            [-1.3516182829617036, 53.43150361254378],
            [-1.348161702562623, 53.432307830237555],
            [-1.33954989831229, 53.43226008731375],
            [-1.3388670041437813, 53.431844671563674],
            [-1.3388791019055022, 53.43102153248231],
            [-1.3406134743713354, 53.43020800078177],
            [-1.3402871239146714, 53.42897137192577],
            [-1.3420213858810572, 53.42815781916685],
            [-1.3379153824206018, 53.426282704878055],
            [-1.3330843054539006, 53.42687298786461],
            [-1.3310544797342962, 53.42439191024704],
            [-1.3307652013021656, 53.42068583779969],
            [-1.3245849657854918, 53.41941592019728],
            [-1.3252582552602654, 53.42044877123689],
            [-1.3255161715817783, 53.42621270013646],
            [-1.32375690023814, 53.42867228702809],
            [-1.3223729266821727, 53.429075977120284],
            [-1.3216902516298208, 53.42866046363821],
            [-1.3217057867219268, 53.42763154270335],
            [-1.3231083199475326, 53.42599315432997],
            [-1.3231641129597684, 53.422289035401086],
            [-1.3218300326019565, 53.419400168687744],
            [-1.3208031539693055, 53.41898267656888],
            [-1.3177038882659091, 53.41896485361822],
            [-1.3142476958095315, 53.419768092758225],
            [-1.3125290020765006, 53.41955232234361],
            [-1.3135369396733096, 53.42120459001818],
            [-1.3128135380277701, 53.42346421853424],
            [-1.31107259830649, 53.424688914404456],
            [-1.311729867282312, 53.42675075912291],
            [-1.3141156963014933, 53.42841102145643],
            [-1.322369822796728, 53.429281761299144],
            [-1.323738316729806, 53.42990699241717],
            [-1.3240301357430206, 53.43340729034533],
            [-1.3232574704500952, 53.438959521830284],
            [-1.3239248371765717, 53.44040394555943],
            [-1.3238876623151532, 53.44287335127799],
            [-1.3259673538075853, 53.44206200330456],
            [-1.3328553070799538, 53.442306819611986],
            [-1.335258045885325, 53.44293773977419],
            [-1.3373253930373141, 53.442949330513414],
            [-1.3404384890656302, 53.442143511760314],
            [-1.3453011453048618, 53.43949509063593],
            [-1.3494474121554612, 53.43869474807822],
            [-1.3522184124097327, 53.437680940931344]
          ]
        ]
      }
    },
    {
      "type": "Feature",
      "properties": {
        "db_school_name": "Dinnington High School",
        "urn": "150938",
        "source_name": "Dinnington High School"
      },
      "geometry": {
        "type": "Polygon",
        "coordinates": [
          [
            [-1.2351919574930976, 53.41064023780226],
            [-1.2362318600688282, 53.41023533858842],
            [-1.2387470175347226, 53.404077411882845],
            [-1.2363443957649252, 53.40365034084398],
            [-1.2284306077869387, 53.40339326196206],
            [-1.2277492626558355, 53.402977214677136],
            [-1.2309995903632147, 53.3941487752876],
            [-1.2348451789969623, 53.39067500263227],
            [-1.2328510338848362, 53.38654601436239],
            [-1.2328757474263012, 53.38510554209651],
            [-1.2339185723078232, 53.384494877352225],
            [-1.236678222239257, 53.38410108475257],
            [-1.2374225040975817, 53.38081300433402],
            [-1.238833709367029, 53.37876403475948],
            [-1.2385001842968197, 53.378144476392364],
            [-1.2340736406107473, 53.375440468985055],
            [-1.2289951656587972, 53.37067400092409],
            [-1.2290235415957027, 53.369027743916845],
            [-1.2308140691527125, 53.3649232806285],
            [-1.2339340102487255, 53.36350286664559],
            [-1.2367273902400195, 53.361051239957746],
            [-1.24190315526477, 53.360055462747745],
            [-1.2425978794776844, 53.35964829794244],
            [-1.2426152798953154, 53.358619382290364],
            [-1.238523835603968, 53.35653508580124],
            [-1.2368115853828001, 53.35611245085262],
            [-1.2357940865026362, 53.35528266590888],
            [-1.2320330000572597, 53.35402349847746],
            [-1.2320612414687884, 53.35237723570989],
            [-1.2279460633370705, 53.351733058372695],
            [-1.219053624594236, 53.348999270037496],
            [-1.2122430621423461, 53.345249649831715],
            [-1.202007422008582, 53.340859185910034],
            [-1.1965189411134627, 53.340204657416685],
            [-1.1948114729401282, 53.33957564121036],
            [-1.195233001781097, 53.33525656329027],
            [-1.1966446979180623, 53.33320807892983],
            [-1.1963602235486595, 53.32991323696781],
            [-1.1946754082658633, 53.328049527528535],
            [-1.1898833743486539, 53.32698780679866],
            [-1.1885238729862981, 53.32615526990758],
            [-1.175123323367963, 53.32606269357549],
            [-1.1751157222315143, 53.32647425560845],
            [-1.1726837936387255, 53.327897945851085],
            [-1.170965707165445, 53.3278859328522],
            [-1.1702670004413813, 53.32849846284175],
            [-1.1650895804960035, 53.32969692743236],
            [-1.162657135868849, 53.33112041052513],
            [-1.1605372096127986, 53.33419251895208],
            [-1.150480720787435, 53.33885440541395],
            [-1.146996434837288, 53.34129906102281],
            [-1.1411412547134718, 53.3418741873558],
            [-1.1421090475200184, 53.345174116680894],
            [-1.145910059252788, 53.344172538299645],
            [-1.1521131485422265, 53.343393860302655],
            [-1.1579528530304923, 53.343641314220875],
            [-1.1589724389866627, 53.34426597762098],
            [-1.1602970616205286, 53.34695086489183],
            [-1.1619965763070446, 53.3479919325256],
            [-1.162321027978618, 53.34902326153345],
            [-1.1640206741681849, 53.35006430049512],
            [-1.1646889931785838, 53.351098048253576],
            [-1.1639396590392794, 53.35438567106868],
            [-1.164608042551836, 53.35541941878994],
            [-1.1645694872121015, 53.35747721314638],
            [-1.1631708940408083, 53.35870218344335],
            [-1.1617954371700439, 53.35869246162993],
            [-1.1508584832127375, 53.35511587844602],
            [-1.1481038752133803, 53.355301914743656],
            [-1.1456812413542872, 53.35610770202859],
            [-1.1408595204969285, 53.35648445854019],
            [-1.1414599340696643, 53.361016561469576],
            [-1.1424678006024267, 53.36225869896105],
            [-1.1465984405280967, 53.36208270804854],
            [-1.1489860144866695, 53.36312891012042],
            [-1.1485870446144069, 53.36600733678771],
            [-1.1468358962297314, 53.36764119611694],
            [-1.1481998276266496, 53.36826842601566],
            [-1.1481722730705581, 53.36970887310499],
            [-1.146405174251944, 53.37216583654495],
            [-1.1440013337708712, 53.37194269406454],
            [-1.1419176841518306, 53.372956660082444],
            [-1.1395098449246805, 53.37293920474802],
            [-1.1367460554735604, 53.37353652856087],
            [-1.136030123175574, 53.37497195779507],
            [-1.1325621085622923, 53.37638727617964],
            [-1.133234078525395, 53.377215417031415],
            [-1.1332019998433276, 53.37886163347873],
            [-1.1352301419912854, 53.38072870226926],
            [-1.134830067225731, 53.38360707009921],
            [-1.1334257501648342, 53.38503745646754],
            [-1.1333655964992861, 53.38812410800321],
            [-1.1361103928454497, 53.388555752191394],
            [-1.1367906094273164, 53.38897231871493],
            [-1.1364105386307752, 53.39082180411522],
            [-1.1377870219172421, 53.3908318225325],
            [-1.1401799569286852, 53.391672424442945],
            [-1.1445903106208426, 53.3949972194049],
            [-1.1548915405760554, 53.396305932900376],
            [-1.1593423915178163, 53.39757241111172],
            [-1.1662297996875053, 53.3974152487698],
            [-1.1762033304338648, 53.397896593519164],
            [-1.1878680318239612, 53.40003514351476],
            [-1.1964099951332545, 53.40359204825847],
            [-1.2001891363071049, 53.40402922187404],
            [-1.201210778245768, 53.40465352570591],
            [-1.2018513795404457, 53.40733329867441],
            [-1.2155820202707819, 53.409688825293976],
            [-1.2351919574930976, 53.41064023780226]
          ]
        ]
      }
    },
    {
      "type": "Feature",
      "properties": {
        "db_school_name": "Maltby Academy",
        "urn": "136042",
        "source_name": "Maltby Academy"
      },
      "geometry": {
        "type": "Polygon",
        "coordinates": [
          [
            [-1.2551025527431392, 53.41426576230563],
            [-1.2551162599102759, 53.41344263508996],
            [-1.217963135719308, 53.41135099523453],
            [-1.2114324800804888, 53.410690305803335],
            [-1.2001079332103242, 53.40855637044718],
            [-1.1990862145966208, 53.407932057299845],
            [-1.198782626226987, 53.40566615699424],
            [-1.195691839374729, 53.405233612811244],
            [-1.1857802778905158, 53.40125564810741],
            [-1.1744557272284322, 53.39932506984424],
            [-1.1651702599329976, 53.398848427895366],
            [-1.1610361282768413, 53.39902504686789],
            [-1.168217980448708, 53.40154531860743],
            [-1.174757980817023, 53.401591029228186],
            [-1.181619531893426, 53.40287343099592],
            [-1.190109181160909, 53.409311686296554],
            [-1.191456412563978, 53.41096731924548],
            [-1.1941846756940924, 53.41242652885504],
            [-1.1948584063427081, 53.4132543242958],
            [-1.1962282124717956, 53.41367522965705],
            [-1.2013228307939308, 53.417619946103116],
            [-1.2029930398096735, 53.420512443663306],
            [-1.2022895767621895, 53.42133092685541],
            [-1.2012564586527568, 53.42132396952917],
            [-1.1998974399526867, 53.42028578437036],
            [-1.199578945573864, 53.418843006444085],
            [-1.1948323824648384, 53.41469477697889],
            [-1.1893794535304982, 53.411570546453255],
            [-1.1822626525713642, 53.40534752642815],
            [-1.1791948125666878, 53.40367988428321],
            [-1.1747351025050727, 53.40282569940742],
            [-1.1671622529592005, 53.40277273629332],
            [-1.1616935016428822, 53.40067613888793],
            [-1.1548407325306678, 53.39898104050317],
            [-1.1465802303249535, 53.39892186539053],
            [-1.1441867626605668, 53.398081390659804],
            [-1.1407966555867886, 53.395381398524414],
            [-1.1370189099590196, 53.39494235018696],
            [-1.1363385965940143, 53.39452578498888],
            [-1.1370428731069706, 53.39370769003159],
            [-1.139107738351443, 53.393722701322254],
            [-1.1370668344682557, 53.39247302961176],
            [-1.135690298495638, 53.39246300268278],
            [-1.1328970932928135, 53.39450066626856],
            [-1.1301398672526626, 53.39468627620101],
            [-1.1242041286554836, 53.39896450603612],
            [-1.1187053366310384, 53.39851215546633],
            [-1.1176646176624256, 53.3989160284263],
            [-1.117263173714563, 53.4017943230802],
            [-1.1185011291883036, 53.4088009247999],
            [-1.1226323027982854, 53.40883155879653],
            [-1.1288492546635858, 53.40784836300731],
            [-1.134709652368298, 53.40747965915473],
            [-1.1360586689677168, 53.40893013242457],
            [-1.1377640336662231, 53.40976576575527],
            [-1.1442854376821507, 53.41084203172287],
            [-1.1477282701745934, 53.41086682734062],
            [-1.1484089544886737, 53.41128332797075],
            [-1.1462207163652804, 53.417647545069144],
            [-1.1385255825015794, 53.4237660391685],
            [-1.1481526568716098, 53.42465879799017],
            [-1.152997718501783, 53.42345867505089],
            [-1.155064033562028, 53.42347341599312],
            [-1.1578308162874686, 53.42287568465811],
            [-1.1619595191224419, 53.4231107403578],
            [-1.1649817090260937, 53.42724814719222],
            [-1.169057059012941, 53.430363837407896],
            [-1.1703849350169981, 53.43304858688374],
            [-1.1720881080077685, 53.43408950999941],
            [-1.1769183533414924, 53.43371152909906],
            [-1.1821081105010616, 53.432512618569106],
            [-1.1848638035260015, 53.432531595931415],
            [-1.1862491747345323, 53.43212950498837],
            [-1.1879639619100353, 53.43255286948333],
            [-1.1882821602537257, 53.43399567398351],
            [-1.1941382244922847, 53.43403562298629],
            [-1.194834615144406, 53.4336287474659],
            [-1.1945199190768567, 53.43198018120925],
            [-1.1969608069358426, 53.430350311542554],
            [-1.2086719720863381, 53.43042906801138],
            [-1.210731367500774, 53.43085440533163],
            [-1.2168845059121645, 53.43357066053477],
            [-1.218951344308399, 53.433584298012896],
            [-1.2224176018162725, 53.43237226993197],
            [-1.226206705233887, 53.43239706877482],
            [-1.2279361476041157, 53.431996741420846],
            [-1.2324106071441916, 53.43223160934698],
            [-1.2393139053164488, 53.431452910542134],
            [-1.2423791201695036, 53.433530576473935],
            [-1.2420032117338913, 53.435380398022644],
            [-1.2494103444267175, 53.42513740414038],
            [-1.2551025527431392, 53.41426576230563]
          ]
        ]
      }
    },
    {
      "type": "Feature",
      "properties": {
        "db_school_name": "Oakwood High School",
        "urn": "140459",
        "source_name": "Oakwood High School"
      },
      "geometry": {
        "type": "Polygon",
        "coordinates": [
          [
            [-1.3620600475533224, 53.42394571008995],
            [-1.3603642960341313, 53.422084339372994],
            [-1.3604022480247042, 53.41940912152736],
            [-1.3621590221203865, 53.416948983871634],
            [-1.3621764838628512, 53.415714266610365],
            [-1.3601542456808964, 53.41261631665968],
            [-1.3605452425282665, 53.40932559709774],
            [-1.3571317043079976, 53.40724907404643],
            [-1.3506142860697257, 53.40556706011435],
            [-1.3426993933309184, 53.40531755128426],
            [-1.33717921195113, 53.406109968271316],
            [-1.3323382003706288, 53.40752337192271],
            [-1.3264177908566397, 53.41201747950015],
            [-1.3229716220654661, 53.41220361967443],
            [-1.3195004973039985, 53.41403593722148],
            [-1.319835477124381, 53.414655269983875],
            [-1.3187931347757635, 53.41526668346582],
            [-1.3177663853359747, 53.41484916535526],
            [-1.317750762529035, 53.41587808769346],
            [-1.3160134090079987, 53.41689707417268],
            [-1.3128985569507279, 53.41790804838999],
            [-1.3139284751454554, 53.41811982400913],
            [-1.3166958410238205, 53.417312620148415],
            [-1.3201424488615525, 53.417126662612155],
            [-1.3201735794962992, 53.415068817199064],
            [-1.3219045503967584, 53.414461338700114],
            [-1.3225870013504528, 53.41487685124005],
            [-1.3225559874448996, 53.41693469771313],
            [-1.323232287418505, 53.41776177573686],
            [-1.3355986464635174, 53.41988986091862],
            [-1.3431267843894485, 53.42322471611228],
            [-1.3465409098838204, 53.42530163570858],
            [-1.350314644658291, 53.42635142258829],
            [-1.352393027547915, 53.42553960842674],
            [-1.3524285267649767, 53.42307018177746],
            [-1.339462239357275, 53.414766434291955],
            [-1.3388128752854718, 53.41208737829585],
            [-1.337121639474441, 53.41001989299067],
            [-1.3343977422258677, 53.40794657880783],
            [-1.334406872259399, 53.407329222560655],
            [-1.3361342920883659, 53.40692732091225],
            [-1.3391994727918264, 53.40920830452082],
            [-1.3408907777571977, 53.41127576088974],
            [-1.3418785685326307, 53.414368292742985],
            [-1.3545067091420517, 53.4222583297904],
            [-1.3544713314189016, 53.42472775775381],
            [-1.3579213149206222, 53.424334925835055],
            [-1.358963321580289, 53.423723170814924],
            [-1.3620600475533224, 53.42394571008995]
          ]
        ]
      }
    },
    {
      "type": "Feature",
      "properties": {
        "db_school_name": "Rawmarsh Community School",
        "urn": "140553",
        "source_name": "Rawmarsh Community School"
      },
      "geometry": {
        "type": "Polygon",
        "coordinates": [
          [
            [-1.3633766501369775, 53.47704938669843],
            [-1.3640895823927461, 53.47540681999852],
            [-1.3679115227684555, 53.473369291803735],
            [-1.3683227209913982, 53.46863808796152],
            [-1.3679866163040513, 53.46801889356347],
            [-1.3635396101364412, 53.4655254628304],
            [-1.3639017959549862, 53.46429260851202],
            [-1.3566830137059096, 53.46281299283743],
            [-1.3553188756288561, 53.461776569326005],
            [-1.3536396637126566, 53.4586804047475],
            [-1.353769696741933, 53.449625883668226],
            [-1.3499700359232667, 53.45022248029341],
            [-1.3458346261797833, 53.45019969854968],
            [-1.344746806407436, 53.453898097988656],
            [-1.3460894895701814, 53.45637513155269],
            [-1.3456999077999783, 53.45945998907726],
            [-1.3443151367013444, 53.45986392892528],
            [-1.3436317552447694, 53.45944854085633],
            [-1.3440094770310165, 53.45718682691022],
            [-1.3426668899058418, 53.4547097705979],
            [-1.3427060000449667, 53.45203457649081],
            [-1.3437639205121734, 53.45039403831656],
            [-1.340653300117313, 53.45099415680782],
            [-1.3378963148670258, 53.45097876975049],
            [-1.335840742698319, 53.45014405176926],
            [-1.328616117864866, 53.44928009911541],
            [-1.3245148713503532, 53.446992958851176],
            [-1.3247356737006877, 53.45522626493197],
            [-1.3233353324041082, 53.45665887832301],
            [-1.3209039726890808, 53.45787976634752],
            [-1.3128818011497814, 53.46400752353075],
            [-1.3128660317003895, 53.46503643633335],
            [-1.3148998565279844, 53.467312026361036],
            [-1.3155296762123558, 53.47122588021759],
            [-1.3165546219369815, 53.471849200297534],
            [-1.3220774960064692, 53.47146933862928],
            [-1.3248172182904734, 53.47271979152091],
            [-1.3258206903362189, 53.474783511671234],
            [-1.3320243039349533, 53.47502446352325],
            [-1.3347706473193461, 53.47586312309853],
            [-1.336589020620075, 53.46949351492388],
            [-1.3387091589934415, 53.466006766944616],
            [-1.3390902304812686, 53.4635392883563],
            [-1.3408289477942537, 53.462519978262044],
            [-1.3432509856210513, 53.46191603652259],
            [-1.3439283958091524, 53.46274299449402],
            [-1.3418450164037277, 53.46376043406685],
            [-1.3407927233575017, 53.464989382990936],
            [-1.340408715783817, 53.4676626502494],
            [-1.3382916644781222, 53.47094364421541],
            [-1.3379013750712074, 53.4740284666531],
            [-1.3368304761930578, 53.4764920765009],
            [-1.338896425123097, 53.47670942812928],
            [-1.3482158432448192, 53.47614369243271],
            [-1.3499489091962207, 53.475535819967845],
            [-1.353373464486206, 53.47720097233866],
            [-1.3633766501369775, 53.47704938669843]
          ]
        ]
      }
    },
    {
      "type": "Feature",
      "properties": {
        "db_school_name": "Saint Pius X Catholic High School A Specialist School in Humanities",
        "urn": "152056",
        "source_name": "Saint Pius X Catholic High School A Specialist School in Humanities"
      },
      "geometry": {
        "type": "Polygon",
        "coordinates": [
          [
            [-1.3360382006833218, 53.50674018415087],
            [-1.3374610566957268, 53.50386696236711],
            [-1.3385053152295865, 53.50325540082806],
            [-1.3399430209553098, 53.49935323494251],
            [-1.3393832558798175, 53.49050073642686],
            [-1.3338458339674282, 53.49170451953961],
            [-1.3310555219970959, 53.4937467906862],
            [-1.3196653131048026, 53.49409352358736],
            [-1.3178997278088824, 53.49675876812393],
            [-1.3120348585593513, 53.49672485912201],
            [-1.3140669877591125, 53.49920623728296],
            [-1.3174982987541215, 53.50046084974915],
            [-1.3198822164278032, 53.502532553108686],
            [-1.321607415312171, 53.502542443697955],
            [-1.3295002527382047, 53.505468566031425],
            [-1.3360382006833218, 53.50674018415087]
          ]
        ]
      }
    },
    {
      "type": "Feature",
      "properties": {
        "db_school_name": "Swinton Academy",
        "urn": "143141",
        "source_name": "Swinton Academy"
      },
      "geometry": {
        "type": "Polygon",
        "coordinates": [
          [
            [-1.337331827316755, 53.48925447823316],
            [-1.3366875829816662, 53.48616387543487],
            [-1.3346303399965356, 53.48532913643084],
            [-1.332560934061974, 53.48531749279977],
            [-1.3273380432904642, 53.48858074507856],
            [-1.322505959583704, 53.4887590072607],
            [-1.3218223303374597, 53.488343495690636],
            [-1.3225246195348586, 53.48752431441433],
            [-1.3270147339780571, 53.487138309495414],
            [-1.3291119273822736, 53.48529800713161],
            [-1.3322405337322907, 53.48366928740232],
            [-1.3343922602097815, 53.478124798746094],
            [-1.333711738902828, 53.47750357163121],
            [-1.3302787209651983, 53.47645520687586],
            [-1.3244197359085828, 53.47621613120065],
            [-1.3230559601681127, 53.47517934284251],
            [-1.3223911967611128, 53.47352913841463],
            [-1.32136301100243, 53.4731116507952],
            [-1.3165263878592621, 53.47370124213996],
            [-1.3131004114343905, 53.472240820780286],
            [-1.3121386709774754, 53.46750182416665],
            [-1.3101018178771693, 53.46543197007293],
            [-1.3101239887265066, 53.46399149300281],
            [-1.2853169456204658, 53.46302122862874],
            [-1.2862755997485464, 53.467760434367435],
            [-1.2841510841289865, 53.47124623614052],
            [-1.2831068385718423, 53.47185732607402],
            [-1.275156700069714, 53.47304377036227],
            [-1.2610200547597559, 53.47295646901805],
            [-1.2575789484389837, 53.47252336260432],
            [-1.2544552017019608, 53.473738564159255],
            [-1.2523484696834732, 53.47598910953844],
            [-1.2553969104413218, 53.4793011161078],
            [-1.2581488415695439, 53.47972997232128],
            [-1.261566708172345, 53.48160352220569],
            [-1.270151369271767, 53.4839205010136],
            [-1.2715376217179357, 53.48351742738629],
            [-1.2736437180986315, 53.481266544443955],
            [-1.2771090014618498, 53.480258727305774],
            [-1.2781701578873352, 53.47861878876823],
            [-1.2806138610825097, 53.47678144040664],
            [-1.2843937973842732, 53.47762752974793],
            [-1.2947777813657617, 53.475220176854464],
            [-1.296524502591624, 53.473789955533086],
            [-1.2999661177014925, 53.474221941965425],
            [-1.300987693336906, 53.4750511764122],
            [-1.3009684168616362, 53.47628586645503],
            [-1.2988833506572806, 53.477302549146096],
            [-1.2988414472815373, 53.47997770839787],
            [-1.299872794227357, 53.48018960765718],
            [-1.3005496466411737, 53.481016807174306],
            [-1.3032989508823756, 53.481650406878195],
            [-1.3036182141612498, 53.48329868671852],
            [-1.3008302265536311, 53.48513447077279],
            [-1.295298912988174, 53.48592490537678],
            [-1.295956336073791, 53.48798681634066],
            [-1.2938478322855236, 53.49044387352165],
            [-1.2966073508025477, 53.49046028514847],
            [-1.3042632095594593, 53.4861836798326],
            [-1.3104810257033122, 53.485602628294906],
            [-1.3111644996978502, 53.48601820443168],
            [-1.3104620173519363, 53.48683731854436],
            [-1.3059717900813181, 53.487222701252094],
            [-1.3031964591052707, 53.48823541323317],
            [-1.2986705400858465, 53.49088411417452],
            [-1.2986640885444225, 53.49129567625693],
            [-1.3027874251699905, 53.49234900923866],
            [-1.3041512515831475, 53.49338602608082],
            [-1.3096389556494326, 53.49547612497553],
            [-1.3158517751184167, 53.49530636195039],
            [-1.3165668533108812, 53.4936640906748],
            [-1.3179655192012025, 53.49243735182736],
            [-1.3290072620632618, 53.49229460825301],
            [-1.3324874578811148, 53.490256274274664],
            [-1.337331827316755, 53.48925447823316]
          ]
        ]
      }
    },
    {
      "type": "Feature",
      "properties": {
        "db_school_name": "Thrybergh Academy",
        "urn": "148547",
        "source_name": "Thrybergh Academy"
      },
      "geometry": {
        "type": "Polygon",
        "coordinates": [
          [
            [-1.2596681715339075, 53.471301622374384],
            [-1.2734561337215073, 53.47159274919748],
            [-1.2814060470565611, 53.47040641702058],
            [-1.283875492716846, 53.46692274825558],
            [-1.2825559131783033, 53.463210343470685],
            [-1.2794435066197418, 53.46380886098404],
            [-1.278770654953657, 53.46277576068029],
            [-1.2822442132381646, 53.46115044232662],
            [-1.288816434252631, 53.45974946588377],
            [-1.2922828580760957, 53.45853541643424],
            [-1.2947183118313355, 53.457109331742515],
            [-1.2958040881737785, 53.45382296900394],
            [-1.2968477076015057, 53.45321176425559],
            [-1.2978751719735315, 53.45362946185113],
            [-1.2978461442777585, 53.455481502307535],
            [-1.2967766370786122, 53.45773897257449],
            [-1.2932974137026494, 53.459776280831505],
            [-1.2870634790405642, 53.461591142081026],
            [-1.3101429907708244, 53.462756798087966],
            [-1.3118760487126313, 53.46214947642516],
            [-1.3216368776922613, 53.45500275260804],
            [-1.322341721541769, 53.45397778283404],
            [-1.3221276004426823, 53.445332904874626],
            [-1.321453998940156, 53.44430003949413],
            [-1.3214975359985748, 53.441419068146146],
            [-1.320833348665533, 53.439768847565944],
            [-1.3216281015754834, 53.43277614556195],
            [-1.3209702627275886, 53.43071435560578],
            [-1.3134016416684853, 53.43005329916243],
            [-1.3120017553970813, 53.431485787159694],
            [-1.3061554300082208, 53.430834266925004],
            [-1.3061076895620567, 53.43392101780863],
            [-1.3002193746375372, 53.43594438842288],
            [-1.2926469111282197, 53.43548779844523],
            [-1.2898876958332643, 53.43567708949106],
            [-1.2832895889683107, 53.438930182909196],
            [-1.2812125489500326, 53.43953500401726],
            [-1.2791221936756854, 53.440962916548656],
            [-1.2749777421968325, 53.44155503083782],
            [-1.2753056205958526, 53.442586047568156],
            [-1.2787013799368234, 53.445693801650116],
            [-1.2789398494869106, 53.45228091191892],
            [-1.2778860323530612, 53.45350930391784],
            [-1.2774782412731476, 53.45741704876158],
            [-1.2757348924689258, 53.458641214523155],
            [-1.2715987298068492, 53.4586158606554],
            [-1.2602958682481742, 53.45422400751861],
            [-1.2602686120866158, 53.45587025239402],
            [-1.2588797432936447, 53.456478980381554],
            [-1.2588660870280013, 53.4573021023098],
            [-1.2609102677006703, 53.4587554810389],
            [-1.2615043803419008, 53.46452163056037],
            [-1.2597432262113384, 53.466774460205606],
            [-1.2597125245129148, 53.468626481519],
            [-1.2586577445979903, 53.46985469727116],
            [-1.2600470550024878, 53.469245974722],
            [-1.2669423673885467, 53.46928882378566],
            [-1.268672934696825, 53.468887912894346],
            [-1.269693770658471, 53.46971741307517],
            [-1.2679564353839414, 53.470529899460594],
            [-1.2617504709856469, 53.470491405256915],
            [-1.2596681715339075, 53.471301622374384]
          ]
        ]
      }
    },
    {
      "type": "Feature",
      "properties": {
        "db_school_name": "Wales High School",
        "urn": "136331",
        "source_name": "Wales High School"
      },
      "geometry": {
        "type": "Polygon",
        "coordinates": [
          [
            [-1.255484547552652, 53.41200432667008],
            [-1.2565311317531869, 53.41118768639513],
            [-1.2590434193498685, 53.40502932339448],
            [-1.2691810118682598, 53.395625345454185],
            [-1.2713029232887367, 53.392139757240535],
            [-1.2776201643908571, 53.38456372146951],
            [-1.2780967284645601, 53.376334461031],
            [-1.2826643203094918, 53.37039390088709],
            [-1.2831528693532472, 53.36134145762511],
            [-1.2907543101199195, 53.359123403794314],
            [-1.2928661479544066, 53.35604897023139],
            [-1.3029048896579134, 53.351786636447834],
            [-1.3025929716663205, 53.349726749484056],
            [-1.2971853844621364, 53.34372640392686],
            [-1.295511737949685, 53.340835176613524],
            [-1.2955794128335152, 53.33651366655613],
            [-1.2977090418479322, 53.332204412278756],
            [-1.2963537013498292, 53.33096152473552],
            [-1.2953259682695502, 53.330749601625776],
            [-1.2885148249793987, 53.3267985248319],
            [-1.1936779501455743, 53.3261904754859],
            [-1.1953922752447521, 53.3264079432318],
            [-1.198451548382219, 53.32828095458499],
            [-1.1990319016792137, 53.334253283382225],
            [-1.1976239782511846, 53.336096014136835],
            [-1.1972359461205786, 53.338563065874396],
            [-1.2013530604216032, 53.33900251523601],
            [-1.2054556351597359, 53.34026495100222],
            [-1.2132996787560788, 53.34381602970252],
            [-1.2190859525691438, 53.347147228332666],
            [-1.2283182603076046, 53.35008903754398],
            [-1.234148797110002, 53.35095011588234],
            [-1.2348293800575003, 53.35136612754593],
            [-1.234797729448353, 53.35321817460532],
            [-1.2402640482891474, 53.355311431269776],
            [-1.24536971062336, 53.35843116412206],
            [-1.2449876872840164, 53.36069258745301],
            [-1.2415244188205026, 53.36211109069649],
            [-1.238425834932003, 53.362297007829895],
            [-1.236678264802176, 53.36393219832653],
            [-1.2335548582559765, 53.36555846664259],
            [-1.231771633792269, 53.369251406914245],
            [-1.2317539652340839, 53.37028031820381],
            [-1.2368327029689363, 53.375046670131674],
            [-1.2419474305404576, 53.37775498198317],
            [-1.2419334875496744, 53.378578111740765],
            [-1.2398133641025453, 53.381857397499466],
            [-1.2390727477714107, 53.384939710766034],
            [-1.2380299852690575, 53.385550420706906],
            [-1.2356178607704438, 53.38574068332538],
            [-1.236267381886656, 53.38800872302082],
            [-1.2376157453308467, 53.38966384491214],
            [-1.2375946960136581, 53.39089853582341],
            [-1.2333945651314584, 53.394987515390675],
            [-1.2308650163643466, 53.401968462318976],
            [-1.2408403918859168, 53.40244441401378],
            [-1.2415218569984645, 53.402860387054496],
            [-1.2407704993780213, 53.40656004348506],
            [-1.238631345191297, 53.41086819387878],
            [-1.255484547552652, 53.41200432667008]
          ]
        ]
      }
    },
    {
      "type": "Feature",
      "properties": {
        "db_school_name": "Wath Academy",
        "urn": "145848",
        "source_name": "Wath Academy"
      },
      "geometry": {
        "type": "Polygon",
        "coordinates": [
          [
            [-1.3135326737860689, 53.51155111005169],
            [-1.3193995916212131, 53.51158495185269],
            [-1.3214640357278367, 53.512008389840155],
            [-1.3225056117444263, 53.51160275155121],
            [-1.3242311799076034, 53.51161260540742],
            [-1.3256209281142552, 53.51100312616536],
            [-1.3273464730324516, 53.511012934984386],
            [-1.3311119650385055, 53.51309224336475],
            [-1.34146274932976, 53.51335603076714],
            [-1.3442358141825292, 53.51254821891462],
            [-1.3507931534451685, 53.51258433970839],
            [-1.3597810387332392, 53.51160427139744],
            [-1.359447657720424, 53.51077927396891],
            [-1.3608339496622033, 53.51037516663851],
            [-1.3635685770904182, 53.51224208227133],
            [-1.3670053084349973, 53.51328949517545],
            [-1.3683858300246758, 53.513296866598786],
            [-1.3690818656433654, 53.51288898008964],
            [-1.3725273984399144, 53.513318885230234],
            [-1.3797836626018323, 53.51273972205423],
            [-1.393335029983863, 53.50601859732181],
            [-1.3957781136604008, 53.50397310970348],
            [-1.4033748065425709, 53.50360005409904],
            [-1.4061460665756198, 53.50279080007632],
            [-1.4082325320998, 53.50156646227005],
            [-1.409644958377076, 53.499103935921084],
            [-1.4079279624778376, 53.49847796104996],
            [-1.40793605519422, 53.4978606058271],
            [-1.4093403023689492, 53.4960154367953],
            [-1.4135095917524074, 53.49377239305849],
            [-1.414199541498934, 53.49377581143596],
            [-1.413538961144183, 53.49150875294705],
            [-1.4169991395992887, 53.49070266112079],
            [-1.4194428431503905, 53.48845089350388],
            [-1.4235820299507298, 53.48847113720671],
            [-1.424990513894488, 53.48621420671514],
            [-1.4274257302431077, 53.48457963095882],
            [-1.429150236211064, 53.48458796766335],
            [-1.4339531543214419, 53.48666904224388],
            [-1.4367073886962047, 53.48709379162209],
            [-1.4404761435618991, 53.48916967099471],
            [-1.4411660218798987, 53.48917293353302],
            [-1.4422185544015644, 53.4877373136846],
            [-1.4443032434295755, 53.48651233872227],
            [-1.4501917690853472, 53.48448188505743],
            [-1.4491870222239338, 53.48200762404295],
            [-1.4489070776279445, 53.476655550993726],
            [-1.454468955451908, 53.472976971941726],
            [-1.4544763650711274, 53.4723596092831],
            [-1.4413738511440088, 53.472298413091714],
            [-1.4355634405154893, 53.468154830672944],
            [-1.4269416375798907, 53.46831915649769],
            [-1.4200515313534496, 53.467873966819454],
            [-1.4083672271413155, 53.46493489969723],
            [-1.4035652988614133, 53.46305858575708],
            [-1.396676299289332, 53.462612050899764],
            [-1.3887672294257023, 53.46113085274548],
            [-1.38359098108285, 53.46151559896974],
            [-1.3815452849251195, 53.45985852302326],
            [-1.3746741713501904, 53.45817600928606],
            [-1.3674329310796987, 53.45834332471477],
            [-1.3670390934122927, 53.461839824865194],
            [-1.3676909680397153, 53.46451871236805],
            [-1.3669899299357717, 53.46533816575452],
            [-1.3697305870538077, 53.46658759281726],
            [-1.3707504707424214, 53.467622019933],
            [-1.3706642245657419, 53.473795559505746],
            [-1.3699630892546628, 53.47461502878498],
            [-1.366839482725527, 53.47603896018668],
            [-1.3661208501060897, 53.4780931118529],
            [-1.3654253585467597, 53.47850098507673],
            [-1.3519733551801971, 53.478633916770505],
            [-1.3519377561520844, 53.48110332009266],
            [-1.3512420797884572, 53.48151111001541],
            [-1.3443386544000502, 53.48188468563098],
            [-1.3384454824200624, 53.48390990967374],
            [-1.3401457384976212, 53.485565793905764],
            [-1.3397705728289164, 53.48762170064793],
            [-1.341794843688695, 53.49071996308638],
            [-1.3416469671044562, 53.500803313160795],
            [-1.3402214720404133, 53.503882369722774],
            [-1.339525309082537, 53.504290088416404],
            [-1.3388473294647893, 53.5034631094807],
            [-1.3381511602931326, 53.503870820181305],
            [-1.3367283507486891, 53.50674405031875],
            [-1.3349968724927737, 53.507145941424845],
            [-1.3267459233896597, 53.5050413473605],
            [-1.3216011831296413, 53.50295400689301],
            [-1.3198759675383946, 53.502944116162276],
            [-1.318508320155072, 53.50211305974333],
            [-1.3167800004370442, 53.50230890590149],
            [-1.3154092883042376, 53.50168359561057],
            [-1.3135326737860689, 53.51155111005169]
          ]
        ]
      }
    },
    {
      "type": "Feature",
      "properties": {
        "db_school_name": "Wingfield Academy",
        "urn": "139992",
        "source_name": "Wingfield Academy"
      },
      "geometry": {
        "type": "Polygon",
        "coordinates": [
          [
            [-1.3580853747560306, 53.46117420293722],
            [-1.364959209531839, 53.462651884555605],
            [-1.3646870656924115, 53.4575054147567],
            [-1.3664191370960697, 53.45689729864146],
            [-1.376072839688759, 53.45674278990204],
            [-1.3781351989572284, 53.45716524707819],
            [-1.3798698949480026, 53.456351149902886],
            [-1.3919527386392483, 53.454973263660655],
            [-1.3961381521356806, 53.45129029867846],
            [-1.399959122912794, 53.449045940699406],
            [-1.4013375691742447, 53.44905292595934],
            [-1.4030470464474192, 53.4500905680876],
            [-1.404425527310219, 53.45009751781279],
            [-1.406851359956477, 53.449080707969664],
            [-1.4072229325236465, 53.44702456804326],
            [-1.4051688884751425, 53.445985252479254],
            [-1.405179710956118, 53.445162105285696],
            [-1.407610631029674, 53.44373370458798],
            [-1.3997319920766151, 53.44019536668015],
            [-1.3925104941338944, 53.439129490860246],
            [-1.38600358141437, 53.43621468056845],
            [-1.3831772522417916, 53.441344998422146],
            [-1.3845273949470165, 53.44341003815101],
            [-1.3844937303413456, 53.445879471054816],
            [-1.3810224818277104, 53.44771356582484],
            [-1.3779210879291395, 53.447697299547166],
            [-1.375169997562017, 53.44727120179671],
            [-1.3734641745230627, 53.4460273770197],
            [-1.372114487375578, 53.44396221448911],
            [-1.370058577308657, 53.44312808333696],
            [-1.3693838455649758, 53.44209548465478],
            [-1.3625306344234818, 53.43938334940764],
            [-1.3621744525065342, 53.44020463446824],
            [-1.3628373404614584, 53.44206041502594],
            [-1.3597188195805379, 53.44327838911257],
            [-1.3569564465637467, 53.44367501358954],
            [-1.3555664053975074, 53.444490656773624],
            [-1.3544913835721057, 53.4473660120052],
            [-1.3548241818665943, 53.448191030253916],
            [-1.35619376071477, 53.44881589075488],
            [-1.3557519705770897, 53.455604911462444],
            [-1.3564000992536889, 53.45848964546439],
            [-1.3580853747560306, 53.46117420293722]
          ]
        ]
      }
    },
    {
      "type": "Feature",
      "properties": {
        "db_school_name": "Winterhill School",
        "urn": "141853",
        "source_name": "Winterhill School"
      },
      "geometry": {
        "type": "Polygon",
        "coordinates": [
          [
            [-1.4531169618195146, 53.47070693484513],
            [-1.4436116492529778, 53.45852041257225],
            [-1.443287139378446, 53.45687248788176],
            [-1.4374301774360099, 53.45663895733431],
            [-1.4339988305872537, 53.455387779139606],
            [-1.429549254050007, 53.452896793547765],
            [-1.4295544310465769, 53.45248521873131],
            [-1.4309381595216695, 53.45208028788905],
            [-1.4364191525912613, 53.45478194387641],
            [-1.4398556003759087, 53.45562147744684],
            [-1.4419261329756292, 53.45542547200361],
            [-1.4429828444459696, 53.4535782594822],
            [-1.4430206957535918, 53.450491441168],
            [-1.4416801368418672, 53.447398117454064],
            [-1.4396430032459264, 53.44491887623775],
            [-1.4348752418442012, 53.44036857162095],
            [-1.4314607457368542, 53.43788259248777],
            [-1.4170861027564448, 53.43040375921867],
            [-1.4095991604558904, 53.42336937326452],
            [-1.4082269202544293, 53.42295091019291],
            [-1.4061470217440422, 53.423969486999034],
            [-1.404427683870121, 53.423755037529624],
            [-1.401661545559566, 53.424564276538085],
            [-1.4006174028292673, 53.42538219290522],
            [-1.3964788725530484, 53.42577274517815],
            [-1.3954566057654918, 53.42494431864904],
            [-1.3930456927332606, 53.42493196904905],
            [-1.3878655208164723, 53.425934276098616],
            [-1.3816602642013112, 53.426313600497636],
            [-1.380291030205507, 53.42568903060109],
            [-1.3789359876055245, 53.42403551224118],
            [-1.3782811711566019, 53.4215624543283],
            [-1.3831335098709987, 53.41932404433029],
            [-1.3883046338085705, 53.41893930080216],
            [-1.3803841958586358, 53.41889806968256],
            [-1.3772763864788629, 53.419499152859494],
            [-1.3744900559013564, 53.421748268558474],
            [-1.368959688622334, 53.42315950712457],
            [-1.3658369423305132, 53.42478922158693],
            [-1.3665055365607655, 53.42623341432489],
            [-1.3664737398301776, 53.42849706025731],
            [-1.3657790653698798, 53.42890494130056],
            [-1.3644070819438074, 53.428485975946195],
            [-1.364441888820598, 53.42601654492397],
            [-1.363064197491545, 53.426009136153226],
            [-1.361327507116346, 53.42702878197012],
            [-1.3609218076862042, 53.43134842232978],
            [-1.3602182694583054, 53.43237362736268],
            [-1.3647196322448694, 53.43075147014626],
            [-1.3657385429018603, 53.43178594337548],
            [-1.380189351170161, 53.43309734260931],
            [-1.3816010944838157, 53.430635117597554],
            [-1.385087726292563, 53.42756627675423],
            [-1.3885515845435448, 53.426143626309724],
            [-1.3933790667031287, 53.425756884545194],
            [-1.3940568828784974, 53.42658356435494],
            [-1.3930153074231768, 53.42719562642531],
            [-1.3899126225905964, 53.4273854624978],
            [-1.3861014652249486, 53.42901215132787],
            [-1.3829592601969327, 53.4320828183358],
            [-1.3825922800769415, 53.43372731217928],
            [-1.3884318430352616, 53.43499245488122],
            [-1.3932216572847984, 53.43748673507392],
            [-1.4007874217832645, 53.43855431365816],
            [-1.412771163600187, 53.44437684591956],
            [-1.4155197942694773, 53.44500786569194],
            [-1.4192890749857883, 53.44667284055763],
            [-1.422022204972731, 53.44853843465671],
            [-1.4247660199210763, 53.44958081693461],
            [-1.4240663263561457, 53.45040061067113],
            [-1.421314591972192, 53.44997557405577],
            [-1.4172109243538247, 53.44748581637569],
            [-1.4100065221569875, 53.444980485144356],
            [-1.4086201387849238, 53.44559096105174],
            [-1.4103269751511807, 53.44683428662445],
            [-1.4096028896152044, 53.449506077212334],
            [-1.4064770508576672, 53.45134263258227],
            [-1.4026779627407882, 53.4519409068548],
            [-1.4006210658122613, 53.4511073001032],
            [-1.3978448497819769, 53.45253380100547],
            [-1.396444303291428, 53.45417306484648],
            [-1.3926199183174024, 53.45662309263834],
            [-1.3812259924512063, 53.45800465175181],
            [-1.3849950699067117, 53.459670704342855],
            [-1.3891342158020024, 53.45948634747838],
            [-1.3984190852324412, 53.461180326917294],
            [-1.4053078722055703, 53.46162676082268],
            [-1.4104517640657015, 53.46371051015989],
            [-1.4217937501362823, 53.46644190168132],
            [-1.427994128097809, 53.46688365680925],
            [-1.436618192262576, 53.46651346708058],
            [-1.4424284829747986, 53.47065699904456],
            [-1.4434603275372415, 53.470867660574],
            [-1.4531169618195146, 53.47070693484513]
          ]
        ]
      }
    }
  ]
}
