{
  "type": "FeatureCollection",
  "features": [
    {
      "type": "Feature",
      "properties": {
        "CATCHMENT_NAME": "King Edward VI Aston School catchment",
        "SCHOOL_URN": 137043,
        "SCHOOL_NAME": "King Edward VI Aston School"
      },
      "geometry": {
        "type": "Polygon",
        "coordinates": [
          [
            [-1.81421710390675, 52.4675753012886],
            [-1.82016321604968, 52.4677769001742],
            [-1.82084201116432, 52.4684737312082],
            [-1.82302619642578, 52.4681704565892],
            [-1.824020862062, 52.4690179194416],
            [-1.82554814042613, 52.4688196716371],
            [-1.82566239968872, 52.4693637539889],
            [-1.82671318825628, 52.4697841973476],
            [-1.82711468095295, 52.4695069855688],
            [-1.82751293546033, 52.4696874026501],
            [-1.82752022473978, 52.4696905588431],
            [-1.82865049802573, 52.4701798537887],
            [-1.82800694740523, 52.4706230761874],
            [-1.82870480885035, 52.4709836711843],
            [-1.82936023334456, 52.470513590349],
            [-1.82967598524571, 52.4706901970801],
            [-1.8291246697903, 52.4712638742659],
            [-1.83116689103393, 52.4723428582716],
            [-1.8320606671246, 52.4726848397871],
            [-1.83253248621905, 52.4721039364962],
            [-1.83554758552937, 52.4728587828274],
            [-1.83854034674052, 52.4741430533664],
            [-1.83793030345387, 52.4746969203794],
            [-1.84041009580123, 52.4757889226729],
            [-1.84170980751422, 52.4758626538575],
            [-1.83985082184849, 52.4761324748995],
            [-1.84131272076529, 52.4786156713748],
            [-1.84729853441589, 52.4780158070783],
            [-1.84737854976427, 52.4783296588472],
            [-1.84666266318871, 52.4784007237607],
            [-1.84783048025841, 52.4830553441457],
            [-1.84864958316571, 52.4829665187655],
            [-1.84893602586516, 52.4835997742009],
            [-1.86690091445404, 52.4821558413978],
            [-1.87904915328368, 52.4815162428475],
            [-1.88561552732562, 52.4806364535708],
            [-1.89204970905803, 52.4789793096135],
            [-1.89279992802622, 52.4792371252707],
            [-1.89015702381116, 52.4822140262606],
            [-1.89155826774237, 52.4830675138509],
            [-1.89255830412578, 52.4859695774381],
            [-1.891739864396, 52.4864560371888],
            [-1.88935021568951, 52.4904049641106],
            [-1.88609975996079, 52.4984991135032],
            [-1.89337676388861, 52.4995703997797],
            [-1.89578396523497, 52.4994655140561],
            [-1.89615523563409, 52.5000385225525],
            [-1.8967718150632, 52.5009443748223],
            [-1.90167874605059, 52.5049195230565],
            [-1.90346525602476, 52.5085160890642],
            [-1.90135877099864, 52.5163186643191],
            [-1.89641602319693, 52.5157606086281],
            [-1.89182058704315, 52.5148385833475],
            [-1.88503172126675, 52.5126475654256],
            [-1.88075159205014, 52.5146139964567],
            [-1.87940989227569, 52.5191193163841],
            [-1.87751726663851, 52.5208273226084],
            [-1.87622383508632, 52.5216413146823],
            [-1.87424879523949, 52.5221858417287],
            [-1.87816365330141, 52.5273484071586],
            [-1.88088962956258, 52.5336028763264],
            [-1.87685137038658, 52.5347458676078],
            [-1.87375433182016, 52.5366565312459],
            [-1.86879558629083, 52.5417276938645],
            [-1.86746417674846, 52.5426647476352],
            [-1.86562750868395, 52.5434151747005],
            [-1.8587641213119, 52.5450199213796],
            [-1.86147356402731, 52.5462205104148],
            [-1.8652035467309, 52.5489200277485],
            [-1.86515510091096, 52.5493289824837],
            [-1.86559720568286, 52.5494149564717],
            [-1.86535405731842, 52.5498326771813],
            [-1.86596696764003, 52.5500527547747],
            [-1.86520203614863, 52.5508195767165],
            [-1.87058962152375, 52.5527799824918],
            [-1.87079709922578, 52.5524484898848],
            [-1.87130114664373, 52.5525713578803],
            [-1.87202402779942, 52.5530009275293],
            [-1.87188024349119, 52.5532623897222],
            [-1.87605619506436, 52.5551367440663],
            [-1.87830344030011, 52.556920809193],
            [-1.87926127772368, 52.5567105939365],
            [-1.87861830991556, 52.557180955111],
            [-1.87993271737378, 52.5582063089631],
            [-1.88200876790158, 52.559072266119],
            [-1.88271538087993, 52.559080161612],
            [-1.89163279419325, 52.5624545407838],
            [-1.88849901688753, 52.5638261467455],
            [-1.88274613648667, 52.5674570559225],
            [-1.8785192231514, 52.5696355816838],
            [-1.87592485252269, 52.5803624353786],
            [-1.87256445035415, 52.5849446948669],
            [-1.87242145726817, 52.5850059060993],
            [-1.87080789502696, 52.5867785212561],
            [-1.86771191986206, 52.5882764412858],
            [-1.86796061067901, 52.5885302334402],
            [-1.86391204135949, 52.5910752190478],
            [-1.85467955682279, 52.6013519066117],
            [-1.85279623242263, 52.602492685896],
            [-1.84855114164341, 52.6046530319871],
            [-1.84447073817853, 52.6052239481217],
            [-1.83865718821092, 52.6068722152495],
            [-1.83803439982297, 52.6067463566894],
            [-1.83672031739614, 52.6073570684435],
            [-1.83237033744878, 52.6078065691233],
            [-1.8279868819582, 52.6087154919118],
            [-1.81181738966629, 52.6044090737902],
            [-1.80846977540344, 52.6030903126525],
            [-1.8038693206567, 52.6013324284158],
            [-1.80167788610274, 52.6010725609203],
            [-1.79757171721554, 52.5991696572972],
            [-1.7965280894026, 52.5991229377717],
            [-1.79433483226039, 52.5961680908634],
            [-1.79532734016063, 52.5951318721151],
            [-1.79365819752235, 52.5944222833616],
            [-1.78962611086412, 52.5916148365757],
            [-1.78800228267072, 52.5878978621662],
            [-1.78846071184577, 52.5869112494281],
            [-1.78828291538582, 52.5846104284975],
            [-1.78679966131804, 52.5830722771481],
            [-1.78483582366208, 52.5817418342246],
            [-1.78384939312287, 52.5815844748675],
            [-1.78360779348693, 52.5811768169138],
            [-1.78135878764623, 52.5802701008938],
            [-1.78026794080559, 52.5788594056805],
            [-1.77949539353823, 52.5786979110737],
            [-1.77868415070294, 52.5765802310245],
            [-1.77915127864207, 52.5764012605668],
            [-1.77883254221986, 52.5758145103077],
            [-1.77794755265331, 52.5757418622094],
            [-1.7779991405885, 52.5751629894747],
            [-1.77664914100166, 52.57456891244],
            [-1.77471005994695, 52.5746003085289],
            [-1.77337322259757, 52.5748872545456],
            [-1.77193251946475, 52.5746948676976],
            [-1.77128261465561, 52.5751134222559],
            [-1.76968817396814, 52.5749827253228],
            [-1.76888355679066, 52.5742567365773],
            [-1.76807764354211, 52.5741406365934],
            [-1.7677237230176, 52.5733867020676],
            [-1.7681994344654, 52.5729884981814],
            [-1.76701653011938, 52.5712269106828],
            [-1.76357709782207, 52.5708528653122],
            [-1.76356332378601, 52.5702527144388],
            [-1.76452852982488, 52.5693808681252],
            [-1.76679231588238, 52.5687272557894],
            [-1.76790224101192, 52.5680749574379],
            [-1.76903483545692, 52.568173324203],
            [-1.77034050116472, 52.5678818726828],
            [-1.77390765657733, 52.565635825922],
            [-1.7742300480517, 52.5646277797796],
            [-1.77015202479335, 52.5635770798794],
            [-1.76691396009666, 52.5616181891718],
            [-1.76691890042253, 52.5598543306463],
            [-1.76773126467406, 52.5588059138301],
            [-1.76629347310924, 52.5578861250382],
            [-1.76533972140962, 52.5566768875685],
            [-1.76342400037978, 52.5566191845397],
            [-1.75995258315033, 52.5556683100228],
            [-1.75781299802624, 52.5555714198885],
            [-1.75639975933876, 52.555879598915],
            [-1.75575966440478, 52.5547877599087],
            [-1.75357675972706, 52.5453024351312],
            [-1.7521059440183, 52.5438411755911],
            [-1.74642783211678, 52.5417130608161],
            [-1.74899304746964, 52.5412617400445],
            [-1.74836112640124, 52.5365208676522],
            [-1.75091450605661, 52.5362780790967],
            [-1.75041157427796, 52.5339720109139],
            [-1.74908599922833, 52.53142236338],
            [-1.74685335384251, 52.5313151920976],
            [-1.7435270398998, 52.5326934189353],
            [-1.74234690692832, 52.5313055479354],
            [-1.73942151465685, 52.5319114221689],
            [-1.73867024604816, 52.5290851050155],
            [-1.73975501172586, 52.5291198312261],
            [-1.73882295998834, 52.5287059882416],
            [-1.73691624022167, 52.5290794530603],
            [-1.73157066738197, 52.5277171744203],
            [-1.73082132991798, 52.5258814994981],
            [-1.73041846122037, 52.5259606675744],
            [-1.72885044838865, 52.5244674365534],
            [-1.72958544010516, 52.5243081401902],
            [-1.73028930847506, 52.5233347790512],
            [-1.73091633527985, 52.5231128130859],
            [-1.73182531733656, 52.5229604112348],
            [-1.73378523215328, 52.523483369494],
            [-1.73482603720175, 52.5234290668082],
            [-1.73622924643451, 52.5226139554681],
            [-1.73774923421579, 52.5222919562805],
            [-1.73876023471672, 52.5216217356761],
            [-1.74163655811635, 52.5207298791276],
            [-1.74386832903245, 52.520641220291],
            [-1.74582290579337, 52.5200700211984],
            [-1.74690456289991, 52.5201001813962],
            [-1.74877590684243, 52.5206944144317],
            [-1.7513407447763, 52.5205985164749],
            [-1.753810175173, 52.5212131615173],
            [-1.75431911690793, 52.5184758976393],
            [-1.75703898620823, 52.518298021194],
            [-1.75707693385447, 52.5178270631412],
            [-1.75492230979489, 52.5157324423613],
            [-1.75409103220134, 52.5157765710905],
            [-1.75325738991496, 52.5141153096739],
            [-1.75393386396951, 52.5138299135451],
            [-1.75351881384396, 52.5129615055519],
            [-1.74755593212168, 52.5103225946155],
            [-1.74516923726312, 52.5086192948996],
            [-1.74307904933239, 52.5065016913203],
            [-1.73321302769397, 52.4921489164017],
            [-1.73308021745514, 52.491961588026],
            [-1.72998847417421, 52.4888648010448],
            [-1.72252682735316, 52.4826804133001],
            [-1.71902896173267, 52.480477729409],
            [-1.71480155580575, 52.4786561557386],
            [-1.71527279230539, 52.4784172254482],
            [-1.72227852326947, 52.474868296253],
            [-1.72517334280272, 52.4712628135491],
            [-1.72616146903168, 52.4716732122196],
            [-1.72718968774988, 52.4703720143778],
            [-1.73438134252016, 52.4690567493845],
            [-1.73556263462219, 52.4701768938789],
            [-1.73132199286986, 52.4713073863731],
            [-1.73759648639895, 52.4774588812348],
            [-1.73873975694707, 52.4778317745409],
            [-1.74241476583206, 52.4745449649048],
            [-1.74660125891512, 52.4720906809128],
            [-1.74871154248203, 52.4737726730084],
            [-1.74858739121146, 52.4748899100426],
            [-1.75039792207311, 52.4744378823745],
            [-1.75120130788016, 52.473724886152],
            [-1.7532315330793, 52.4732059692318],
            [-1.75392941504471, 52.4724234461261],
            [-1.75580346600127, 52.4719022751191],
            [-1.75669170309456, 52.4715391214786],
            [-1.75932352521777, 52.4689535951868],
            [-1.75872949244421, 52.4672181706716],
            [-1.75994967242564, 52.4669878732604],
            [-1.76171649976253, 52.4671792761974],
            [-1.76374773869409, 52.4661189619919],
            [-1.76337862439142, 52.4638464756309],
            [-1.75497780141399, 52.4562841007794],
            [-1.75960051292333, 52.4519109576989],
            [-1.76139223116363, 52.450923001499],
            [-1.7627665732461, 52.451195386458],
            [-1.76667532829702, 52.4510890145534],
            [-1.76666103142904, 52.4507392865281],
            [-1.76901485324649, 52.4511025900358],
            [-1.77247781479673, 52.4507173574859],
            [-1.77333566259662, 52.4510066893996],
            [-1.77438349116316, 52.4506796632091],
            [-1.7774781723753, 52.4506315971772],
            [-1.77795123821377, 52.4501883293342],
            [-1.77910650582978, 52.4501536420194],
            [-1.77913012945202, 52.4504287906219],
            [-1.78145382024471, 52.4506704604135],
            [-1.78163891399044, 52.4510492613604],
            [-1.78245528517338, 52.4511010939692],
            [-1.78270372256494, 52.4508596997216],
            [-1.7889805112826, 52.4530960613549],
            [-1.78942064920775, 52.4527723112861],
            [-1.79028343117725, 52.4529734521899],
            [-1.79050250719387, 52.4526996347521],
            [-1.7913077176073, 52.4529662749821],
            [-1.79090609992385, 52.4532541510658],
            [-1.7939884627725, 52.4543005636763],
            [-1.79482511275738, 52.4551003647619],
            [-1.79529226136584, 52.4552557565303],
            [-1.79568316993517, 52.4550514294493],
            [-1.79874353911794, 52.457469602443],
            [-1.79803928121913, 52.4579494076066],
            [-1.80376742978743, 52.4608699597099],
            [-1.80617398236629, 52.4628579746052],
            [-1.80803954171587, 52.4650851166386],
            [-1.80933356314641, 52.4671054993484],
            [-1.80998540575187, 52.4667981905318],
            [-1.81421710390675, 52.4675753012886]
          ]
        ]
      }
    },
    {
      "type": "Feature",
      "properties": {
        "CATCHMENT_NAME": "King Edward VI Camp Hill School for Boys catchment",
        "SCHOOL_URN": 137045,
        "SCHOOL_NAME": "King Edward VI Camp Hill School for Boys"
      },
      "geometry": {
        "type": "Polygon",
        "coordinates": [
          [
            [-1.86711341916205, 52.4087866453856],
            [-1.86878646526985, 52.4077384877335],
            [-1.86919640530842, 52.4078099425295],
            [-1.86876745689888, 52.4047119065436],
            [-1.87237763765325, 52.4046780950316],
            [-1.87233411299135, 52.4021573131921],
            [-1.87786566497485, 52.4024291293894],
            [-1.87835404802744, 52.399897648891],
            [-1.8826972850066, 52.3998129640257],
            [-1.88619261310968, 52.4043573338844],
            [-1.88593896234133, 52.4046879199038],
            [-1.88668851361268, 52.4047021247881],
            [-1.88711491716094, 52.4046854574529],
            [-1.89238068950327, 52.4044332532878],
            [-1.8961328593028, 52.4033272039908],
            [-1.9006898367434, 52.4038355157693],
            [-1.90458785454367, 52.4031456321079],
            [-1.90662611862734, 52.4040939229038],
            [-1.90966661274623, 52.4044469028657],
            [-1.91081158125015, 52.4066907751687],
            [-1.91367502449958, 52.4074643032542],
            [-1.91659434561307, 52.4083572424964],
            [-1.91655887455179, 52.4092535373286],
            [-1.91896256989338, 52.41158819867],
            [-1.9193801049624, 52.4132399406545],
            [-1.91534719893014, 52.4141370255304],
            [-1.9141216221141, 52.4153650905665],
            [-1.91629461269419, 52.415399907817],
            [-1.91781830450514, 52.4159142572774],
            [-1.91689436658261, 52.4177970307562],
            [-1.91553186120208, 52.4183777337961],
            [-1.91591609652493, 52.4196483026671],
            [-1.91693608810965, 52.4207449627981],
            [-1.92417459706993, 52.4165784746854],
            [-1.92661697901924, 52.4155946404094],
            [-1.93085004334849, 52.4144609321022],
            [-1.92838011506257, 52.4154096894479],
            [-1.92701934666896, 52.4167806921687],
            [-1.92665681116756, 52.4218202982054],
            [-1.92622883809808, 52.4218883358198],
            [-1.9259970622882, 52.4242310522333],
            [-1.92654606388035, 52.4266209026938],
            [-1.92623253741348, 52.426820318788],
            [-1.92719436975651, 52.4295044936049],
            [-1.92966837419509, 52.4350285377821],
            [-1.93670256275903, 52.443189205494],
            [-1.93778656425809, 52.4455056788382],
            [-1.93807690204054, 52.4473163595994],
            [-1.9343995230891, 52.4477171829677],
            [-1.93242575069974, 52.4471676509668],
            [-1.9302364991393, 52.4471394108919],
            [-1.9294030335877, 52.4466381326318],
            [-1.92754989486406, 52.447176434635],
            [-1.92404474734595, 52.4465269483542],
            [-1.91913498900766, 52.4474155059987],
            [-1.9152014461575, 52.4493536731411],
            [-1.91111562785807, 52.4499583946881],
            [-1.90856158575963, 52.4498008688912],
            [-1.90139788094403, 52.4549257668349],
            [-1.90081293017522, 52.4559168629613],
            [-1.90084554854281, 52.457133251731],
            [-1.90459281541879, 52.4582834121433],
            [-1.90214909607018, 52.4612949024117],
            [-1.9038185064317, 52.4617988549064],
            [-1.90337284430503, 52.4623342318775],
            [-1.90421284226037, 52.4625605924283],
            [-1.90237438619995, 52.464659180115],
            [-1.90120855694736, 52.4673255022786],
            [-1.90122772251396, 52.4673300124461],
            [-1.8999714335903, 52.4702614682876],
            [-1.89958985490047, 52.4729986294957],
            [-1.89961462676255, 52.4738023974976],
            [-1.90041744850276, 52.4748917279627],
            [-1.89687164373573, 52.476455639767],
            [-1.89635223369488, 52.4762916123461],
            [-1.89285298727848, 52.4767676031012],
            [-1.89154659548615, 52.4781518227713],
            [-1.89336253579702, 52.4785589039928],
            [-1.89279992802622, 52.4792371252707],
            [-1.89204970905803, 52.4789793096135],
            [-1.88561552732562, 52.4806364535708],
            [-1.87904915328368, 52.4815162428475],
            [-1.86690091445404, 52.4821558413978],
            [-1.84893602586516, 52.4835997742009],
            [-1.84864958316571, 52.4829665187655],
            [-1.84783048025841, 52.4830553441457],
            [-1.84666266318871, 52.4784007237607],
            [-1.84737854976427, 52.4783296588472],
            [-1.84729853441589, 52.4780158070783],
            [-1.84131272076529, 52.4786156713748],
            [-1.83985082184849, 52.4761324748995],
            [-1.84170980751422, 52.4758626538575],
            [-1.84041009580123, 52.4757889226729],
            [-1.83793030345387, 52.4746969203794],
            [-1.83854034674052, 52.4741430533664],
            [-1.83554758552937, 52.4728587828274],
            [-1.83253248621905, 52.4721039364962],
            [-1.8320606671246, 52.4726848397871],
            [-1.83116689103393, 52.4723428582716],
            [-1.8291246697903, 52.4712638742659],
            [-1.82967598524571, 52.4706901970801],
            [-1.82936023334456, 52.470513590349],
            [-1.82870480885035, 52.4709836711843],
            [-1.82800694740523, 52.4706230761874],
            [-1.82865049802573, 52.4701798537887],
            [-1.82752022473978, 52.4696905588431],
            [-1.82751293546033, 52.4696874026501],
            [-1.82711468095295, 52.4695069855688],
            [-1.82671318825628, 52.4697841973476],
            [-1.82566239968872, 52.4693637539889],
            [-1.82554814042613, 52.4688196716371],
            [-1.824020862062, 52.4690179194416],
            [-1.82302619642578, 52.4681704565892],
            [-1.82084201116432, 52.4684737312082],
            [-1.82016321604968, 52.4677769001742],
            [-1.81421710390675, 52.4675753012886],
            [-1.80998540575187, 52.4667981905318],
            [-1.80933356314641, 52.4671054993484],
            [-1.80803954171587, 52.4650851166386],
            [-1.80617398236629, 52.4628579746052],
            [-1.80376742978743, 52.4608699597099],
            [-1.79803928121913, 52.4579494076066],
            [-1.79874353911794, 52.457469602443],
            [-1.80031736681895, 52.4582975776092],
            [-1.80491286411673, 52.4544287149119],
            [-1.80538852309611, 52.4546974108501],
            [-1.80596506153781, 52.4540942261303],
            [-1.80512369859533, 52.4533314330637],
            [-1.80625417355158, 52.4515667292251],
            [-1.80606636028185, 52.4497604065896],
            [-1.80667876172508, 52.4496813300817],
            [-1.80827568370454, 52.4465320491062],
            [-1.80926330603013, 52.4453937731958],
            [-1.81001004063735, 52.4452313133564],
            [-1.80957346370991, 52.4447766580637],
            [-1.81227038300094, 52.4430126050357],
            [-1.81157148917493, 52.4423444504777],
            [-1.81241579728778, 52.4420122687248],
            [-1.81183733289341, 52.4414090150809],
            [-1.81279839421585, 52.4405951108751],
            [-1.81190441883669, 52.4404894406643],
            [-1.81339861923043, 52.4384996562934],
            [-1.81448147927685, 52.4377443486355],
            [-1.81610967530427, 52.4378206751118],
            [-1.81731473297498, 52.4323673557241],
            [-1.81924004550818, 52.4309004035808],
            [-1.82526331290558, 52.4293055825411],
            [-1.82702968604712, 52.4277889185454],
            [-1.82799861797337, 52.4255687961718],
            [-1.83072531182291, 52.4227957454935],
            [-1.83289187919721, 52.4195137820485],
            [-1.83289793405241, 52.4194832332806],
            [-1.83440999735922, 52.418563852974],
            [-1.83372923110355, 52.4181529866848],
            [-1.83464356060036, 52.4174332803056],
            [-1.83905967189958, 52.4143503060756],
            [-1.84236507081714, 52.4126150910655],
            [-1.84360880287724, 52.4105238022368],
            [-1.84781816302923, 52.4099656314411],
            [-1.84871905340463, 52.4100180045504],
            [-1.84943389003688, 52.410789316892],
            [-1.85025288111983, 52.4102932460251],
            [-1.8508359960285, 52.4104458646452],
            [-1.8539426048547, 52.4085590871394],
            [-1.85781070857399, 52.4084190519313],
            [-1.86275898865266, 52.4093364378151],
            [-1.86413120002076, 52.4100868434915],
            [-1.86476940071998, 52.4109973730138],
            [-1.86664513342295, 52.4110453143494],
            [-1.86563702507381, 52.4099519345474],
            [-1.86625181858913, 52.409823113178],
            [-1.86711341916205, 52.4087866453856]
          ]
        ]
      }
    },
    {
      "type": "Feature",
      "properties": {
        "CATCHMENT_NAME": "King Edward VI Camp Hill School for Girls catchment",
        "SCHOOL_URN": 137044,
        "SCHOOL_NAME": "King Edward VI Camp Hill School for Girls"
      },
      "geometry": {
        "type": "Polygon",
        "coordinates": [
          [
            [-1.86711341916205, 52.4087866453856],
            [-1.86878646526985, 52.4077384877335],
            [-1.86919640530842, 52.4078099425295],
            [-1.86876745689888, 52.4047119065436],
            [-1.87237763765325, 52.4046780950316],
            [-1.87233411299135, 52.4021573131921],
            [-1.87786566497485, 52.4024291293894],
            [-1.87835404802744, 52.399897648891],
            [-1.8826972850066, 52.3998129640257],
            [-1.88619261310968, 52.4043573338844],
            [-1.88593896234133, 52.4046879199038],
            [-1.88668851361268, 52.4047021247881],
            [-1.88711491716094, 52.4046854574529],
            [-1.89238068950327, 52.4044332532878],
            [-1.8961328593028, 52.4033272039908],
            [-1.9006898367434, 52.4038355157693],
            [-1.90458785454367, 52.4031456321079],
            [-1.90662611862734, 52.4040939229038],
            [-1.90966661274623, 52.4044469028657],
            [-1.91081158125015, 52.4066907751687],
            [-1.91367502449958, 52.4074643032542],
            [-1.91659434561307, 52.4083572424964],
            [-1.91655887455179, 52.4092535373286],
            [-1.91896256989338, 52.41158819867],
            [-1.9193801049624, 52.4132399406545],
            [-1.91534719893014, 52.4141370255304],
            [-1.9141216221141, 52.4153650905665],
            [-1.91629461269419, 52.415399907817],
            [-1.91781830450514, 52.4159142572774],
            [-1.91689436658261, 52.4177970307562],
            [-1.91553186120208, 52.4183777337961],
            [-1.91591609652493, 52.4196483026671],
            [-1.91693608810965, 52.4207449627981],
            [-1.92417459706993, 52.4165784746854],
            [-1.92661697901924, 52.4155946404094],
            [-1.93085004334849, 52.4144609321022],
            [-1.92838011506257, 52.4154096894479],
            [-1.92701934666896, 52.4167806921687],
            [-1.92665681116756, 52.4218202982054],
            [-1.92622883809808, 52.4218883358198],
            [-1.9259970622882, 52.4242310522333],
            [-1.92654606388035, 52.4266209026938],
            [-1.92623253741348, 52.426820318788],
            [-1.92719436975651, 52.4295044936049],
            [-1.92966837419509, 52.4350285377821],
            [-1.93670256275903, 52.443189205494],
            [-1.93778656425809, 52.4455056788382],
            [-1.93807690204054, 52.4473163595994],
            [-1.9343995230891, 52.4477171829677],
            [-1.93242575069974, 52.4471676509668],
            [-1.9302364991393, 52.4471394108919],
            [-1.9294030335877, 52.4466381326318],
            [-1.92754989486406, 52.447176434635],
            [-1.92404474734595, 52.4465269483542],
            [-1.91913498900766, 52.4474155059987],
            [-1.9152014461575, 52.4493536731411],
            [-1.91111562785807, 52.4499583946881],
            [-1.90856158575963, 52.4498008688912],
            [-1.90139788094403, 52.4549257668349],
            [-1.90081293017522, 52.4559168629613],
            [-1.90084554854281, 52.457133251731],
            [-1.90459281541879, 52.4582834121433],
            [-1.90214909607018, 52.4612949024117],
            [-1.9038185064317, 52.4617988549064],
            [-1.90337284430503, 52.4623342318775],
            [-1.90421284226037, 52.4625605924283],
            [-1.90237438619995, 52.464659180115],
            [-1.90120855694736, 52.4673255022786],
            [-1.90122772251396, 52.4673300124461],
            [-1.8999714335903, 52.4702614682876],
            [-1.89958985490047, 52.4729986294957],
            [-1.89961462676255, 52.4738023974976],
            [-1.90041744850276, 52.4748917279627],
            [-1.89687164373573, 52.476455639767],
            [-1.89635223369488, 52.4762916123461],
            [-1.89285298727848, 52.4767676031012],
            [-1.89154659548615, 52.4781518227713],
            [-1.89336253579702, 52.4785589039928],
            [-1.89279992802622, 52.4792371252707],
            [-1.89204970905803, 52.4789793096135],
            [-1.88561552732562, 52.4806364535708],
            [-1.87904915328368, 52.4815162428475],
            [-1.86690091445404, 52.4821558413978],
            [-1.84893602586516, 52.4835997742009],
            [-1.84864958316571, 52.4829665187655],
            [-1.84783048025841, 52.4830553441457],
            [-1.84666266318871, 52.4784007237607],
            [-1.84737854976427, 52.4783296588472],
            [-1.84729853441589, 52.4780158070783],
            [-1.84131272076529, 52.4786156713748],
            [-1.83985082184849, 52.4761324748995],
            [-1.84170980751422, 52.4758626538575],
            [-1.84041009580123, 52.4757889226729],
            [-1.83793030345387, 52.4746969203794],
            [-1.83854034674052, 52.4741430533664],
            [-1.83554758552937, 52.4728587828274],
            [-1.83253248621905, 52.4721039364962],
            [-1.8320606671246, 52.4726848397871],
            [-1.83116689103393, 52.4723428582716],
            [-1.8291246697903, 52.4712638742659],
            [-1.82967598524571, 52.4706901970801],
            [-1.82936023334456, 52.470513590349],
            [-1.82870480885035, 52.4709836711843],
            [-1.82800694740523, 52.4706230761874],
            [-1.82865049802573, 52.4701798537887],
            [-1.82752022473978, 52.4696905588431],
            [-1.82751293546033, 52.4696874026501],
            [-1.82711468095295, 52.4695069855688],
            [-1.82671318825628, 52.4697841973476],
            [-1.82566239968872, 52.4693637539889],
            [-1.82554814042613, 52.4688196716371],
            [-1.824020862062, 52.4690179194416],
            [-1.82302619642578, 52.4681704565892],
            [-1.82084201116432, 52.4684737312082],
            [-1.82016321604968, 52.4677769001742],
            [-1.81421710390675, 52.4675753012886],
            [-1.80998540575187, 52.4667981905318],
            [-1.80933356314641, 52.4671054993484],
            [-1.80803954171587, 52.4650851166386],
            [-1.80617398236629, 52.4628579746052],
            [-1.80376742978743, 52.4608699597099],
            [-1.79803928121913, 52.4579494076066],
            [-1.79874353911794, 52.457469602443],
            [-1.80031736681895, 52.4582975776092],
            [-1.80491286411673, 52.4544287149119],
            [-1.80538852309611, 52.4546974108501],
            [-1.80596506153781, 52.4540942261303],
            [-1.80512369859533, 52.4533314330637],
            [-1.80625417355158, 52.4515667292251],
            [-1.80606636028185, 52.4497604065896],
            [-1.80667876172508, 52.4496813300817],
            [-1.80827568370454, 52.4465320491062],
            [-1.80926330603013, 52.4453937731958],
            [-1.81001004063735, 52.4452313133564],
            [-1.80957346370991, 52.4447766580637],
            [-1.81227038300094, 52.4430126050357],
            [-1.81157148917493, 52.4423444504777],
            [-1.81241579728778, 52.4420122687248],
            [-1.81183733289341, 52.4414090150809],
            [-1.81279839421585, 52.4405951108751],
            [-1.81190441883669, 52.4404894406643],
            [-1.81339861923043, 52.4384996562934],
            [-1.81448147927685, 52.4377443486355],
            [-1.81610967530427, 52.4378206751118],
            [-1.81731473297498, 52.4323673557241],
            [-1.81924004550818, 52.4309004035808],
            [-1.82526331290558, 52.4293055825411],
            [-1.82702968604712, 52.4277889185454],
            [-1.82799861797337, 52.4255687961718],
            [-1.83072531182291, 52.4227957454935],
            [-1.83289187919721, 52.4195137820485],
            [-1.83289793405241, 52.4194832332806],
            [-1.83440999735922, 52.418563852974],
            [-1.83372923110355, 52.4181529866848],
            [-1.83464356060036, 52.4174332803056],
            [-1.83905967189958, 52.4143503060756],
            [-1.84236507081714, 52.4126150910655],
            [-1.84360880287724, 52.4105238022368],
            [-1.84781816302923, 52.4099656314411],
            [-1.84871905340463, 52.4100180045504],
            [-1.84943389003688, 52.410789316892],
            [-1.85025288111983, 52.4102932460251],
            [-1.8508359960285, 52.4104458646452],
            [-1.8539426048547, 52.4085590871394],
            [-1.85781070857399, 52.4084190519313],
            [-1.86275898865266, 52.4093364378151],
            [-1.86413120002076, 52.4100868434915],
            [-1.86476940071998, 52.4109973730138],
            [-1.86664513342295, 52.4110453143494],
            [-1.86563702507381, 52.4099519345474],
            [-1.86625181858913, 52.409823113178],
            [-1.86711341916205, 52.4087866453856]
          ]
        ]
      }
    },
    {
      "type": "Feature",
      "properties": {
        "CATCHMENT_NAME": "King Edward VI Five Ways School catchment",
        "SCHOOL_URN": 137046,
        "SCHOOL_NAME": "King Edward VI Five Ways School"
      },
      "geometry": {
        "type": "Polygon",
        "coordinates": [
          [
            [-2.00218554547118, 52.3835291270494],
            [-2.00220764688087, 52.3841997802834],
            [-2.00416612898093, 52.3839570011954],
            [-2.00500053851913, 52.3841546727958],
            [-2.00613659530207, 52.3856703584682],
            [-2.00845976530079, 52.3869620384883],
            [-2.01135254232925, 52.3861805017265],
            [-2.01295055084592, 52.3887002646535],
            [-2.01336609450826, 52.3920732935679],
            [-2.01418392695015, 52.3942245842602],
            [-2.01507466712143, 52.394668627161],
            [-2.01690261321493, 52.3942610047573],
            [-2.01807411820076, 52.394948635508],
            [-2.0194299246891, 52.3964821272253],
            [-2.0207239261077, 52.3993415801172],
            [-2.02167013198302, 52.4000987167696],
            [-2.025055513847, 52.4006642517468],
            [-2.02578294766412, 52.4004177354432],
            [-2.0294266066027, 52.4005714440918],
            [-2.03131271412427, 52.4010043329103],
            [-2.03220823936371, 52.4015480221136],
            [-2.03364061279039, 52.4023279266382],
            [-2.03343542536014, 52.4030328051922],
            [-2.02805803865894, 52.4064317082034],
            [-2.02731470626582, 52.4071133400835],
            [-2.02727090789761, 52.4075683099723],
            [-2.02786067141224, 52.4078846246711],
            [-2.02753442235217, 52.4081049041119],
            [-2.02417725566461, 52.4063705879336],
            [-2.02315996643359, 52.4062917090671],
            [-2.02202837813706, 52.4068169111198],
            [-2.02047762120945, 52.4068676264506],
            [-2.01754876515636, 52.4055824356978],
            [-2.01507067736877, 52.4061231897851],
            [-2.01427436005843, 52.4068803498174],
            [-2.01267809260723, 52.4073165717612],
            [-2.01234911352502, 52.4082048760528],
            [-2.01280751747656, 52.409461195174],
            [-2.01090089299496, 52.4095279644822],
            [-2.00923424074021, 52.4103626289589],
            [-2.00809659464756, 52.4086197862004],
            [-2.00644142851911, 52.4091342100165],
            [-2.00463912461886, 52.4092233196899],
            [-2.00420137259166, 52.4109692862164],
            [-2.00279008446754, 52.4106780724342],
            [-2.00207715386416, 52.4108713379807],
            [-2.00101276220284, 52.410308572379],
            [-1.99861646840249, 52.4097575870769],
            [-1.99814170983728, 52.4099876727348],
            [-1.99779772084586, 52.4097378181257],
            [-1.99692588431517, 52.4103536462108],
            [-1.99560864934105, 52.4124959138997],
            [-1.99324464924427, 52.4135729233499],
            [-1.99107463437163, 52.4135593428283],
            [-1.98886196594896, 52.4141220024737],
            [-1.98603705906246, 52.4167261850783],
            [-1.98821893695329, 52.4169889057882],
            [-1.98869680541712, 52.4163686187271],
            [-1.99104201651639, 52.4154131209204],
            [-1.9970611444877, 52.4174261568436],
            [-1.99700973434387, 52.4179422195407],
            [-1.9990181453853, 52.4187135250672],
            [-2.00036801166618, 52.4202436333754],
            [-2.00204282203893, 52.4209879433147],
            [-2.00127533521147, 52.4218717089746],
            [-2.00281937583094, 52.4223311123287],
            [-2.00164897073082, 52.4229990996496],
            [-2.0033917673588, 52.4253921670451],
            [-2.00351542698727, 52.4262606386405],
            [-2.00431691490645, 52.4263712437406],
            [-2.00468631003248, 52.428410162667],
            [-2.00655843310693, 52.4279282342285],
            [-2.0072966739274, 52.4280935581334],
            [-2.00974055226798, 52.4265218765858],
            [-2.01317806915342, 52.4287205253613],
            [-2.01257103800784, 52.4298048641097],
            [-2.01378283404368, 52.4295520780113],
            [-2.01545901611643, 52.4286114835255],
            [-2.0152795879895, 52.4321742954244],
            [-2.01580474927565, 52.4326642284817],
            [-2.01699028095924, 52.4326829300849],
            [-2.01700108699185, 52.4406742734839],
            [-2.01743461533019, 52.443256167501],
            [-2.01651223480981, 52.4467318913361],
            [-2.0152678385812, 52.4476589486693],
            [-2.01323319186999, 52.4483560006005],
            [-2.01351180423611, 52.4496586255213],
            [-2.01303817240331, 52.4503733691619],
            [-2.01212055044881, 52.4521930708741],
            [-2.01150484508758, 52.4553648131167],
            [-2.01175700851419, 52.4572221396138],
            [-2.01308393513488, 52.4602840306187],
            [-2.01324346948388, 52.4621476499831],
            [-2.01324348263751, 52.4621907894702],
            [-2.01288449238989, 52.4625045801595],
            [-2.01301464219301, 52.4647241942114],
            [-2.01437350971177, 52.4702483478288],
            [-2.01557244502349, 52.4719365765311],
            [-2.01846475044548, 52.4744237016677],
            [-2.01808262215835, 52.4758773871241],
            [-2.0138676138923, 52.4763149306239],
            [-2.01255298329815, 52.4768616054514],
            [-2.00982037030813, 52.4765886485921],
            [-2.00704636989611, 52.4754300078447],
            [-2.00668425162907, 52.4760961790743],
            [-2.00998126166622, 52.4783632060172],
            [-2.01449378404951, 52.4822275118372],
            [-2.01307007515226, 52.4827518268652],
            [-2.01019420290282, 52.4825048695846],
            [-2.00954693573301, 52.4850490885561],
            [-2.00899618442978, 52.4849934106518],
            [-2.0075121171651, 52.4869938502128],
            [-2.00747549327541, 52.487944992686],
            [-2.00785692803202, 52.4881885264442],
            [-2.00694701869399, 52.4891793598072],
            [-2.00911202098044, 52.4895864297711],
            [-2.00677653295474, 52.4914394387971],
            [-1.998913294508, 52.4900856835016],
            [-1.99500595074756, 52.4912048837717],
            [-1.99293561706102, 52.4890723337615],
            [-1.99122895476313, 52.4878927118703],
            [-1.99093182222276, 52.4861163229044],
            [-1.9903399667385, 52.4852729862417],
            [-1.9905435315953, 52.4837581693174],
            [-1.98992516464969, 52.4832897836163],
            [-1.98839517828671, 52.4831790102565],
            [-1.98813768512309, 52.4826486363025],
            [-1.98692719864632, 52.4827923095376],
            [-1.98702572746741, 52.4834117349125],
            [-1.98637036774423, 52.483762262904],
            [-1.98575343431591, 52.4835060486436],
            [-1.9852129889243, 52.48364169374],
            [-1.98393807967387, 52.4828774161976],
            [-1.98141263970977, 52.4829076059108],
            [-1.98182074155171, 52.4824940663374],
            [-1.98059733343208, 52.4818879394058],
            [-1.97947234278075, 52.4819777151454],
            [-1.97840677005094, 52.4809472054139],
            [-1.97513993390656, 52.4826646059231],
            [-1.97473664378648, 52.4824010979985],
            [-1.97414743006308, 52.482650013391],
            [-1.97399447732706, 52.4824027356513],
            [-1.97199588649041, 52.4831403294947],
            [-1.96468909886545, 52.4815138806764],
            [-1.96703214150266, 52.4789533250581],
            [-1.96869228360914, 52.477862434187],
            [-1.96840526634391, 52.4777463301215],
            [-1.96902431598344, 52.4767935536115],
            [-1.96537415111056, 52.4753226308034],
            [-1.96712986376984, 52.4741976412372],
            [-1.96580683504019, 52.4736641237227],
            [-1.96574528552979, 52.4733620368507],
            [-1.95783090351325, 52.4733522509399],
            [-1.95305437911571, 52.4727310117286],
            [-1.95371463628753, 52.4705682613193],
            [-1.95291728533148, 52.4687906701036],
            [-1.94976087814073, 52.4665310729059],
            [-1.94808865561724, 52.464129069521],
            [-1.94512238176312, 52.4633320540955],
            [-1.94389496740074, 52.4632739520029],
            [-1.94413419434966, 52.4625683699507],
            [-1.94247823082611, 52.4605159957596],
            [-1.94471962533616, 52.4581617264901],
            [-1.9463646360358, 52.4547291838943],
            [-1.94529935451286, 52.4498956704661],
            [-1.94650888704448, 52.4485728205968],
            [-1.94521368553137, 52.4465369170151],
            [-1.93807690204054, 52.4473163595994],
            [-1.93778656425809, 52.4455056788382],
            [-1.93670256275903, 52.443189205494],
            [-1.92966837419509, 52.4350285377821],
            [-1.92719436975651, 52.4295044936049],
            [-1.92623253741348, 52.426820318788],
            [-1.92654606388035, 52.4266209026938],
            [-1.9259970622882, 52.4242310522333],
            [-1.92622883809808, 52.4218883358198],
            [-1.92665681116756, 52.4218202982054],
            [-1.92701934666896, 52.4167806921687],
            [-1.92838011506257, 52.4154096894479],
            [-1.93085004334849, 52.4144609321022],
            [-1.92661697901924, 52.4155946404094],
            [-1.92417459706993, 52.4165784746854],
            [-1.91693608810965, 52.4207449627981],
            [-1.91591609652493, 52.4196483026671],
            [-1.91553186120208, 52.4183777337961],
            [-1.91689436658261, 52.4177970307562],
            [-1.91781830450514, 52.4159142572774],
            [-1.91629461269419, 52.415399907817],
            [-1.9141216221141, 52.4153650905665],
            [-1.91534719893014, 52.4141370255304],
            [-1.9193801049624, 52.4132399406545],
            [-1.91896256989338, 52.41158819867],
            [-1.91655887455179, 52.4092535373286],
            [-1.91659434561307, 52.4083572424964],
            [-1.91367502449958, 52.4074643032542],
            [-1.91395883062614, 52.4066607658286],
            [-1.91464961252024, 52.4067547393481],
            [-1.91530304875513, 52.4031637480077],
            [-1.91646872916699, 52.4015437035334],
            [-1.91829667328584, 52.4001335157711],
            [-1.91857786578453, 52.3981927502641],
            [-1.92243665119051, 52.3968558492184],
            [-1.92313577579746, 52.3962251993843],
            [-1.92438269412263, 52.3966934537379],
            [-1.92827236409414, 52.3931394075019],
            [-1.9280729558748, 52.3928911376176],
            [-1.93207202215495, 52.3905047921167],
            [-1.93285845698872, 52.3903254921149],
            [-1.93463552846939, 52.3878901362395],
            [-1.93415409732938, 52.3875500458215],
            [-1.93431470610424, 52.387236378657],
            [-1.93634574198434, 52.3879045572572],
            [-1.93967153237808, 52.3896001167857],
            [-1.94544940926848, 52.3906961060109],
            [-1.95254253088033, 52.3933207000804],
            [-1.95361379620871, 52.3933706508461],
            [-1.95891155487297, 52.3882481830936],
            [-1.95940814861202, 52.3882420663524],
            [-1.95956171180786, 52.3889892556502],
            [-1.96043451281946, 52.3890929126447],
            [-1.9649269608741, 52.3921878637892],
            [-1.966361665048, 52.3894651561014],
            [-1.96882734129807, 52.3894577347544],
            [-1.96895968323073, 52.3892123182825],
            [-1.96971606541492, 52.3896890148189],
            [-1.97054633128707, 52.3896568501774],
            [-1.97162072437709, 52.3892156215882],
            [-1.97245742808667, 52.3881262424517],
            [-1.97557735720171, 52.3871109930856],
            [-1.97779714982338, 52.3877037474255],
            [-1.97859206835627, 52.3875142376656],
            [-1.97892699302344, 52.3878720840743],
            [-1.98362447262023, 52.3873341820359],
            [-1.98819017428832, 52.3845026835952],
            [-1.98807737346497, 52.383596461303],
            [-1.98897085434931, 52.382641787646],
            [-1.99288031461083, 52.3819515339439],
            [-1.99451104210707, 52.3811811637955],
            [-1.99803022721597, 52.381061553568],
            [-2.00017711560184, 52.3816321731526],
            [-2.00127910459127, 52.3835651184609],
            [-2.00218554547118, 52.3835291270494]
          ]
        ]
      }
    },
    {
      "type": "Feature",
      "properties": {
        "CATCHMENT_NAME": "King Edward VI Handsworth Grammar School for Boys catchment",
        "SCHOOL_URN": 143562,
        "SCHOOL_NAME": "King Edward VI Handsworth Grammar School for Boys"
      },
      "geometry": {
        "type": "Polygon",
        "coordinates": [
          [
            [-1.90120855694736, 52.4673255022786],
            [-1.90237438619995, 52.464659180115],
            [-1.90421284226037, 52.4625605924283],
            [-1.90337284430503, 52.4623342318775],
            [-1.9038185064317, 52.4617988549064],
            [-1.90214909607018, 52.4612949024117],
            [-1.90459281541879, 52.4582834121433],
            [-1.90084554854281, 52.457133251731],
            [-1.90081293017522, 52.4559168629613],
            [-1.90139788094403, 52.4549257668349],
            [-1.90856158575963, 52.4498008688912],
            [-1.91111562785807, 52.4499583946881],
            [-1.9152014461575, 52.4493536731411],
            [-1.91913498900766, 52.4474155059987],
            [-1.92404474734595, 52.4465269483542],
            [-1.92754989486406, 52.447176434635],
            [-1.9294030335877, 52.4466381326318],
            [-1.9302364991393, 52.4471394108919],
            [-1.93242575069974, 52.4471676509668],
            [-1.9343995230891, 52.4477171829677],
            [-1.93807690204054, 52.4473163595994],
            [-1.94521368553137, 52.4465369170151],
            [-1.94650888704448, 52.4485728205968],
            [-1.94529935451286, 52.4498956704661],
            [-1.9463646360358, 52.4547291838943],
            [-1.94471962533616, 52.4581617264901],
            [-1.94247823082611, 52.4605159957596],
            [-1.94413419434966, 52.4625683699507],
            [-1.94389496740074, 52.4632739520029],
            [-1.94512238176312, 52.4633320540955],
            [-1.94808865561724, 52.464129069521],
            [-1.94976087814073, 52.4665310729059],
            [-1.95291728533148, 52.4687906701036],
            [-1.95371463628753, 52.4705682613193],
            [-1.95305437911571, 52.4727310117286],
            [-1.95783090351325, 52.4733522509399],
            [-1.96574528552979, 52.4733620368507],
            [-1.96580683504019, 52.4736641237227],
            [-1.96712986376984, 52.4741976412372],
            [-1.96537415111056, 52.4753226308034],
            [-1.96902431598344, 52.4767935536115],
            [-1.96840526634391, 52.4777463301215],
            [-1.96869228360914, 52.477862434187],
            [-1.96703214150266, 52.4789533250581],
            [-1.96468909886545, 52.4815138806764],
            [-1.97199588649041, 52.4831403294947],
            [-1.97399447732706, 52.4824027356513],
            [-1.97414743006308, 52.482650013391],
            [-1.97473664378648, 52.4824010979985],
            [-1.97513993390656, 52.4826646059231],
            [-1.97840677005094, 52.4809472054139],
            [-1.97947234278075, 52.4819777151454],
            [-1.98059733343208, 52.4818879394058],
            [-1.98182074155171, 52.4824940663374],
            [-1.98141263970977, 52.4829076059108],
            [-1.98393807967387, 52.4828774161976],
            [-1.9852129889243, 52.48364169374],
            [-1.98575343431591, 52.4835060486436],
            [-1.98637036774423, 52.483762262904],
            [-1.98702572746741, 52.4834117349125],
            [-1.98692719864632, 52.4827923095376],
            [-1.98813768512309, 52.4826486363025],
            [-1.98839517828671, 52.4831790102565],
            [-1.98992516464969, 52.4832897836163],
            [-1.9905435315953, 52.4837581693174],
            [-1.9903399667385, 52.4852729862417],
            [-1.99093182222276, 52.4861163229044],
            [-1.99122895476313, 52.4878927118703],
            [-1.99293561706102, 52.4890723337615],
            [-1.99500595074756, 52.4912048837717],
            [-1.998913294508, 52.4900856835016],
            [-2.00677653295474, 52.4914394387971],
            [-2.00531585079022, 52.4936177984345],
            [-2.00083401989446, 52.4982243337587],
            [-1.99874223006294, 52.4995818827603],
            [-1.99641034142398, 52.5005176982455],
            [-1.99826787170434, 52.5020198924426],
            [-1.99838858227401, 52.5027858904535],
            [-1.99762104578393, 52.5029090055166],
            [-1.99847256740929, 52.5054244133819],
            [-1.99759735159717, 52.5057615170774],
            [-1.99824856128087, 52.5058371115565],
            [-1.99511485603651, 52.5066092259906],
            [-1.99206366567821, 52.5065533439355],
            [-1.99232977179288, 52.5097861252492],
            [-1.99120915547853, 52.5139942955114],
            [-1.99621608605825, 52.517434103495],
            [-2.00279317813815, 52.5195853285682],
            [-2.00555814167638, 52.5212160685118],
            [-2.00812610789086, 52.5241852439487],
            [-2.01029124642595, 52.5293704896824],
            [-2.00762181998627, 52.5299648557332],
            [-2.00388670660447, 52.5308991073692],
            [-2.00438061915354, 52.5314996217425],
            [-2.00284316205825, 52.5319815766175],
            [-2.00263959454284, 52.5310834776316],
            [-2.00176097483742, 52.5311185488842],
            [-2.0016119216341, 52.5293106581527],
            [-2.00217652853133, 52.5288045692723],
            [-2.00221165554573, 52.5264914059452],
            [-2.00425598317229, 52.5262334058938],
            [-2.00557669785572, 52.5265857401546],
            [-2.00531128406536, 52.525921408621],
            [-2.00145829095591, 52.5248337027199],
            [-1.99317952263096, 52.5235129455183],
            [-1.98967219424668, 52.5294092258897],
            [-1.98504655073088, 52.5348386324212],
            [-1.97829028421151, 52.534442094689],
            [-1.97187707544143, 52.5349899903707],
            [-1.96914763093138, 52.5358883174805],
            [-1.96732316384963, 52.5349403142808],
            [-1.96468485542114, 52.5341925515057],
            [-1.96509248848895, 52.5332819867417],
            [-1.96347689854166, 52.5331088597963],
            [-1.96297086672022, 52.5336148748614],
            [-1.96220018512556, 52.533246961135],
            [-1.96076354124907, 52.5323295175509],
            [-1.96023808581839, 52.5313512465522],
            [-1.95808176597462, 52.5313989589308],
            [-1.9579184032093, 52.5299663501628],
            [-1.95747906513867, 52.5297161840806],
            [-1.95403690924121, 52.5299459555667],
            [-1.95127187116957, 52.5297917624291],
            [-1.94986831195496, 52.530434231859],
            [-1.94798214428908, 52.532587422389],
            [-1.94730139972581, 52.5328269759039],
            [-1.94740797375411, 52.5334755607546],
            [-1.94647804611796, 52.5337618185394],
            [-1.94528157972568, 52.5333914185863],
            [-1.94414281194613, 52.5334336643472],
            [-1.94284961636143, 52.5338279974597],
            [-1.93972359893277, 52.533177586129],
            [-1.93946011035973, 52.5327764077492],
            [-1.93723814420562, 52.5320084070719],
            [-1.93367936381102, 52.532753362323],
            [-1.93263000770657, 52.5324840556401],
            [-1.93246610141241, 52.5326661000539],
            [-1.92944518787316, 52.5313067394422],
            [-1.9303474136562, 52.5333575219208],
            [-1.92944016976446, 52.5428224051078],
            [-1.92994176625728, 52.543587786223],
            [-1.93314991922693, 52.5458128121301],
            [-1.92119024333543, 52.5460509075044],
            [-1.91980935196755, 52.5463430561402],
            [-1.91850599639123, 52.5470325680567],
            [-1.91815749708244, 52.5473065293844],
            [-1.91679969537041, 52.5486441389462],
            [-1.91183491631661, 52.5519443287811],
            [-1.90815690491608, 52.5532270547898],
            [-1.90127972640905, 52.5544143753744],
            [-1.8997930437395, 52.5549992675874],
            [-1.89809604973742, 52.5566231551445],
            [-1.89668206890154, 52.5588577722155],
            [-1.89327453459164, 52.5613223772362],
            [-1.89163279419325, 52.5624545407838],
            [-1.88271538087993, 52.559080161612],
            [-1.88200876790158, 52.559072266119],
            [-1.87993271737378, 52.5582063089631],
            [-1.87861830991556, 52.557180955111],
            [-1.87926127772368, 52.5567105939365],
            [-1.87830344030011, 52.556920809193],
            [-1.87605619506436, 52.5551367440663],
            [-1.87188024349119, 52.5532623897222],
            [-1.87202402779942, 52.5530009275293],
            [-1.87130114664373, 52.5525713578803],
            [-1.87079709922578, 52.5524484898848],
            [-1.87058962152375, 52.5527799824918],
            [-1.86520203614863, 52.5508195767165],
            [-1.86596696764003, 52.5500527547747],
            [-1.86535405731842, 52.5498326771813],
            [-1.86559720568286, 52.5494149564717],
            [-1.86515510091096, 52.5493289824837],
            [-1.8652035467309, 52.5489200277485],
            [-1.86147356402731, 52.5462205104148],
            [-1.8587641213119, 52.5450199213796],
            [-1.86562750868395, 52.5434151747005],
            [-1.86746417674846, 52.5426647476352],
            [-1.86879558629083, 52.5417276938645],
            [-1.87375433182016, 52.5366565312459],
            [-1.87685137038658, 52.5347458676078],
            [-1.88088962956258, 52.5336028763264],
            [-1.87816365330141, 52.5273484071586],
            [-1.87424879523949, 52.5221858417287],
            [-1.87622383508632, 52.5216413146823],
            [-1.87751726663851, 52.5208273226084],
            [-1.87940989227569, 52.5191193163841],
            [-1.88075159205014, 52.5146139964567],
            [-1.88503172126675, 52.5126475654256],
            [-1.89182058704315, 52.5148385833475],
            [-1.89641602319693, 52.5157606086281],
            [-1.90135877099864, 52.5163186643191],
            [-1.90346525602476, 52.5085160890642],
            [-1.90167874605059, 52.5049195230565],
            [-1.8967718150632, 52.5009443748223],
            [-1.89615523563409, 52.5000385225525],
            [-1.89578396523497, 52.4994655140561],
            [-1.89337676388861, 52.4995703997797],
            [-1.88609975996079, 52.4984991135032],
            [-1.88935021568951, 52.4904049641106],
            [-1.891739864396, 52.4864560371888],
            [-1.89255830412578, 52.4859695774381],
            [-1.89155826774237, 52.4830675138509],
            [-1.89015702381116, 52.4822140262606],
            [-1.89279992802622, 52.4792371252707],
            [-1.89336253579702, 52.4785589039928],
            [-1.89154659548615, 52.4781518227713],
            [-1.89285298727848, 52.4767676031012],
            [-1.89635223369488, 52.4762916123461],
            [-1.89687164373573, 52.476455639767],
            [-1.90041744850276, 52.4748917279627],
            [-1.89961462676255, 52.4738023974976],
            [-1.89958985490047, 52.4729986294957],
            [-1.8999714335903, 52.4702614682876],
            [-1.90122772251396, 52.4673300124461],
            [-1.90120855694736, 52.4673255022786]
          ]
        ]
      }
    },
    {
      "type": "Feature",
      "properties": {
        "CATCHMENT_NAME": "King Edward VI Handsworth School catchment",
        "SCHOOL_URN": 137047,
        "SCHOOL_NAME": "King Edward VI Handsworth School"
      },
      "geometry": {
        "type": "Polygon",
        "coordinates": [
          [
            [-1.9038185064317, 52.4617988549064],
            [-1.90214909607018, 52.4612949024117],
            [-1.90459281541879, 52.4582834121433],
            [-1.90084554854281, 52.457133251731],
            [-1.90081293017522, 52.4559168629613],
            [-1.90139788094403, 52.4549257668349],
            [-1.90856158575963, 52.4498008688912],
            [-1.91111562785807, 52.4499583946881],
            [-1.9152014461575, 52.4493536731411],
            [-1.91913498900766, 52.4474155059987],
            [-1.92404474734595, 52.4465269483542],
            [-1.92754989486406, 52.447176434635],
            [-1.9294030335877, 52.4466381326318],
            [-1.9302364991393, 52.4471394108919],
            [-1.93242575069974, 52.4471676509668],
            [-1.9343995230891, 52.4477171829677],
            [-1.93807690204054, 52.4473163595994],
            [-1.94521368553137, 52.4465369170151],
            [-1.94650888704448, 52.4485728205968],
            [-1.94529935451286, 52.4498956704661],
            [-1.9463646360358, 52.4547291838943],
            [-1.94471962533616, 52.4581617264901],
            [-1.94247823082611, 52.4605159957596],
            [-1.94413419434966, 52.4625683699507],
            [-1.94389496740074, 52.4632739520029],
            [-1.94512238176312, 52.4633320540955],
            [-1.94808865561724, 52.464129069521],
            [-1.94976087814073, 52.4665310729059],
            [-1.95291728533148, 52.4687906701036],
            [-1.95371463628753, 52.4705682613193],
            [-1.95305437911571, 52.4727310117286],
            [-1.95783090351325, 52.4733522509399],
            [-1.96574528552979, 52.4733620368507],
            [-1.96580683504019, 52.4736641237227],
            [-1.96712986376984, 52.4741976412372],
            [-1.96537415111056, 52.4753226308034],
            [-1.96902431598344, 52.4767935536115],
            [-1.96840526634391, 52.4777463301215],
            [-1.96869228360914, 52.477862434187],
            [-1.96703214150266, 52.4789533250581],
            [-1.96468909886545, 52.4815138806764],
            [-1.97199588649041, 52.4831403294947],
            [-1.97399447732706, 52.4824027356513],
            [-1.97414743006308, 52.482650013391],
            [-1.97473664378648, 52.4824010979985],
            [-1.97513993390656, 52.4826646059231],
            [-1.97840677005094, 52.4809472054139],
            [-1.97947234278075, 52.4819777151454],
            [-1.98059733343208, 52.4818879394058],
            [-1.98182074155171, 52.4824940663374],
            [-1.98141263970977, 52.4829076059108],
            [-1.98393807967387, 52.4828774161976],
            [-1.9852129889243, 52.48364169374],
            [-1.98575343431591, 52.4835060486436],
            [-1.98637036774423, 52.483762262904],
            [-1.98702572746741, 52.4834117349125],
            [-1.98692719864632, 52.4827923095376],
            [-1.98813768512309, 52.4826486363025],
            [-1.98839517828671, 52.4831790102565],
            [-1.98992516464969, 52.4832897836163],
            [-1.9905435315953, 52.4837581693174],
            [-1.9903399667385, 52.4852729862417],
            [-1.99093182222276, 52.4861163229044],
            [-1.99122895476313, 52.4878927118703],
            [-1.99293561706102, 52.4890723337615],
            [-1.99500595074756, 52.4912048837717],
            [-1.998913294508, 52.4900856835016],
            [-2.00677653295474, 52.4914394387971],
            [-2.00531585079022, 52.4936177984345],
            [-2.00083401989446, 52.4982243337587],
            [-1.99874223006294, 52.4995818827603],
            [-1.99641034142398, 52.5005176982455],
            [-1.99826787170434, 52.5020198924426],
            [-1.99838858227401, 52.5027858904535],
            [-1.99762104578393, 52.5029090055166],
            [-1.99847256740929, 52.5054244133819],
            [-1.99759735159717, 52.5057615170774],
            [-1.99824856128087, 52.5058371115565],
            [-1.99511485603651, 52.5066092259906],
            [-1.99206366567821, 52.5065533439355],
            [-1.99232977179288, 52.5097861252492],
            [-1.99120915547853, 52.5139942955114],
            [-1.99621608605825, 52.517434103495],
            [-2.00279317813815, 52.5195853285682],
            [-2.00555814167638, 52.5212160685118],
            [-2.00812610789086, 52.5241852439487],
            [-2.01029124642595, 52.5293704896824],
            [-2.00762181998627, 52.5299648557332],
            [-2.00388670660447, 52.5308991073692],
            [-2.00438061915354, 52.5314996217425],
            [-2.00284316205825, 52.5319815766175],
            [-2.00263959454284, 52.5310834776316],
            [-2.00176097483742, 52.5311185488842],
            [-2.0016119216341, 52.5293106581527],
            [-2.00217652853133, 52.5288045692723],
            [-2.00221165554573, 52.5264914059452],
            [-2.00425598317229, 52.5262334058938],
            [-2.00557669785572, 52.5265857401546],
            [-2.00531128406536, 52.525921408621],
            [-2.00145829095591, 52.5248337027199],
            [-1.99317952263096, 52.5235129455183],
            [-1.98967219424668, 52.5294092258897],
            [-1.98504655073088, 52.5348386324212],
            [-1.97829028421151, 52.534442094689],
            [-1.97187707544143, 52.5349899903707],
            [-1.96914763093138, 52.5358883174805],
            [-1.96732316384963, 52.5349403142808],
            [-1.96468485542114, 52.5341925515057],
            [-1.96509248848895, 52.5332819867417],
            [-1.96347689854166, 52.5331088597963],
            [-1.96297086672022, 52.5336148748614],
            [-1.96220018512556, 52.533246961135],
            [-1.96076354124907, 52.5323295175509],
            [-1.96023808581839, 52.5313512465522],
            [-1.95808176597462, 52.5313989589308],
            [-1.9579184032093, 52.5299663501628],
            [-1.95747906513867, 52.5297161840806],
            [-1.95403690924121, 52.5299459555667],
            [-1.95127187116957, 52.5297917624291],
            [-1.94986831195496, 52.530434231859],
            [-1.94798214428908, 52.532587422389],
            [-1.94730139972581, 52.5328269759039],
            [-1.94740797375411, 52.5334755607546],
            [-1.94647804611796, 52.5337618185394],
            [-1.94528157972568, 52.5333914185863],
            [-1.94414281194613, 52.5334336643472],
            [-1.94284961636143, 52.5338279974597],
            [-1.93972359893277, 52.533177586129],
            [-1.93946011035973, 52.5327764077492],
            [-1.93723814420562, 52.5320084070719],
            [-1.93367936381102, 52.532753362323],
            [-1.93263000770657, 52.5324840556401],
            [-1.93246610141241, 52.5326661000539],
            [-1.92944518787316, 52.5313067394422],
            [-1.9303474136562, 52.5333575219208],
            [-1.92944016976446, 52.5428224051078],
            [-1.92994176625728, 52.543587786223],
            [-1.93314991922693, 52.5458128121301],
            [-1.92119024333543, 52.5460509075044],
            [-1.91980935196755, 52.5463430561402],
            [-1.91850599639123, 52.5470325680567],
            [-1.91815749708244, 52.5473065293844],
            [-1.91679969537041, 52.5486441389462],
            [-1.91183491631661, 52.5519443287811],
            [-1.90815690491608, 52.5532270547898],
            [-1.90127972640905, 52.5544143753744],
            [-1.8997930437395, 52.5549992675874],
            [-1.89809604973742, 52.5566231551445],
            [-1.89668206890154, 52.5588577722155],
            [-1.89327453459164, 52.5613223772362],
            [-1.89163279419325, 52.5624545407838],
            [-1.88849901688753, 52.5638261467455],
            [-1.88274613648667, 52.5674570559225],
            [-1.8785192231514, 52.5696355816838],
            [-1.87592485252269, 52.5803624353786],
            [-1.87256445035415, 52.5849446948669],
            [-1.87242145726817, 52.5850059060993],
            [-1.87080789502696, 52.5867785212561],
            [-1.86771191986206, 52.5882764412858],
            [-1.86796061067901, 52.5885302334402],
            [-1.86391204135949, 52.5910752190478],
            [-1.85467955682279, 52.6013519066117],
            [-1.85279623242263, 52.602492685896],
            [-1.84855114164341, 52.6046530319871],
            [-1.84447073817853, 52.6052239481217],
            [-1.83865718821092, 52.6068722152495],
            [-1.83803439982297, 52.6067463566894],
            [-1.83672031739614, 52.6073570684435],
            [-1.83237033744878, 52.6078065691233],
            [-1.8279868819582, 52.6087154919118],
            [-1.81181738966629, 52.6044090737902],
            [-1.80846977540344, 52.6030903126525],
            [-1.8038693206567, 52.6013324284158],
            [-1.80167788610274, 52.6010725609203],
            [-1.79757171721554, 52.5991696572972],
            [-1.7965280894026, 52.5991229377717],
            [-1.79433483226039, 52.5961680908634],
            [-1.79532734016063, 52.5951318721151],
            [-1.79365819752235, 52.5944222833616],
            [-1.78962611086412, 52.5916148365757],
            [-1.78800228267072, 52.5878978621662],
            [-1.78846071184577, 52.5869112494281],
            [-1.78828291538582, 52.5846104284975],
            [-1.78679966131804, 52.5830722771481],
            [-1.78483582366208, 52.5817418342246],
            [-1.78384939312287, 52.5815844748675],
            [-1.78360779348693, 52.5811768169138],
            [-1.78135878764623, 52.5802701008938],
            [-1.78026794080559, 52.5788594056805],
            [-1.77949539353823, 52.5786979110737],
            [-1.77868415070294, 52.5765802310245],
            [-1.77915127864207, 52.5764012605668],
            [-1.77883254221986, 52.5758145103077],
            [-1.77794755265331, 52.5757418622094],
            [-1.7779991405885, 52.5751629894747],
            [-1.77664914100166, 52.57456891244],
            [-1.77471005994695, 52.5746003085289],
            [-1.77337322259757, 52.5748872545456],
            [-1.77193251946475, 52.5746948676976],
            [-1.77128261465561, 52.5751134222559],
            [-1.76968817396814, 52.5749827253228],
            [-1.76888355679066, 52.5742567365773],
            [-1.76807764354211, 52.5741406365934],
            [-1.7677237230176, 52.5733867020676],
            [-1.7681994344654, 52.5729884981814],
            [-1.76701653011938, 52.5712269106828],
            [-1.76357709782207, 52.5708528653122],
            [-1.76356332378601, 52.5702527144388],
            [-1.76452852982488, 52.5693808681252],
            [-1.76679231588238, 52.5687272557894],
            [-1.76790224101192, 52.5680749574379],
            [-1.76903483545692, 52.568173324203],
            [-1.77034050116472, 52.5678818726828],
            [-1.77390765657733, 52.565635825922],
            [-1.7742300480517, 52.5646277797796],
            [-1.77015202479335, 52.5635770798794],
            [-1.76691396009666, 52.5616181891718],
            [-1.76691890042253, 52.5598543306463],
            [-1.76773126467406, 52.5588059138301],
            [-1.76629347310924, 52.5578861250382],
            [-1.76533972140962, 52.5566768875685],
            [-1.76342400037978, 52.5566191845397],
            [-1.75995258315033, 52.5556683100228],
            [-1.75781299802624, 52.5555714198885],
            [-1.75639975933876, 52.555879598915],
            [-1.75575966440478, 52.5547877599087],
            [-1.75357675972706, 52.5453024351312],
            [-1.7521059440183, 52.5438411755911],
            [-1.74642783211678, 52.5417130608161],
            [-1.74899304746964, 52.5412617400445],
            [-1.74836112640124, 52.5365208676522],
            [-1.75091450605661, 52.5362780790967],
            [-1.75041157427796, 52.5339720109139],
            [-1.74908599922833, 52.53142236338],
            [-1.74685335384251, 52.5313151920976],
            [-1.7435270398998, 52.5326934189353],
            [-1.74234690692832, 52.5313055479354],
            [-1.73942151465685, 52.5319114221689],
            [-1.73867024604816, 52.5290851050155],
            [-1.73975501172586, 52.5291198312261],
            [-1.73882295998834, 52.5287059882416],
            [-1.73691624022167, 52.5290794530603],
            [-1.73157066738197, 52.5277171744203],
            [-1.73082132991798, 52.5258814994981],
            [-1.73041846122037, 52.5259606675744],
            [-1.72885044838865, 52.5244674365534],
            [-1.72958544010516, 52.5243081401902],
            [-1.73028930847506, 52.5233347790512],
            [-1.73091633527985, 52.5231128130859],
            [-1.73182531733656, 52.5229604112348],
            [-1.73378523215328, 52.523483369494],
            [-1.73482603720175, 52.5234290668082],
            [-1.73622924643451, 52.5226139554681],
            [-1.73774923421579, 52.5222919562805],
            [-1.73876023471672, 52.5216217356761],
            [-1.74163655811635, 52.5207298791276],
            [-1.74386832903245, 52.520641220291],
            [-1.74582290579337, 52.5200700211984],
            [-1.74690456289991, 52.5201001813962],
            [-1.74877590684243, 52.5206944144317],
            [-1.7513407447763, 52.5205985164749],
            [-1.753810175173, 52.5212131615173],
            [-1.75431911690793, 52.5184758976393],
            [-1.75703898620823, 52.518298021194],
            [-1.75707693385447, 52.5178270631412],
            [-1.75492230979489, 52.5157324423613],
            [-1.75409103220134, 52.5157765710905],
            [-1.75325738991496, 52.5141153096739],
            [-1.75393386396951, 52.5138299135451],
            [-1.75351881384396, 52.5129615055519],
            [-1.74755593212168, 52.5103225946155],
            [-1.74516923726312, 52.5086192948996],
            [-1.74307904933239, 52.5065016913203],
            [-1.73321302769397, 52.4921489164017],
            [-1.73308021745514, 52.491961588026],
            [-1.72998847417421, 52.4888648010448],
            [-1.72252682735316, 52.4826804133001],
            [-1.71902896173267, 52.480477729409],
            [-1.71480155580575, 52.4786561557386],
            [-1.71527279230539, 52.4784172254482],
            [-1.72227852326947, 52.474868296253],
            [-1.72517334280272, 52.4712628135491],
            [-1.72616146903168, 52.4716732122196],
            [-1.72718968774988, 52.4703720143778],
            [-1.73438134252016, 52.4690567493845],
            [-1.73556263462219, 52.4701768938789],
            [-1.73132199286986, 52.4713073863731],
            [-1.73759648639895, 52.4774588812348],
            [-1.73873975694707, 52.4778317745409],
            [-1.74241476583206, 52.4745449649048],
            [-1.74660125891512, 52.4720906809128],
            [-1.74871154248203, 52.4737726730084],
            [-1.74858739121146, 52.4748899100426],
            [-1.75039792207311, 52.4744378823745],
            [-1.75120130788016, 52.473724886152],
            [-1.7532315330793, 52.4732059692318],
            [-1.75392941504471, 52.4724234461261],
            [-1.75580346600127, 52.4719022751191],
            [-1.75669170309456, 52.4715391214786],
            [-1.75932352521777, 52.4689535951868],
            [-1.75872949244421, 52.4672181706716],
            [-1.75994967242564, 52.4669878732604],
            [-1.76171649976253, 52.4671792761974],
            [-1.76374773869409, 52.4661189619919],
            [-1.76337862439142, 52.4638464756309],
            [-1.75497780141399, 52.4562841007794],
            [-1.75960051292333, 52.4519109576989],
            [-1.76139223116363, 52.450923001499],
            [-1.7627665732461, 52.451195386458],
            [-1.76667532829702, 52.4510890145534],
            [-1.76666103142904, 52.4507392865281],
            [-1.76901485324649, 52.4511025900358],
            [-1.77247781479673, 52.4507173574859],
            [-1.77333566259662, 52.4510066893996],
            [-1.77438349116316, 52.4506796632091],
            [-1.7774781723753, 52.4506315971772],
            [-1.77795123821377, 52.4501883293342],
            [-1.77910650582978, 52.4501536420194],
            [-1.77913012945202, 52.4504287906219],
            [-1.78145382024471, 52.4506704604135],
            [-1.78163891399044, 52.4510492613604],
            [-1.78245528517338, 52.4511010939692],
            [-1.78270372256494, 52.4508596997216],
            [-1.7889805112826, 52.4530960613549],
            [-1.78942064920775, 52.4527723112861],
            [-1.79028343117725, 52.4529734521899],
            [-1.79050250719387, 52.4526996347521],
            [-1.7913077176073, 52.4529662749821],
            [-1.79090609992385, 52.4532541510658],
            [-1.7939884627725, 52.4543005636763],
            [-1.79482511275738, 52.4551003647619],
            [-1.79529226136584, 52.4552557565303],
            [-1.79568316993517, 52.4550514294493],
            [-1.79874353911794, 52.457469602443],
            [-1.79803928121913, 52.4579494076066],
            [-1.80376742978743, 52.4608699597099],
            [-1.80617398236629, 52.4628579746052],
            [-1.80803954171587, 52.4650851166386],
            [-1.80933356314641, 52.4671054993484],
            [-1.80998540575187, 52.4667981905318],
            [-1.81421710390675, 52.4675753012886],
            [-1.82016321604968, 52.4677769001742],
            [-1.82084201116432, 52.4684737312082],
            [-1.82302619642578, 52.4681704565892],
            [-1.824020862062, 52.4690179194416],
            [-1.82554814042613, 52.4688196716371],
            [-1.82566239968872, 52.4693637539889],
            [-1.82671318825628, 52.4697841973476],
            [-1.82711468095295, 52.4695069855688],
            [-1.82751293546033, 52.4696874026501],
            [-1.82752022473978, 52.4696905588431],
            [-1.82865049802573, 52.4701798537887],
            [-1.82800694740523, 52.4706230761874],
            [-1.82870480885035, 52.4709836711843],
            [-1.82936023334456, 52.470513590349],
            [-1.82967598524571, 52.4706901970801],
            [-1.8291246697903, 52.4712638742659],
            [-1.83116689103393, 52.4723428582716],
            [-1.8320606671246, 52.4726848397871],
            [-1.83253248621905, 52.4721039364962],
            [-1.83554758552937, 52.4728587828274],
            [-1.83854034674052, 52.4741430533664],
            [-1.83793030345387, 52.4746969203794],
            [-1.84041009580123, 52.4757889226729],
            [-1.84170980751422, 52.4758626538575],
            [-1.83985082184849, 52.4761324748995],
            [-1.84131272076529, 52.4786156713748],
            [-1.84729853441589, 52.4780158070783],
            [-1.84737854976427, 52.4783296588472],
            [-1.84666266318871, 52.4784007237607],
            [-1.84783048025841, 52.4830553441457],
            [-1.84864958316571, 52.4829665187655],
            [-1.84893602586516, 52.4835997742009],
            [-1.86690091445404, 52.4821558413978],
            [-1.87904915328368, 52.4815162428475],
            [-1.88561552732562, 52.4806364535708],
            [-1.89204970905803, 52.4789793096135],
            [-1.89279992802622, 52.4792371252707],
            [-1.89336253579702, 52.4785589039928],
            [-1.89154659548615, 52.4781518227713],
            [-1.89285298727848, 52.4767676031012],
            [-1.89635223369488, 52.4762916123461],
            [-1.89687164373573, 52.476455639767],
            [-1.90041744850276, 52.4748917279627],
            [-1.89961462676255, 52.4738023974976],
            [-1.89958985490047, 52.4729986294957],
            [-1.8999714335903, 52.4702614682876],
            [-1.90122772251396, 52.4673300124461],
            [-1.90120855694736, 52.4673255022786],
            [-1.90237438619995, 52.464659180115],
            [-1.90421284226037, 52.4625605924283],
            [-1.90337284430503, 52.4623342318775],
            [-1.9038185064317, 52.4617988549064]
          ]
        ]
      }
    }
  ]
}
