{"type":"FeatureCollection","features":[{"type":"Feature","properties":{"db_school_name":"The Chalk Hills Academy","urn":"135337","n_samples":132,"margin_m":127.6},"geometry":{"type":"Polygon","coordinates":[[[-0.4954242033870288,51.89769028315546],[-0.4961478961301794,51.896239087506636],[-0.499807906101467,51.8978309804946],[-0.5009023167064466,51.898319396563],[-0.5004488183905609,51.899189137918626],[-0.5009023167064467,51.898319396563],[-0.501612301213305,51.8986362500729],[-0.5024253662673875,51.89898694379898],[-0.5021600134535663,51.89972708662249],[-0.5024253662673879,51.89898694379899],[-0.505615934717473,51.9003631096205],[-0.505553801710902,51.9004405239234],[-0.5056604076494194,51.90049016933132],[-0.5056375511329587,51.900644255449194],[-0.5056108942559936,51.90075067566742],[-0.50491402696575,51.9010591167357],[-0.503023505734775,51.9018326909202],[-0.5024951480280951,51.90204429567194],[-0.5017276973508923,51.9001184520558],[-0.5024951480280945,51.90204429567194],[-0.50180507179056,51.9023206679271],[-0.5013368723132562,51.90251107095981],[-0.5008326555750205,51.901095627578144],[-0.5013368723132552,51.90251107095981],[-0.5002530222240671,51.90295184108875],[-0.49926747358774554,51.90083462973827],[-0.5002530222240655,51.90295184108875],[-0.49934165746084985,51.90332246648077],[-0.49880241447610063,51.90227952848317],[-0.4993416574608498,51.90332246648077],[-0.498685524520247,51.903589296556],[-0.497954782129875,51.9038838989603],[-0.497775135666115,51.9039517214656],[-0.49765856500578,51.9040041688348],[-0.497529774268188,51.9040744379969],[-0.497272814786636,51.9042357490159],[-0.49727078559042587,51.90423695453877],[-0.49693592344154586,51.90324946925517],[-0.4972707855904248,51.90423695453877],[-0.497207639823225,51.9042744687356],[-0.496295557430533,51.9048158315339],[-0.495083589250593,51.9054998765867],[-0.49456926564813436,51.90579035856333],[-0.49416330044442974,51.904421680250245],[-0.49456926564813425,51.90579035856333],[-0.494070090597211,51.9060722848735],[-0.494046758228838,51.9060746830793],[-0.493471436367061,51.906137153126],[-0.493385003628102,51.9061483766315],[-0.493331331244614,51.9061536244009],[-0.49330292673296033,51.90615622677912],[-0.4929468845304528,51.90427228095194],[-0.4933029267329599,51.90615622677912],[-0.493240048703197,51.9061619875687],[-0.493148614796325,51.9061705285598],[-0.49304268385472,51.9061822108542],[-0.49290963502459,51.9061962434841],[-0.492798648246365,51.906206961695],[-0.492673491131161,51.9062197463206],[-0.492549508462932,51.9062321861823],[-0.492417203936592,51.9062456882824],[-0.492285613824208,51.9062595590421],[-0.492129654530441,51.9062761747617],[-0.491846375276863,51.9063006908595],[-0.491807881658842,51.9063084701276],[-0.491762669982356,51.9063128364573],[-0.491600147253922,51.9063300867328],[-0.491522999684083,51.9063384138097],[-0.491521215314595,51.9063386067507],[-0.491508327165669,51.9063067733207],[-0.491494901805018,51.9062736202376],[-0.491481937738948,51.9062440517102],[-0.491475853963143,51.906230396495],[-0.491462185105634,51.9062045054845],[-0.491436614635984,51.9061477108143],[-0.491413385491342,51.9060991284685],[-0.491394587753328,51.9060614557219],[-0.491388049116085,51.9060483611451],[-0.491368263503905,51.9060098035565],[-0.491345008000118,51.9059663460606],[-0.491320423056417,51.905919184982],[-0.491301939920833,51.9058851398587],[-0.491275759701541,51.9058378684186],[-0.491262539683112,51.9058159394321],[-0.491248581081939,51.905794360645],[-0.491224912208802,51.9057589003363],[-0.491211432376502,51.9057403848155],[-0.491197489501642,51.9057226726029],[-0.491152757222049,51.90566509288],[-0.491131438235406,51.9056406233952],[-0.491125180881061,51.9056334488675],[-0.491093184484443,51.9055992305738],[-0.491057545837808,51.9055609193935],[-0.491011752716011,51.90551330668],[-0.490984286471857,51.9054861868114],[-0.490903267327869,51.9054061756019],[-0.490767727578447,51.9052692053466],[-0.490744612696076,51.9052519150351],[-0.490722407351523,51.9052433474155],[-0.489034848572006,51.905756904913],[-0.486510080944815,51.9065246834047],[-0.484948698627757,51.907000079145],[-0.482276166347529,51.9077947218209],[-0.4822054413852278,51.90821235353683],[-0.4809336492239889,51.90729130031551],[-0.4805956407193692,51.90721976871183],[-0.4805218751535584,51.90717555533319],[-0.48050346008151124,51.907161897784945],[-0.48000847135316976,51.906072584617604],[-0.4793244995344367,51.90528438967834],[-0.4790088646113612,51.9033434947881],[-0.4785040198627474,51.90247631471616],[-0.47843756069657106,51.9024593466308],[-0.47711101275635714,51.9023699144467],[-0.47659876172876187,51.90250664676049],[-0.47534116126700193,51.90127936030998],[-0.4725132978432852,51.900745781260255],[-0.47208553096948425,51.90052755852867],[-0.47207584331654995,51.900462249677496],[-0.47206286647502693,51.9001981],[-0.4720661438190813,51.9001313881292],[-0.4720668820554978,51.90013123455784],[-0.4720181060747989,51.900028106411334],[-0.4719290094078363,51.89977909790852],[-0.4718647488670412,51.899522555449195],[-0.4718400139725207,51.89935580633504],[-0.4730907390120943,51.8977567159346],[-0.4718385180077437,51.89935771897198],[-0.4718099496774961,51.89936195668346],[-0.4715458,51.899374933524975],[-0.4712816503225039,51.89936195668346],[-0.471020044550801,51.89932315113296],[-0.470763502091481,51.899258890592165],[-0.4705144935886676,51.8991697939252],[-0.47027541713036475,51.89905671918168],[-0.4700485751535584,51.898920755333194],[-0.46983615227048964,51.898763211785926],[-0.4696401942296446,51.89858560577036],[-0.46946258821407816,51.898389647729516],[-0.46930504466680956,51.89817722484644],[-0.46916908081832104,51.89795038286964],[-0.4690560060747989,51.89771130641134],[-0.4689669094078363,51.897462297908525],[-0.46890264886704125,51.8972057554492],[-0.46886384331654996,51.8969441496775],[-0.46885086647502694,51.89668],[-0.46886384331654996,51.896415850322505],[-0.46890264886704125,51.89615424455081],[-0.4689669094078363,51.89589770209148],[-0.4689875678971937,51.895839965481564],[-0.4689877088584617,51.895839930040424],[-0.46893869422964457,51.89579550577035],[-0.46876108821407814,51.89559954772951],[-0.46860354466680954,51.89538712484644],[-0.468467580818321,51.89516028286963],[-0.4684287030568631,51.89507808274937],[-0.4698145364035913,51.89281318770475],[-0.46973851092364605,51.89176438336772],[-0.4687146279753533,51.89108606698301],[-0.46852767846664994,51.890472037402056],[-0.468540232032726,51.88940824990937],[-0.4688671294606993,51.8882745426821],[-0.469070273152505,51.8882749332795],[-0.46942083562123305,51.88827705142442],[-0.47081708600175953,51.8909834398272],[-0.4694208356212347,51.88827705142442],[-0.471916380271705,51.8882921298361],[-0.472439791187976,51.8882827414],[-0.473857385356681,51.8882579777956],[-0.474734516336236,51.8882756357402],[-0.475158031465551,51.8882973004398],[-0.475690403530062,51.8883239694807],[-0.475691841485157,51.8883239880964],[-0.475992866170222,51.8883611440803],[-0.476491828229017,51.888387376109],[-0.477309392167669,51.8884482893797],[-0.477714047403192,51.888471499159],[-0.478557106857316,51.88850486795],[-0.478790934558463,51.8885096873773],[-0.478793778721412,51.8885106223647],[-0.479030480967345,51.888515478451],[-0.479762778275712,51.8885186433111],[-0.480453403500391,51.8885068831747],[-0.481456074175446,51.8884649872428],[-0.4825146527216047,51.88839475537704],[-0.48354012512620687,51.89119703014071],[-0.4825146527216061,51.88839475537704],[-0.483940621083587,51.8883001488701],[-0.483945363326533,51.8885474018821],[-0.484032677789948,51.8888901904204],[-0.484138606521329,51.8896271082669],[-0.484195035508486,51.8898516561254],[-0.484228267760004,51.8899429606445],[-0.484317431244443,51.8901418619519],[-0.484369889986473,51.8902244251939],[-0.484493976860769,51.8903824271541],[-0.484662617045015,51.8906372728904],[-0.484906049036429,51.8910054394374],[-0.484843589027866,51.8913058503633],[-0.484896155627882,51.8913424822506],[-0.486269386567132,51.8919490874378],[-0.48689551019870625,51.89222221434078],[-0.48701370426194535,51.89232933919539],[-0.4870139535274736,51.89232849621938],[-0.48710738304297435,51.89231463725993],[-0.48756706942515,51.8925151611047],[-0.488351887235818,51.8928579169603],[-0.489775600427379,51.8934795180746],[-0.49177597977328275,51.894345200954824],[-0.49126719871171665,51.896621768661454],[-0.49177597977328324,51.894345200954824],[-0.49457102701301703,51.895554783802105],[-0.4944286158784121,51.89598258392545],[-0.49457102701301753,51.895554783802105],[-0.495267975544493,51.8958563948007],[-0.495277973851929,51.8958607215498],[-0.4961478961301787,51.896239087506636],[-0.4954242033870288,51.89769028315546]],[[-0.48204527087278576,51.89936656606951],[-0.48204527087278604,51.89936656606951],[-0.48092103159651145,51.89845009352021],[-0.48204527087278576,51.89936656606951]],[[-0.48205345668345007,51.8994217503225],[-0.4820664335249731,51.8996859],[-0.4820539214645414,51.89994058884104],[-0.4820519082012375,51.89994325089853],[-0.482247102091481,51.89987340940784],[-0.48250364455080097,51.89980914886704],[-0.4827652503225039,51.89977034331655],[-0.4830294,51.89975736647503],[-0.48311148392166264,51.899761398999516],[-0.483279793495061,51.899820527561516],[-0.48311275469118176,51.899761845431485],[-0.48302075227048963,51.89969361178592],[-0.4828247942296446,51.89951600577035],[-0.48264718821407815,51.89932004772951],[-0.4826020892173873,51.89925923877181],[-0.48260111895208113,51.89926228551581],[-0.48234495544919903,51.89932645113296],[-0.4820833496774961,51.89936525668345],[-0.48204592029132626,51.899367095471284],[-0.48204527087278604,51.89936656606951],[-0.48205345668345007,51.8994217503225]]]}},{"type":"Feature","properties":{"db_school_name":"Lealands High School","urn":"109686","n_samples":139,"margin_m":141.5},"geometry":{"type":"Polygon","coordinates":[[[-0.47843756069657106,51.9024593466308],[-0.4785040198627474,51.90247631471616],[-0.4790088646113612,51.9033434947881],[-0.4793244995344367,51.90528438967834],[-0.48000847135316976,51.906072584617604],[-0.48050251957657525,51.907159828031936],[-0.48049107002856506,51.90723701461491],[-0.4796205454286564,51.9081348832934],[-0.4804926599058617,51.90723537479792],[-0.480596558385232,51.907219962914375],[-0.4809336492239889,51.90729130031551],[-0.48220544138522775,51.90821235353683],[-0.482072718284253,51.9089960849748],[-0.482001420813736,51.9096884062412],[-0.4818132168217746,51.91115994040357],[-0.4815273238461314,51.91110265961737],[-0.4818132168217744,51.91115994040357],[-0.481723003426677,51.9118653031932],[-0.481592641213507,51.9127978586463],[-0.481562170081845,51.9128837614654],[-0.481529764782327,51.9129381765806],[-0.481447731129835,51.9130422915267],[-0.481351116896708,51.9131912531279],[-0.4811501888405787,51.913525001792124],[-0.4794963084667611,51.91286601029527],[-0.48115018884057803,51.913525001792124],[-0.481026122006774,51.913731081226],[-0.479738896224116,51.9155531856697],[-0.47923066765121153,51.91628035839198],[-0.4791741649602067,51.916112379863506],[-0.4792306676512115,51.91628035839198],[-0.478805254122727,51.916889039466],[-0.478496583375607,51.9173310016856],[-0.4786134280683239,51.917400902117095],[-0.478409997908519,51.91747369059216],[-0.478153455449199,51.91753795113296],[-0.4778918496774961,51.91757675668345],[-0.4776277,51.91758973352497],[-0.4773635503225039,51.91757675668345],[-0.47710194455080096,51.91753795113296],[-0.47684540209148096,51.91747369059216],[-0.47659639358866757,51.9173845939252],[-0.4763573171303647,51.917271519181675],[-0.4761304751535584,51.91713555533319],[-0.4759180522704896,51.91697801178592],[-0.47572209422964457,51.91680040577035],[-0.47554448821407813,51.91660444772951],[-0.47550138300435274,51.91654632708234],[-0.4755048165407783,51.91655386839932],[-0.47554155668345005,51.9168015503225],[-0.47555453352497307,51.9170657],[-0.47554155668345005,51.9173298496775],[-0.47550275113295876,51.9175914554492],[-0.4754384905921637,51.917847997908524],[-0.4753493939252011,51.91809700641134],[-0.47523631918167897,51.91833608286964],[-0.47510035533319045,51.91856292484644],[-0.47494957008719507,51.918766235215124],[-0.47180671627099857,51.917925150340146],[-0.47494694513347746,51.91876553272974],[-0.47495276386895696,51.918804759458034],[-0.47454299954629126,51.91962468256667],[-0.47495471629908176,51.91880085271826],[-0.47496851713036475,51.91879258081833],[-0.4752075935886676,51.9186795060748],[-0.475456602091481,51.91859040940784],[-0.475713144550801,51.918526148867045],[-0.4759747503225039,51.91848734331655],[-0.4762389,51.91847436647503],[-0.4765030496774961,51.91848734331655],[-0.47676465544919905,51.918526148867045],[-0.47702119790851905,51.91859040940784],[-0.47727020641133244,51.9186795060748],[-0.4775092828696353,51.91879258081833],[-0.4777361248464416,51.91892854466681],[-0.4779485477295104,51.91908608821408],[-0.47814450577035544,51.91926369422965],[-0.4781603256573855,51.919281148785224],[-0.47816023944176606,51.919284184713725],[-0.4782618522704896,51.919192088214075],[-0.4784742751535584,51.91903454466681],[-0.47870111713036473,51.91889858081832],[-0.4789401935886676,51.9187855060748],[-0.47918920209148097,51.918696409407836],[-0.47944574455080097,51.91863214886704],[-0.4797073503225039,51.918593343316545],[-0.4799715,51.91858036647503],[-0.4802356496774961,51.918593343316545],[-0.480497255449199,51.91863214886704],[-0.480753797908519,51.918696409407836],[-0.4808256927181468,51.918722133782055],[-0.4817992229265963,51.91929910533469],[-0.4818771057703554,51.919369694229644],[-0.48205471178592185,51.919565652270485],[-0.48221225533319045,51.91977807515356],[-0.48234821918167897,51.92000491713036],[-0.4824612939252011,51.92024399358866],[-0.4825503905921637,51.920493002091476],[-0.48261465113295876,51.9207495445508],[-0.48265345668345006,51.9210111503225],[-0.48266643352497307,51.9212753],[-0.48265345668345006,51.921539449677496],[-0.48261465113295876,51.921801055449194],[-0.4825503905921637,51.92205759790852],[-0.4824612939252011,51.92230660641133],[-0.48244763148904757,51.92233549320555],[-0.482278240537078,51.9223486852284],[-0.482107472130053,51.9223671591594],[-0.480944500947563,51.9225275372318],[-0.479556255032199,51.9227685045013],[-0.479310411245141,51.9228121626179],[-0.479272724149244,51.9229375245409],[-0.4780602890451481,51.923174721402276],[-0.4780500743426144,51.923163451214776],[-0.4780501605582338,51.923160415286276],[-0.47802724317898465,51.92318118638808],[-0.477936160062098,51.9231990055929],[-0.475751421565599,51.9236850985992],[-0.4752877590329,51.9236772966283],[-0.474491701043683,51.9237335033773],[-0.474490261910161,51.9237334847277],[-0.4739563879697,51.9237382507567],[-0.473216083681879,51.9239111319434],[-0.472653311278372,51.9240819068972],[-0.47194173445381016,51.92410816852746],[-0.471644205435181,51.924119149207],[-0.471105766567705,51.9241310345855],[-0.47051307332470627,51.924166626579265],[-0.4710795810321399,51.923351630956724],[-0.470513073324706,51.924166626579265],[-0.470441189869074,51.9241709432735],[-0.469758527277378,51.9241890382987],[-0.469206625867068,51.9241665812287],[-0.46872090050221,51.9241234085241],[-0.4684308252587415,51.92411632383664],[-0.4686538822497166,51.92149096785806],[-0.46843082525874136,51.92411632383664],[-0.46832708457793,51.9241137901137],[-0.467924489511923,51.924104955689],[-0.466923766282406,51.9241108057511],[-0.466252609747825,51.9240903783597],[-0.465828875386578,51.9241037345471],[-0.464597297264642,51.9239276721285],[-0.463772485418261,51.923764905406],[-0.46282316029341,51.9235919472576],[-0.46277089837834,51.9235849706792],[-0.462715132364572,51.9235783979092],[-0.46266896329045065,51.92357268678005],[-0.46255958979883227,51.92229357022273],[-0.46170401553038765,51.92084928561841],[-0.4620582945701691,51.92031171505966],[-0.46207501605855844,51.92028044852619],[-0.4617648120993393,51.91841624040072],[-0.46186243291864687,51.91824910782611],[-0.460966346579496,51.916905125192706],[-0.46085034319800905,51.916512594253994],[-0.4607119688794656,51.916248366612116],[-0.4607325436070435,51.916192523494495],[-0.4607012045644318,51.91579445301207],[-0.4597104849624151,51.91470860576677],[-0.4597078273043332,51.91461033185419],[-0.4601515725920386,51.91368503338431],[-0.46051248144057877,51.9133872373139],[-0.4609159833265847,51.912407763002314],[-0.4612825630641005,51.91172913847988],[-0.46136545032250387,51.91171684331655],[-0.4616296,51.91170386647503],[-0.4618937496774961,51.91171684331655],[-0.4620547056891238,51.91174071888548],[-0.4620547818643008,51.91174090582938],[-0.4621332882140781,51.91163505227049],[-0.46231089422964455,51.91143909422965],[-0.4625068522704896,51.91126148821408],[-0.4627192751535584,51.91110394466681],[-0.4629461171303647,51.91096798081833],[-0.46318519358866755,51.9108549060748],[-0.46343420209148095,51.91076580940784],[-0.4635655270209322,51.91073291422546],[-0.46356333112659415,51.9107316507125],[-0.4635075488670412,51.910508955449195],[-0.4634687433165499,51.9102473496775],[-0.46346192106052836,51.91010847946592],[-0.4652539046112728,51.90909122946047],[-0.46345923368974523,51.91011000499775],[-0.4634504751535584,51.91010475533319],[-0.46323805227048964,51.90994721178592],[-0.4630420942296446,51.90976960577035],[-0.46286448821407816,51.90957364772951],[-0.46270694466680956,51.909361224846435],[-0.46257098081832104,51.90913438286963],[-0.4624579060747989,51.90889530641133],[-0.46243932574644425,51.90884337787233],[-0.46243971316090793,51.908843088492624],[-0.46238055227048963,51.908799211785926],[-0.4621845942296446,51.90862160577036],[-0.4621323206968666,51.90856393081471],[-0.46213213997558933,51.90856498372838],[-0.4619340064113324,51.9086586939252],[-0.461684997908519,51.90874779059216],[-0.461428455449199,51.908812051132955],[-0.4611668496774961,51.90885085668345],[-0.4609027,51.90886383352497],[-0.4606385503225039,51.90885085668345],[-0.46037694455080097,51.908812051132955],[-0.46024906340431376,51.9087800185733],[-0.4602492520711139,51.90878144300039],[-0.4602085828696353,51.90880581918167],[-0.45996950641133244,51.9089188939252],[-0.45972049790851904,51.90900799059216],[-0.45946395544919905,51.909072251132955],[-0.4592023496774961,51.90911105668345],[-0.4591801029393686,51.909112149595614],[-0.4588736750698779,51.909050310765146],[-0.4581755054651129,51.90577312078899],[-0.4582251158181054,51.905636686532574],[-0.45817257307918424,51.90514343196799],[-0.45916253197533674,51.90443454133946],[-0.46034452229122924,51.90520420570205],[-0.4613700090914281,51.904878112169754],[-0.4619881166003039,51.90413583931773],[-0.4619305107872272,51.90363261965847],[-0.46315467356097506,51.90289381103849],[-0.4647382508567131,51.902615434723586],[-0.46567338029465366,51.90078974446705],[-0.4660749850822253,51.900644237686144],[-0.46633564967749613,51.90065704331655],[-0.46659725544919906,51.900695848867045],[-0.4668072879478379,51.900748459269174],[-0.46762799449509157,51.90359140252568],[-0.4668077098330333,51.900749920687595],[-0.4669048942296446,51.900642694229646],[-0.46710085227048964,51.90046508821408],[-0.4673132751535584,51.90030754466681],[-0.46754011713036475,51.90017158081832],[-0.4677791935886676,51.9000585060748],[-0.468028202091481,51.89996940940784],[-0.468284744550801,51.89990514886704],[-0.4685463503225039,51.899866343316546],[-0.4688105,51.89985336647503],[-0.4690746496774961,51.899866343316546],[-0.46933625544919905,51.89990514886704],[-0.46959279790851904,51.89996940940784],[-0.46984180641133244,51.9000585060748],[-0.4700808828696353,51.90017158081832],[-0.4703077248464416,51.90030754466681],[-0.4705201477295104,51.90046508821408],[-0.47071610577035544,51.900642694229646],[-0.4708937117859219,51.90083865227049],[-0.4710512553331905,51.90105107515356],[-0.47113447969610855,51.901189926614535],[-0.47092085625964725,51.901744848734985],[-0.47113526233310116,51.90118789358583],[-0.471165402091481,51.90117710940784],[-0.47134315856938497,51.901132583728035],[-0.4713428578134158,51.90113208694239],[-0.4714817942296446,51.900978794229644],[-0.47167775227048964,51.900801188214075],[-0.4718901751535584,51.90064364466681],[-0.47208462460377365,51.900527096151585],[-0.4725132978432852,51.900745781260255],[-0.47534116126700193,51.90127936030998],[-0.47659876172876187,51.90250664676049],[-0.47711101275635714,51.9023699144467],[-0.47843756069657106,51.9024593466308]]]}},{"type":"Feature","properties":{"db_school_name":"Icknield High School","urn":"137679","n_samples":152,"margin_m":164.4},"geometry":{"type":"Polygon","coordinates":[[[-0.44617003425056756,51.89931167646586],[-0.4482755387019225,51.89896059991108],[-0.44809663297053565,51.90049163953863],[-0.4485021574565674,51.901182153998725],[-0.450521646762496,51.90026895863529],[-0.45115977256197554,51.900714046379434],[-0.4511811625751779,51.90093156957559],[-0.45268301178845904,51.90134022659741],[-0.4530191091558126,51.902050409585016],[-0.4542811721481452,51.90210127160816],[-0.4548025483364731,51.90167474170212],[-0.45654543782520934,51.901891897835824],[-0.4566107795497473,51.902009449306334],[-0.45665213489810275,51.903218837514835],[-0.45656079764714946,51.903619387823774],[-0.45687026915050655,51.90445597860132],[-0.45817257307918424,51.90514343196799],[-0.4582251158181054,51.905636686532574],[-0.4581755054651129,51.90577312078899],[-0.4588736750698779,51.909050310765146],[-0.45662445494045184,51.90912992503726],[-0.45647601713036473,51.90905971918168],[-0.4562491751535584,51.90892375533319],[-0.45620229983797866,51.908888990229784],[-0.456202281163781,51.90888775538378],[-0.45613786633137476,51.90893552867942],[-0.4559017501753892,51.908923160186],[-0.4542873262971753,51.90782881916788],[-0.45222898373417486,51.907866276935685],[-0.4522173677136045,51.9078745122052],[-0.4512840953148895,51.90761848279036],[-0.4506913179423152,51.906883331572416],[-0.44909756147224583,51.906559759251174],[-0.44862725378521945,51.90680609979161],[-0.4478211727138832,51.90663129319284],[-0.44765835042802765,51.90646065549446],[-0.44580956328275706,51.905790577182415],[-0.44494619576385774,51.90800568346102],[-0.44445435715262116,51.908265563251234],[-0.444363604212484,51.90828500555389],[-0.44363820296643747,51.90808053288228],[-0.44274826968425673,51.90834318562782],[-0.4416535910662074,51.90931788332068],[-0.4414530193034772,51.90933551016933],[-0.43927824623085093,51.911172716485126],[-0.43927573788804974,51.91119391548651],[-0.4390259610774293,51.91159292452938],[-0.43891547440611367,51.91172806842577],[-0.43885496337992225,51.91174467298305],[-0.4368289749557704,51.912704228622474],[-0.43571406846942734,51.912301344291436],[-0.43510530622167887,51.91377348747712],[-0.43443184915635413,51.91366216228635],[-0.43326740756205057,51.914969848102274],[-0.4333495880888431,51.91550013370379],[-0.4340471037187426,51.916103886775126],[-0.4340789039890985,51.91746242390636],[-0.43154964265047563,51.91819874635597],[-0.4311654882668126,51.91841795885389],[-0.43130618951101063,51.91974365952866],[-0.4295077456517469,51.92116160960884],[-0.42902954209215377,51.921368232477434],[-0.42860858544756997,51.92140350752798],[-0.42691252111987066,51.92370008728816],[-0.4267374496774961,51.923726056683456],[-0.4264733,51.923739033524974],[-0.42624841820076204,51.92372798579061],[-0.4262490464237339,51.92372840375832],[-0.4263495939252011,51.923940993588666],[-0.4264386905921637,51.92419000209148],[-0.4265029511329588,51.924446544550804],[-0.42654175668345007,51.9247081503225],[-0.4265547335249731,51.9249723],[-0.42654175668345007,51.9252364496775],[-0.4265029511329588,51.9254980554492],[-0.4264386905921637,51.92575459790852],[-0.4263495939252011,51.926003606411335],[-0.426236519181679,51.926242682869635],[-0.42610055533319047,51.92646952484644],[-0.4259531772008572,51.926668241254156],[-0.425783387428799,51.9266276942784],[-0.424991819566474,51.9263877851316],[-0.424605885101013,51.9263205926259],[-0.424264969512772,51.9262108525913],[-0.423888447087393,51.926289410113],[-0.421681634403011,51.9256807370477],[-0.421712600374679,51.9250885813162],[-0.421818628686309,51.9245550544251],[-0.422038193421069,51.9240184664965],[-0.422088211862149,51.9238779166988],[-0.422129478958213,51.9237373394249],[-0.422182537214143,51.9234691827852],[-0.422194931518829,51.9233210265858],[-0.422192476073903,51.922895623924],[-0.4221961242047051,51.922854993103954],[-0.4223625751535584,51.92273154466681],[-0.42238578408677097,51.92271763376759],[-0.42393189575636525,51.92277952337323],[-0.42238838547178614,51.922717737898935],[-0.4223256522704896,51.922671211785925],[-0.42222113119229665,51.9225764794026],[-0.422225939236655,51.9225229301206],[-0.422317256648494,51.9217419123569],[-0.42235361559297,51.9212046642438],[-0.422364584067237,51.9205196522133],[-0.422458287098636,51.9201693404799],[-0.422098796686815,51.9200952106425],[-0.422095591068925,51.9198551547458],[-0.421802649102729,51.9191695700368],[-0.421586730907208,51.9186910519532],[-0.421521103322837,51.9185318701409],[-0.42144299453678136,51.918340828130106],[-0.42251791239487413,51.91712963235079],[-0.4214429945367811,51.918340828130106],[-0.421351069126842,51.9181159927941],[-0.421240803063339,51.9177359748486],[-0.421175765446619,51.9175156742441],[-0.421162938659409,51.9174534827417],[-0.421117369869305,51.9172325380111],[-0.421082300634397,51.9169479195211],[-0.421069949153654,51.9163894405912],[-0.42107346454503,51.9162078181298],[-0.421087530232278,51.9159750991613],[-0.421077419219483,51.9158059683696],[-0.421057512881092,51.9156698754329],[-0.421027386947027,51.9155346343278],[-0.420993436304461,51.9154263087909],[-0.42092390140477,51.9152526941948],[-0.420720634174433,51.9147914296295],[-0.420457071892643,51.9142654425945],[-0.420421043184292,51.9142128211704],[-0.4203489744021,51.9141146806625],[-0.420242959511899,51.9139865103329],[-0.420108769711308,51.9138345883002],[-0.419969866812706,51.9136906044583],[-0.419781426854012,51.9135099968725],[-0.419500200544565,51.91311510069],[-0.419360259820755,51.9129190546139],[-0.419064998588213,51.9123036442819],[-0.418981451118123,51.912320499642],[-0.418921173241971,51.9123403635978],[-0.418820359495328,51.9123947400472],[-0.418338717063686,51.9127784790727],[-0.41812404108260415,51.9126965860847],[-0.4180359659851757,51.90924280109894],[-0.4182804664844111,51.908425857813214],[-0.4181576066267375,51.90774837472381],[-0.41799738592549845,51.90759190484069],[-0.41728084787948366,51.907121306110746],[-0.41707889398058523,51.90689427323596],[-0.41646944102617833,51.90607889510056],[-0.4164017094078363,51.90588959790852],[-0.4163374488670412,51.905633055449194],[-0.4162986433165499,51.905371449677496],[-0.4162856664750269,51.9051073],[-0.4162986433165499,51.9048431503225],[-0.4163374488670412,51.9045815445508],[-0.4164017094078363,51.904325002091475],[-0.4164381482782833,51.90422316227094],[-0.4178223250265828,51.90374326925053],[-0.4198099270755193,51.9041694302111],[-0.4201672151490649,51.90413662581527],[-0.42023637275754894,51.9040809642807],[-0.42096342983261015,51.90392823704242],[-0.42190735261872797,51.90207235303646],[-0.42239238914560406,51.90200271316042],[-0.4234788618790078,51.90116780458933],[-0.42370335860575387,51.900341637609756],[-0.42230747085621345,51.89873814882426],[-0.4212414090135465,51.897997075349345],[-0.4212387488670412,51.8979864554492],[-0.4211999433165499,51.8977248496775],[-0.4211869664750269,51.8974607],[-0.4211999433165499,51.897196550322505],[-0.4212387488670412,51.89693494455081],[-0.42130300940783627,51.89667840209148],[-0.4213921060747989,51.89642939358867],[-0.421505180818321,51.89619031713037],[-0.4216411446668095,51.895963475153565],[-0.4217986882140781,51.89575105227049],[-0.42197629422964456,51.89555509422965],[-0.4221722522704896,51.89537748821408],[-0.4223846751535584,51.89521994466681],[-0.4226115171303647,51.89508398081833],[-0.42285059358866756,51.8949709060748],[-0.42309960209148095,51.89488180940784],[-0.42335614455080095,51.894817548867046],[-0.42361775032250387,51.89477874331655],[-0.4238819,51.89476576647503],[-0.4241460496774961,51.89477874331655],[-0.424407655449199,51.894817548867046],[-0.424664197908519,51.89488180940784],[-0.4249132064113324,51.8949709060748],[-0.42515228286963525,51.89508398081833],[-0.4253791248464416,51.89521994466681],[-0.42559154772951036,51.89537748821408],[-0.4257875057703554,51.89555509422965],[-0.42596511178592183,51.89575105227049],[-0.42612265533319044,51.895963475153565],[-0.4262467223487333,51.89617046846374],[-0.42628806400079444,51.896890364036764],[-0.42668255545611844,51.898377924171584],[-0.42782418507637854,51.89918204085137],[-0.42799240976435476,51.89953887707582],[-0.42964373285158847,51.900934862499376],[-0.42965439015775136,51.90096603406037],[-0.43179275793320987,51.90183537826925],[-0.43253364344835615,51.90144389357252],[-0.4331365649766688,51.90089974205647],[-0.43440663401713114,51.90171959508264],[-0.4353046396908923,51.90185589071482],[-0.436529856142514,51.900321472678954],[-0.43596864250025186,51.89868772838762],[-0.4366318598593111,51.89787109242833],[-0.43709822818454597,51.89783433386306],[-0.43837364573195964,51.897999278495135],[-0.43877323969457005,51.89796012570323],[-0.4398100624798042,51.896242754832784],[-0.439731552734375,51.89458969193648],[-0.44068969023409166,51.89435948248623],[-0.44200303314637474,51.89488951990378],[-0.4430369069958554,51.895081517084236],[-0.44449651053686995,51.89643530824627],[-0.4445036335249731,51.8965803],[-0.4444944652515681,51.89676692449247],[-0.444435563661884,51.89690473281929],[-0.44435226946539036,51.89732266222498],[-0.44617003425056756,51.89931167646586]],[[-0.44247987083219,51.90037339988926],[-0.44234691687788713,51.901336760568185],[-0.442480284636772,51.90037040153494],[-0.4425489161477667,51.90027786265482],[-0.4425490656774106,51.900277763723516],[-0.4424558470861002,51.90030111376509],[-0.44245355407933046,51.90029984949224],[-0.44247987083219,51.90037339988926]],[[-0.4236073868221618,51.905101650295094],[-0.42342671514572316,51.905406017878995],[-0.42395086616186534,51.90677631616446],[-0.42629229594710355,51.90610830407875],[-0.4236073868221618,51.905101650295094]]]}}]}