{
  "type": "FeatureCollection",
  "features": [
    {
      "type": "Feature",
      "properties": {
        "db_school_name": "Parklea Primary School",
        "urn": "109556",
        "n_samples": 64,
        "margin_m": 148.7
      },
      "geometry": {
        "type": "Polygon",
        "coordinates": [
          [
            [-0.4730399940714719, 51.912754063756786],
            [-0.4736177561408363, 51.913758211820976],
            [-0.4751373412220815, 51.91532789744877],
            [-0.47520780322474676, 51.91590151721218],
            [-0.4755048165407783, 51.91655386839932],
            [-0.47554155668345005, 51.9168015503225],
            [-0.47555453352497307, 51.9170657],
            [-0.47554155668345005, 51.9173298496775],
            [-0.47550275113295876, 51.9175914554492],
            [-0.4754384905921637, 51.917847997908524],
            [-0.4753493939252011, 51.91809700641134],
            [-0.47523631918167897, 51.91833608286964],
            [-0.47510035533319045, 51.91856292484644],
            [-0.47494957008719507, 51.918766235215124],
            [-0.47180671627099857, 51.917925150340146],
            [-0.47494694513347746, 51.91876553272974],
            [-0.47495276386895696, 51.918804759458034],
            [-0.47454299954629126, 51.91962468256667],
            [-0.47495471629908176, 51.91880085271826],
            [-0.47496851713036475, 51.91879258081833],
            [-0.4752075935886676, 51.9186795060748],
            [-0.475456602091481, 51.91859040940784],
            [-0.475713144550801, 51.918526148867045],
            [-0.4759747503225039, 51.91848734331655],
            [-0.4762389, 51.91847436647503],
            [-0.4765030496774961, 51.91848734331655],
            [-0.47676465544919905, 51.918526148867045],
            [-0.47702119790851905, 51.91859040940784],
            [-0.47727020641133244, 51.9186795060748],
            [-0.4775092828696353, 51.91879258081833],
            [-0.4777361248464416, 51.91892854466681],
            [-0.4779485477295104, 51.91908608821408],
            [-0.47814450577035544, 51.91926369422965],
            [-0.4781603256573855, 51.919281148785224],
            [-0.47816023944176606, 51.919284184713725],
            [-0.4782618522704896, 51.919192088214075],
            [-0.4784742751535584, 51.91903454466681],
            [-0.47870111713036473, 51.91889858081832],
            [-0.4789401935886676, 51.9187855060748],
            [-0.47918920209148097, 51.918696409407836],
            [-0.47944574455080097, 51.91863214886704],
            [-0.4797073503225039, 51.918593343316545],
            [-0.4799715, 51.91858036647503],
            [-0.4802356496774961, 51.918593343316545],
            [-0.480497255449199, 51.91863214886704],
            [-0.480753797908519, 51.918696409407836],
            [-0.4808256927181468, 51.918722133782055],
            [-0.4817992229265963, 51.91929910533469],
            [-0.4818771057703554, 51.919369694229644],
            [-0.48205471178592185, 51.919565652270485],
            [-0.48221225533319045, 51.91977807515356],
            [-0.48234821918167897, 51.92000491713036],
            [-0.4824612939252011, 51.92024399358866],
            [-0.4825503905921637, 51.920493002091476],
            [-0.48261465113295876, 51.9207495445508],
            [-0.48265345668345006, 51.9210111503225],
            [-0.48266643352497307, 51.9212753],
            [-0.48265345668345006, 51.921539449677496],
            [-0.48261465113295876, 51.921801055449194],
            [-0.4825503905921637, 51.92205759790852],
            [-0.4824612939252011, 51.92230660641133],
            [-0.48244763148904757, 51.92233549320555],
            [-0.482278240537078, 51.9223486852284],
            [-0.482107472130053, 51.9223671591594],
            [-0.480944500947563, 51.9225275372318],
            [-0.479556255032199, 51.9227685045013],
            [-0.479310411245141, 51.9228121626179],
            [-0.479272724149244, 51.9229375245409],
            [-0.4780602890451481, 51.923174721402276],
            [-0.4780500743426144, 51.923163451214776],
            [-0.4780501605582338, 51.923160415286276],
            [-0.47802724317898465, 51.92318118638808],
            [-0.477936160062098, 51.9231990055929],
            [-0.475751421565599, 51.9236850985992],
            [-0.4752877590329, 51.9236772966283],
            [-0.474491701043683, 51.9237335033773],
            [-0.474490261910161, 51.9237334847277],
            [-0.4739563879697, 51.9237382507567],
            [-0.473216083681879, 51.9239111319434],
            [-0.472653311278372, 51.9240819068972],
            [-0.47194173445381016, 51.92410816852746],
            [-0.471644205435181, 51.924119149207],
            [-0.471105766567705, 51.9241310345855],
            [-0.47051307332470627, 51.924166626579265],
            [-0.4710795810321399, 51.923351630956724],
            [-0.470513073324706, 51.924166626579265],
            [-0.470441189869074, 51.9241709432735],
            [-0.469758527277378, 51.9241890382987],
            [-0.469206625867068, 51.9241665812287],
            [-0.46872090050221, 51.9241234085241],
            [-0.4684308252587415, 51.92411632383664],
            [-0.4686538822497166, 51.92149096785806],
            [-0.46843082525874136, 51.92411632383664],
            [-0.46832708457793, 51.9241137901137],
            [-0.467924489511923, 51.924104955689],
            [-0.466923766282406, 51.9241108057511],
            [-0.466252609747825, 51.9240903783597],
            [-0.465828875386578, 51.9241037345471],
            [-0.464597297264642, 51.9239276721285],
            [-0.463772485418261, 51.923764905406],
            [-0.46282316029341, 51.9235919472576],
            [-0.46277089837834, 51.9235849706792],
            [-0.462715132364572, 51.9235783979092],
            [-0.46266896329045065, 51.92357268678005],
            [-0.46255958979883227, 51.92229357022273],
            [-0.46170401553038765, 51.92084928561841],
            [-0.4620582945701691, 51.92031171505966],
            [-0.46207501605855844, 51.92028044852619],
            [-0.4617648120993393, 51.91841624040072],
            [-0.46186243291864687, 51.91824910782611],
            [-0.460966346579496, 51.916905125192706],
            [-0.46085034319800905, 51.916512594253994],
            [-0.4607119688794656, 51.916248366612116],
            [-0.4607325436070435, 51.916192523494495],
            [-0.4607012045644318, 51.91579445301207],
            [-0.4597104849624151, 51.91470860576677],
            [-0.4597078273043332, 51.91461033185419],
            [-0.4601515725920386, 51.91368503338431],
            [-0.46051248144057877, 51.9133872373139],
            [-0.4609159833265847, 51.912407763002314],
            [-0.4612825630641005, 51.91172913847988],
            [-0.46136545032250387, 51.91171684331655],
            [-0.4616296, 51.91170386647503],
            [-0.4618937496774961, 51.91171684331655],
            [-0.4620547056891238, 51.91174071888548],
            [-0.4620547818643008, 51.91174090582938],
            [-0.4621332882140781, 51.91163505227049],
            [-0.46231089422964455, 51.91143909422965],
            [-0.4625068522704896, 51.91126148821408],
            [-0.4627192751535584, 51.91110394466681],
            [-0.4629461171303647, 51.91096798081833],
            [-0.46318519358866755, 51.9108549060748],
            [-0.46343420209148095, 51.91076580940784],
            [-0.4635655270209322, 51.91073291422546],
            [-0.46356333112659415, 51.9107316507125],
            [-0.4635075488670412, 51.910508955449195],
            [-0.4634687433165499, 51.9102473496775],
            [-0.46346192106052836, 51.91010847946592],
            [-0.4652539046112728, 51.90909122946047],
            [-0.46629261120682775, 51.909148416746994],
            [-0.4669497136640546, 51.91008413294868],
            [-0.4669748804989653, 51.91105171872469],
            [-0.4676037604293521, 51.91136586927146],
            [-0.4680638815444637, 51.9123601535182],
            [-0.46864212573464387, 51.912572922606586],
            [-0.4709985802900098, 51.91158183851816],
            [-0.47183714117613923, 51.911934302092064],
            [-0.4721111437738875, 51.91230692045739],
            [-0.47232583848633447, 51.91246058394542],
            [-0.4730399940714719, 51.912754063756786]
          ]
        ]
      }
    },
    {
      "type": "Feature",
      "properties": {
        "db_school_name": "Southfield Primary Academy",
        "urn": "146714",
        "n_samples": 35,
        "margin_m": 137.1
      },
      "geometry": {
        "type": "MultiPolygon",
        "coordinates": [
          [
            [
              [-0.49258635302830844, 51.89802030330834],
              [-0.49337254725362034, 51.899772976987265],
              [-0.49352003126312344, 51.89992615634945],
              [-0.4928307131992404, 51.9016090513736],
              [-0.4919767728741314, 51.90205607159387],
              [-0.491971419285703, 51.90206222098288],
              [-0.4927418829000428, 51.903826767116925],
              [-0.4928185813639152, 51.904182535281294],
              [-0.4929468845304528, 51.90427228095194],
              [-0.4933029267329599, 51.90615622677912],
              [-0.493240048703197, 51.9061619875687],
              [-0.493148614796325, 51.9061705285598],
              [-0.49304268385472, 51.9061822108542],
              [-0.49290963502459, 51.9061962434841],
              [-0.492798648246365, 51.906206961695],
              [-0.492673491131161, 51.9062197463206],
              [-0.492549508462932, 51.9062321861823],
              [-0.492417203936592, 51.9062456882824],
              [-0.492285613824208, 51.9062595590421],
              [-0.492129654530441, 51.9062761747617],
              [-0.491846375276863, 51.9063006908595],
              [-0.491807881658842, 51.9063084701276],
              [-0.491762669982356, 51.9063128364573],
              [-0.491600147253922, 51.9063300867328],
              [-0.491522999684083, 51.9063384138097],
              [-0.491521215314595, 51.9063386067507],
              [-0.491508327165669, 51.9063067733207],
              [-0.491494901805018, 51.9062736202376],
              [-0.491481937738948, 51.9062440517102],
              [-0.491475853963143, 51.906230396495],
              [-0.491462185105634, 51.9062045054845],
              [-0.491436614635984, 51.9061477108143],
              [-0.491413385491342, 51.9060991284685],
              [-0.491394587753328, 51.9060614557219],
              [-0.491388049116085, 51.9060483611451],
              [-0.491368263503905, 51.9060098035565],
              [-0.491345008000118, 51.9059663460606],
              [-0.491320423056417, 51.905919184982],
              [-0.491301939920833, 51.9058851398587],
              [-0.491275759701541, 51.9058378684186],
              [-0.491262539683112, 51.9058159394321],
              [-0.491248581081939, 51.905794360645],
              [-0.491224912208802, 51.9057589003363],
              [-0.491211432376502, 51.9057403848155],
              [-0.491197489501642, 51.9057226726029],
              [-0.491152757222049, 51.90566509288],
              [-0.491131438235406, 51.9056406233952],
              [-0.491125180881061, 51.9056334488675],
              [-0.491093184484443, 51.9055992305738],
              [-0.491057545837808, 51.9055609193935],
              [-0.491011752716011, 51.90551330668],
              [-0.490984286471857, 51.9054861868114],
              [-0.490903267327869, 51.9054061756019],
              [-0.490767727578447, 51.9052692053466],
              [-0.490744612696076, 51.9052519150351],
              [-0.490722407351523, 51.9052433474155],
              [-0.489034848572006, 51.905756904913],
              [-0.486510080944815, 51.9065246834047],
              [-0.484948698627757, 51.907000079145],
              [-0.482276166347529, 51.9077947218209],
              [-0.4822054413852278, 51.90821235353683],
              [-0.4809336492239889, 51.90729130031551],
              [-0.4805956407193692, 51.90721976871183],
              [-0.4805218751535584, 51.90717555533319],
              [-0.48050346008151124, 51.907161897784945],
              [-0.48000847135316976, 51.906072584617604],
              [-0.4821048178271812, 51.90390038350144],
              [-0.48305510472412344, 51.90435652990876],
              [-0.4834874374432178, 51.90432887133312],
              [-0.4839959388046187, 51.904199901337314],
              [-0.4841198814285955, 51.90404136807339],
              [-0.484037032786271, 51.903074158342044],
              [-0.4841253125191759, 51.902711101511535],
              [-0.48597314265457414, 51.90218385762319],
              [-0.4866121089865857, 51.90108985171642],
              [-0.4857519623663854, 51.900302267259754],
              [-0.4866725573266062, 51.89864986601594],
              [-0.4868345321274841, 51.898645612203694],
              [-0.48758937627608195, 51.89822057170234],
              [-0.4884417386233619, 51.898120999802586],
              [-0.48875562683923934, 51.897566506090165],
              [-0.48892315145081816, 51.89687569004757],
              [-0.490636805583089, 51.896926023780416],
              [-0.49126719871171665, 51.896621768661454],
              [-0.4925890733482623, 51.89768005800693],
              [-0.49258635302830844, 51.89802030330834]
            ]
          ],
          [
            [
              [-0.49416330044442974, 51.904421680250245],
              [-0.49490417318861973, 51.90397710129925],
              [-0.49650185695372984, 51.90469338329012],
              [-0.496295557430533, 51.9048158315339],
              [-0.495083589250593, 51.9054998765867],
              [-0.49456926564813436, 51.90579035856333],
              [-0.49416330044442974, 51.904421680250245]
            ]
          ],
          [
            [
              [-0.4929468845304528, 51.90427228095194],
              [-0.49325773398580225, 51.90425166216279],
              [-0.49416330044442974, 51.904421680250245],
              [-0.49456926564813425, 51.90579035856333],
              [-0.494070090597211, 51.9060722848735],
              [-0.494046758228838, 51.9060746830793],
              [-0.493471436367061, 51.906137153126],
              [-0.493385003628102, 51.9061483766315],
              [-0.493331331244614, 51.9061536244009],
              [-0.49330292673296033, 51.90615622677912],
              [-0.4929468845304528, 51.90427228095194]
            ]
          ]
        ]
      }
    },
    {
      "type": "Feature",
      "properties": {
        "db_school_name": "Pirton Hill Primary School",
        "urn": "109574",
        "n_samples": 30,
        "margin_m": 233.7
      },
      "geometry": {
        "type": "Polygon",
        "coordinates": [
          [
            [-0.4793244995344367, 51.90528438967834],
            [-0.48000847135316976, 51.906072584617604],
            [-0.48050251957657525, 51.907159828031936],
            [-0.48049107002856506, 51.90723701461491],
            [-0.4796205454286564, 51.9081348832934],
            [-0.4804926599058617, 51.90723537479792],
            [-0.480596558385232, 51.907219962914375],
            [-0.4809336492239889, 51.90729130031551],
            [-0.48220544138522775, 51.90821235353683],
            [-0.482072718284253, 51.9089960849748],
            [-0.482001420813736, 51.9096884062412],
            [-0.4818132168217746, 51.91115994040357],
            [-0.4815273238461314, 51.91110265961737],
            [-0.4818132168217744, 51.91115994040357],
            [-0.481723003426677, 51.9118653031932],
            [-0.481592641213507, 51.9127978586463],
            [-0.481562170081845, 51.9128837614654],
            [-0.481529764782327, 51.9129381765806],
            [-0.481447731129835, 51.9130422915267],
            [-0.481351116896708, 51.9131912531279],
            [-0.4811501888405787, 51.913525001792124],
            [-0.4794963084667611, 51.91286601029527],
            [-0.48115018884057803, 51.913525001792124],
            [-0.481026122006774, 51.913731081226],
            [-0.479738896224116, 51.9155531856697],
            [-0.47923066765121153, 51.91628035839198],
            [-0.4791741649602067, 51.916112379863506],
            [-0.4792306676512115, 51.91628035839198],
            [-0.478805254122727, 51.916889039466],
            [-0.478496583375607, 51.9173310016856],
            [-0.4786134280683239, 51.917400902117095],
            [-0.478409997908519, 51.91747369059216],
            [-0.478153455449199, 51.91753795113296],
            [-0.4778918496774961, 51.91757675668345],
            [-0.4776277, 51.91758973352497],
            [-0.4773635503225039, 51.91757675668345],
            [-0.47710194455080096, 51.91753795113296],
            [-0.47684540209148096, 51.91747369059216],
            [-0.47659639358866757, 51.9173845939252],
            [-0.4763573171303647, 51.917271519181675],
            [-0.4761304751535584, 51.91713555533319],
            [-0.4759180522704896, 51.91697801178592],
            [-0.47572209422964457, 51.91680040577035],
            [-0.47554448821407813, 51.91660444772951],
            [-0.4755013830043505, 51.91654632708234],
            [-0.47520780322474676, 51.91590151721218],
            [-0.4751373412220815, 51.91532789744877],
            [-0.4736177561408363, 51.913758211820976],
            [-0.4730399940714719, 51.912754063756786],
            [-0.47232583848633447, 51.91246058394542],
            [-0.4721111437738875, 51.91230692045739],
            [-0.47183714117613923, 51.911934302092064],
            [-0.4709985802900098, 51.91158183851816],
            [-0.46864212573464387, 51.912572922606586],
            [-0.4680638815444637, 51.9123601535182],
            [-0.4676037604293521, 51.91136586927146],
            [-0.4669748804989653, 51.91105171872469],
            [-0.4669497136640546, 51.91008413294868],
            [-0.46832564852862596, 51.908766143437376],
            [-0.4684070179968471, 51.908782959314124],
            [-0.4688595934572926, 51.908606835555496],
            [-0.4695104961496499, 51.90794570042994],
            [-0.47072627271339956, 51.90782223051432],
            [-0.4712572372331618, 51.907333136688244],
            [-0.47218834259984277, 51.90767824334022],
            [-0.47323459387456795, 51.90753511464924],
            [-0.4734763709966915, 51.90737647786834],
            [-0.4736855002563003, 51.90707686522794],
            [-0.4746895443658617, 51.90688163442886],
            [-0.47494906804745113, 51.90645446812066],
            [-0.47613908209753686, 51.90627849150985],
            [-0.4762463715367645, 51.90604654574582],
            [-0.4776792652412903, 51.90598232426315],
            [-0.4782990443245487, 51.90554754596615],
            [-0.4793244995344367, 51.90528438967834]
          ]
        ]
      }
    },
    {
      "type": "Feature",
      "properties": {
        "db_school_name": "Foxdell Primary School",
        "urn": "109572",
        "n_samples": 15,
        "margin_m": 121.3
      },
      "geometry": {
        "type": "MultiPolygon",
        "coordinates": [
          [
            [
              [-0.4488358942296446, 51.87974399422965],
              [-0.44903185227048964, 51.87956638821408],
              [-0.4492442751535584, 51.87940884466681],
              [-0.44947111713036475, 51.87927288081833],
              [-0.4497101935886676, 51.8791598060748],
              [-0.449959202091481, 51.87907070940784],
              [-0.45016938668092343, 51.879018060908955],
              [-0.450208125136474, 51.8790489039488],
              [-0.450586325861665, 51.8793299461197],
              [-0.450897931945037, 51.8795238139153],
              [-0.451292574999515, 51.8797484384008],
              [-0.451566460974945, 51.8798967714308],
              [-0.451847436024348, 51.8800479829247],
              [-0.453082539874936, 51.8806765770167],
              [-0.453644720277886, 51.8811020562694],
              [-0.453985098703058, 51.8813448335378],
              [-0.454346323939807, 51.88162343169799],
              [-0.4524220179900307, 51.884904484743394],
              [-0.4546975157592178, 51.886397587988455],
              [-0.45470583352497307, 51.8865669],
              [-0.45469285668345005, 51.8868310496775],
              [-0.45465405113295876, 51.887092655449194],
              [-0.4546058767775898, 51.88728497825647],
              [-0.45091218825135876, 51.88859297974132],
              [-0.450853982469295, 51.88858221509424],
              [-0.44972108728743987, 51.88578076458071],
              [-0.44899920113779496, 51.885550201268536],
              [-0.4459657974718112, 51.88749505149267],
              [-0.445889702091481, 51.887475990592165],
              [-0.4456406935886676, 51.8873868939252],
              [-0.44540161713036475, 51.88727381918168],
              [-0.4451747751535584, 51.887137855333194],
              [-0.44496235227048964, 51.886980311785926],
              [-0.4447663942296446, 51.88680270577036],
              [-0.44458878821407816, 51.886606747729516],
              [-0.44443124466680956, 51.88639432484644],
              [-0.44429528081832104, 51.88616748286964],
              [-0.4441822060747989, 51.88592840641134],
              [-0.4440931094078363, 51.885679397908525],
              [-0.44402884886704125, 51.8854228554492],
              [-0.44399004331654995, 51.8851612496775],
              [-0.44397706647502694, 51.8848971],
              [-0.44399004331654995, 51.884632950322505],
              [-0.44402884886704125, 51.88437134455081],
              [-0.4440931094078363, 51.88411480209148],
              [-0.4441822060747989, 51.88386579358867],
              [-0.44429528081832104, 51.88362671713037],
              [-0.44443124466680956, 51.883399875153565],
              [-0.44458878821407816, 51.88318745227049],
              [-0.4447663942296446, 51.88299149422965],
              [-0.444902701037357, 51.88286795294036],
              [-0.444903182753972, 51.88286818700138],
              [-0.4449094433165499, 51.882740750322505],
              [-0.4449482488670412, 51.88247914455081],
              [-0.44501250940783627, 51.88222260209148],
              [-0.4451016060747989, 51.88197359358867],
              [-0.445214680818321, 51.88173451713037],
              [-0.4453506446668095, 51.881507675153564],
              [-0.4455081882140781, 51.88129525227049],
              [-0.44568579422964455, 51.88109929422965],
              [-0.4458817522704896, 51.88092168821408],
              [-0.44609417515355837, 51.88076414466681],
              [-0.4463210171303647, 51.88062818081833],
              [-0.44656009358866755, 51.8805151060748],
              [-0.44680910209148095, 51.88042600940784],
              [-0.44706564455080094, 51.880361748867045],
              [-0.44732725032250387, 51.88032294331655],
              [-0.4475914, 51.88030996647503],
              [-0.4478555496774961, 51.88032294331655],
              [-0.448117155449199, 51.880361748867045],
              [-0.44834541121306876, 51.88041892395948],
              [-0.4483456921032094, 51.88041957682751],
              [-0.44836478081832104, 51.88037921713037],
              [-0.44850074466680956, 51.880152375153564],
              [-0.44865828821407816, 51.87993995227049],
              [-0.4488358942296446, 51.87974399422965]
            ]
          ],
          [
            [
              [-0.4562731939252011, 51.882834293588665],
              [-0.4563622905921637, 51.88308330209148],
              [-0.45642655113295877, 51.883339844550804],
              [-0.45646535668345006, 51.8836014503225],
              [-0.4564783335249731, 51.8838656],
              [-0.45646535668345006, 51.8841297496775],
              [-0.45642655113295877, 51.884391355449196],
              [-0.4563622905921637, 51.88464789790852],
              [-0.4562731939252011, 51.884896906411335],
              [-0.456160119181679, 51.885135982869635],
              [-0.45602415533319046, 51.88536282484644],
              [-0.45586661178592186, 51.88557524772951],
              [-0.4556890057703554, 51.885771205770354],
              [-0.4554930477295104, 51.88594881178592],
              [-0.4552806248464416, 51.88610635533319],
              [-0.45505378286963527, 51.886242319181676],
              [-0.4548147064113324, 51.8863553939252],
              [-0.454697256799768, 51.886397418068185],
              [-0.4524220179900307, 51.884904484743394],
              [-0.45434632393980756, 51.881623431697996],
              [-0.45456266324535, 51.8817902853017],
              [-0.454993688608242, 51.8821007699953],
              [-0.455146822461916, 51.8822079548122],
              [-0.455274925246212, 51.8822870334152],
              [-0.455393316199949, 51.8823524113023],
              [-0.455487597973668, 51.8823976960904],
              [-0.455651105110878, 51.8824609684548],
              [-0.4562296527205184, 51.88274223344613],
              [-0.4562731939252011, 51.882834293588665]
            ]
          ],
          [
            [
              [-0.4604679060747989, 51.88576169358866],
              [-0.46058098081832105, 51.88552261713036],
              [-0.46071694466680957, 51.88529577515356],
              [-0.4608731033568345, 51.88508521953432],
              [-0.461109431154505, 51.8852336106549],
              [-0.462119622490423, 51.8858186944453],
              [-0.463164243863162, 51.8863331168412],
              [-0.464053583010365, 51.8867151623312],
              [-0.464903375283546, 51.8871893611937],
              [-0.4654079046838322, 51.88750677744449],
              [-0.4649210378793953, 51.88824319834519],
              [-0.46457483641167224, 51.88844256651923],
              [-0.4628339894642738, 51.88880121577073],
              [-0.46184834289152343, 51.88853351985293],
              [-0.4604581975109015, 51.885788827207044],
              [-0.4604679060747989, 51.88576169358866]
            ]
          ],
          [
            [
              [-0.4328480496774961, 51.87820344331654],
              [-0.43310965544919905, 51.87824224886704],
              [-0.43336619790851905, 51.878306509407835],
              [-0.4335368414506482, 51.87836756664351],
              [-0.4329163011571399, 51.88176184728502],
              [-0.4326555241387402, 51.88180899073211],
              [-0.4319616914865597, 51.88156662364158],
              [-0.4325286342460131, 51.87846084738789],
              [-0.43282925347102064, 51.87820251991813],
              [-0.4328480496774961, 51.87820344331654]
            ]
          ],
          [
            [
              [-0.43406305544919904, 51.878416548867044],
              [-0.43431959790851904, 51.87848080940784],
              [-0.4344945723160545, 51.87854341625194],
              [-0.4338578955583047, 51.8819570026661],
              [-0.43354160367043976, 51.882000411921844],
              [-0.4329163011571399, 51.88176184728502],
              [-0.43353735290060497, 51.87836476907387],
              [-0.4338014496774961, 51.87837774331655],
              [-0.43406305544919904, 51.878416548867044]
            ]
          ],
          [
            [
              [-0.435262697908519, 51.878656709407835],
              [-0.4355117064113324, 51.8787458060748],
              [-0.43575078286963526, 51.87885888081832],
              [-0.43578214851596414, 51.87887768066324],
              [-0.43528988652780126, 51.88254756297082],
              [-0.4338578955583047, 51.8819570026661],
              [-0.43449495184868786, 51.87854138136151],
              [-0.4347445496774961, 51.87855364331654],
              [-0.435006155449199, 51.87859244886704],
              [-0.435262697908519, 51.878656709407835]
            ]
          ],
          [
            [
              [-0.43589074455080096, 51.87885214886704],
              [-0.4361523503225039, 51.878813343316544],
              [-0.4364165, 51.878800366475026],
              [-0.4366806496774961, 51.878813343316544],
              [-0.436942255449199, 51.87885214886704],
              [-0.437198797908519, 51.878916409407836],
              [-0.4374478064113324, 51.8790055060748],
              [-0.43768688286963525, 51.87911858081832],
              [-0.4379137248464416, 51.87925454466681],
              [-0.43812614772951036, 51.879412088214075],
              [-0.4383221057703554, 51.879589694229644],
              [-0.43849971178592184, 51.879785652270485],
              [-0.43865725533319044, 51.87999807515356],
              [-0.43879321918167896, 51.88022491713036],
              [-0.4389062939252011, 51.88046399358866],
              [-0.4389953905921637, 51.880713002091476],
              [-0.43905965113295875, 51.8809695445508],
              [-0.43909845668345004, 51.8812311503225],
              [-0.43911143352497306, 51.8814953],
              [-0.43910496378522906, 51.8816269945779],
              [-0.4371157789111219, 51.88384772214016],
              [-0.4361921395755562, 51.88374223629441],
              [-0.4358193952855541, 51.88353203981146],
              [-0.43528988652780126, 51.88254756297082],
              [-0.43578191670822547, 51.87887940882251],
              [-0.43589074455080096, 51.87885214886704]
            ]
          ],
          [
            [
              [-0.4397948496774961, 51.88160284331655],
              [-0.440056455449199, 51.881641648867046],
              [-0.440312997908519, 51.88170590940784],
              [-0.44045730678748896, 51.88175754395037],
              [-0.4398820966048157, 51.88604246990127],
              [-0.43957314999582275, 51.88600943433202],
              [-0.4387989817938109, 51.88571147921347],
              [-0.4378658434261494, 51.88500512215032],
              [-0.4373316969832236, 51.884309125993965],
              [-0.4371157789111219, 51.88384772214016],
              [-0.4391051519573091, 51.881626784502444],
              [-0.4392665503225039, 51.88160284331655],
              [-0.4395307, 51.88158986647503],
              [-0.4397948496774961, 51.88160284331655]
            ]
          ],
          [
            [
              [-0.4406846, 51.88174476647503],
              [-0.4409487496774961, 51.88175774331655],
              [-0.441210355449199, 51.881796548867044],
              [-0.441466897908519, 51.88186080940784],
              [-0.4417159064113324, 51.8819499060748],
              [-0.44195498286963525, 51.882062980818326],
              [-0.4421818248464416, 51.88219894466681],
              [-0.44239424772951036, 51.88235648821408],
              [-0.4425902057703554, 51.88253409422965],
              [-0.44276781178592184, 51.88273005227049],
              [-0.44292535533319044, 51.88294247515356],
              [-0.44306131918167896, 51.88316931713037],
              [-0.4431743939252011, 51.88340839358867],
              [-0.4432634905921637, 51.88365740209148],
              [-0.44332775113295875, 51.883913944550805],
              [-0.44336655668345004, 51.8841755503225],
              [-0.44337953352497306, 51.8844397],
              [-0.44336655668345004, 51.8847038496775],
              [-0.44332775113295875, 51.8849654554492],
              [-0.4432634905921637, 51.88522199790852],
              [-0.4431743939252011, 51.885471006411336],
              [-0.44306131918167896, 51.885710082869636],
              [-0.44292535533319044, 51.88593692484644],
              [-0.44276781178592184, 51.886149347729514],
              [-0.4425902057703554, 51.886345305770355],
              [-0.44246848089555285, 51.88645563076604],
              [-0.4422539403819044, 51.886494251280816],
              [-0.4413956036386395, 51.88649625303787],
              [-0.44045234446139364, 51.88630904461392],
              [-0.4398820966048157, 51.88604246990127],
              [-0.44045752452172143, 51.881755921977934],
              [-0.4406846, 51.88174476647503]
            ]
          ]
        ]
      }
    },
    {
      "type": "Feature",
      "properties": {
        "db_school_name": "Whitefield Primary Academy",
        "urn": "146751",
        "n_samples": 21,
        "margin_m": 112.1
      },
      "geometry": {
        "type": "MultiPolygon",
        "coordinates": [
          [
            [
              [-0.45800328627914505, 51.91729121035344],
              [-0.45862286256085755, 51.91786465881511],
              [-0.45887713937619096, 51.91827919765185],
              [-0.4591846145208624, 51.9192319438888],
              [-0.4617648120993393, 51.91841624040072],
              [-0.46207501605855844, 51.92028044852619],
              [-0.4620582945701691, 51.92031171505966],
              [-0.46170401553038765, 51.92084928561841],
              [-0.46255958979883227, 51.92229357022273],
              [-0.46266896329045065, 51.92357268678005],
              [-0.462576976043147, 51.9235613079283],
              [-0.462487268371204, 51.9235521338011],
              [-0.462393475163251, 51.9235433558343],
              [-0.462393228749092, 51.9235433319351],
              [-0.462370571986412, 51.9235411684505],
              [-0.462279367755729, 51.9235332334614],
              [-0.462140300641253, 51.9235215261083],
              [-0.462078804147717, 51.92351667653],
              [-0.462028003231017, 51.9235137649832],
              [-0.462001302171595, 51.9235120674183],
              [-0.461975182573964, 51.9235103774435],
              [-0.461915177603341, 51.9235086943657],
              [-0.461858500668176, 51.9235075043232],
              [-0.461807913698301, 51.923506843406],
              [-0.461783607043093, 51.923507425004],
              [-0.461759866483984, 51.9235084635792],
              [-0.461536070750131, 51.9235248715277],
              [-0.461465264532624, 51.9235328480426],
              [-0.461421585293482, 51.923538571429],
              [-0.46131725994525, 51.9235528535895],
              [-0.461238301809703, 51.9235653091986],
              [-0.46106622569594, 51.9235875174856],
              [-0.460863849756904, 51.923615443767],
              [-0.460654143795452, 51.9236450721963],
              [-0.460330468221002, 51.9236902940731],
              [-0.46013463277031, 51.9237183046144],
              [-0.459948291972642, 51.923745090269],
              [-0.459634032906464, 51.9237913325457],
              [-0.459359918041056, 51.9238331538706],
              [-0.459164050529916, 51.923862061519],
              [-0.458941832163552, 51.9238960189345],
              [-0.458657309389549, 51.9239444461312],
              [-0.458390910562879, 51.9239944587052],
              [-0.458081150540081, 51.924057839896],
              [-0.45791421582421, 51.924091170619],
              [-0.457843746639859, 51.9241104788718],
              [-0.4578343406851352, 51.92411358875609],
              [-0.4580479149918992, 51.923224976232746],
              [-0.45783434068513496, 51.92411358875609],
              [-0.457802629469865, 51.9241240734132],
              [-0.457601768123742, 51.9241904820943],
              [-0.457318746852908, 51.9242798378581],
              [-0.457043116073909, 51.9243656930981],
              [-0.456632435315245, 51.9244879919789],
              [-0.456444299462063, 51.92454238349],
              [-0.456398879386797, 51.9245555146806],
              [-0.456415261945962, 51.9245878675792],
              [-0.456422715085026, 51.9246025839902],
              [-0.456420676845388, 51.9246026471827],
              [-0.456347634539618, 51.9246078937328],
              [-0.456178698900926, 51.9246146701984],
              [-0.456008263255569, 51.9246227755009],
              [-0.455793382225972, 51.9246334446716],
              [-0.455532663780385, 51.9246448608662],
              [-0.455411727497024, 51.9246497968039],
              [-0.454191884112662, 51.9246931581136],
              [-0.4534603357167539, 51.92472303134393],
              [-0.453105066522156, 51.9247375389808],
              [-0.4518566269223, 51.9247561858518],
              [-0.451108727630646, 51.924767022475],
              [-0.451027392879327, 51.9247228048552],
              [-0.450553728799977, 51.9247093797417],
              [-0.450394877535143, 51.924718975251],
              [-0.450299845958952, 51.9247312072535],
              [-0.450107903556504, 51.9247754234627],
              [-0.4499289123429884, 51.92483314841393],
              [-0.44950233825230684, 51.92342031746509],
              [-0.44950674331654994, 51.9233306503225],
              [-0.44954554886704123, 51.9230690445508],
              [-0.4496098094078363, 51.922812502091475],
              [-0.4496989060747989, 51.92256349358866],
              [-0.449811980818321, 51.92232441713036],
              [-0.44994794466680954, 51.92209757515356],
              [-0.45010548821407814, 51.921885152270484],
              [-0.4502830942296446, 51.92168919422964],
              [-0.4504790522704896, 51.921511588214074],
              [-0.4506914751535584, 51.921354044666806],
              [-0.45091831713036473, 51.92121808081832],
              [-0.4511573935886676, 51.9211050060748],
              [-0.451406402091481, 51.921015909407835],
              [-0.4515137221653261, 51.92098902712877],
              [-0.4527917385721117, 51.92122117383677],
              [-0.4544185112602498, 51.91850506940875],
              [-0.45520866691277345, 51.91834748202191],
              [-0.455310207709472, 51.91806708142647],
              [-0.45533517511327615, 51.9165616183127],
              [-0.4566455570901289, 51.91660929187866],
              [-0.457834984571813, 51.91708566998911],
              [-0.45790102944167455, 51.917089835640354],
              [-0.45800328627914505, 51.91729121035344]
            ]
          ],
          [
            [
              [-0.4441363744279749, 51.91856117227321],
              [-0.4453250203243341, 51.917565660826966],
              [-0.44609319453519386, 51.91606624504539],
              [-0.44631370589200164, 51.91604441374359],
              [-0.4479460888480782, 51.91681858386005],
              [-0.4488701793364201, 51.916240054134704],
              [-0.4497987290377998, 51.91621628391096],
              [-0.4502441588050979, 51.916593001679466],
              [-0.4504222269909667, 51.91702542635356],
              [-0.45061155530414204, 51.919509155519854],
              [-0.450648544631856, 51.919561337839085],
              [-0.4507995441813357, 51.920245548907914],
              [-0.4507765511329588, 51.9204005554492],
              [-0.4507122905921637, 51.920657097908524],
              [-0.4506231939252011, 51.92090610641134],
              [-0.450510119181679, 51.92114518286964],
              [-0.4503741553331905, 51.92137202484644],
              [-0.45021661178592187, 51.921584447729515],
              [-0.45003900577035544, 51.921780405770356],
              [-0.4498430477295104, 51.921958011785925],
              [-0.4496306248464416, 51.92211555533319],
              [-0.4494037828696353, 51.92225151918168],
              [-0.449283161957223, 51.92230856862449],
              [-0.4468682330582978, 51.92120367167818],
              [-0.4463854260141265, 51.92063337198564],
              [-0.4463619215836832, 51.92058677601262],
              [-0.44475584527951584, 51.91969520419406],
              [-0.4441969150876973, 51.91880214577287],
              [-0.4441363744279749, 51.91856117227321]
            ]
          ]
        ]
      }
    },
    {
      "type": "Feature",
      "properties": {
        "db_school_name": "Waulud Primary School",
        "urn": "131850",
        "n_samples": 36,
        "margin_m": 106.9
      },
      "geometry": {
        "type": "Polygon",
        "coordinates": [
          [
            [-0.45613721771453475, 51.908935494702874],
            [-0.4562759057703554, 51.90906119422964],
            [-0.4564377332051495, 51.90923974328935],
            [-0.45643774976436396, 51.90923963134893],
            [-0.45662055327345924, 51.909130063142186],
            [-0.4588736750698779, 51.909050310765146],
            [-0.4591827683173767, 51.909112687483564],
            [-0.4591869828696353, 51.90911468081833],
            [-0.4594138248464416, 51.90925064466681],
            [-0.4596262477295104, 51.90940818821408],
            [-0.45982220577035543, 51.90958579422965],
            [-0.45999981178592186, 51.90978175227049],
            [-0.46015735533319047, 51.909994175153564],
            [-0.460293319181679, 51.91022101713037],
            [-0.4604063939252011, 51.91046009358867],
            [-0.4604954905921637, 51.91070910209148],
            [-0.46051255652410783, 51.910777233110885],
            [-0.4571207533166369, 51.91304388354292],
            [-0.4605125494033377, 51.9107772378695],
            [-0.46056924772951036, 51.91081928821408],
            [-0.4607652057703554, 51.91099689422965],
            [-0.46094281178592184, 51.91119285227049],
            [-0.46110035533319044, 51.91140527515356],
            [-0.46123631918167896, 51.91163211713037],
            [-0.461282373147452, 51.911729490059855],
            [-0.4609159833265847, 51.912407763002314],
            [-0.46051248144057877, 51.9133872373139],
            [-0.4601515725920386, 51.91368503338431],
            [-0.4597078273043332, 51.91461033185419],
            [-0.4597104849624151, 51.91470860576677],
            [-0.4607012045644318, 51.91579445301207],
            [-0.4607325436070435, 51.916192523494495],
            [-0.4607119688794656, 51.916248366612116],
            [-0.46085034319800905, 51.916512594253994],
            [-0.460966346579496, 51.916905125192706],
            [-0.46186243291864687, 51.91824910782611],
            [-0.4617648120993393, 51.91841624040072],
            [-0.4591846145208624, 51.9192319438888],
            [-0.45887713937619096, 51.91827919765185],
            [-0.45862286256085755, 51.91786465881511],
            [-0.45800328627914505, 51.91729121035344],
            [-0.45790102944167455, 51.917089835640354],
            [-0.457834984571813, 51.91708566998911],
            [-0.4566455570901289, 51.91660929187866],
            [-0.45533517511327615, 51.9165616183127],
            [-0.455310207709472, 51.91806708142647],
            [-0.45520866691277345, 51.91834748202191],
            [-0.4544185112602498, 51.91850506940875],
            [-0.4527917385721117, 51.92122117383677],
            [-0.4515119994507384, 51.92098871420437],
            [-0.45135235227048964, 51.920870311785926],
            [-0.4511563942296446, 51.92069270577036],
            [-0.45097878821407816, 51.920496747729516],
            [-0.45082124466680956, 51.92028432484644],
            [-0.4508004422020601, 51.92024961803078],
            [-0.450648544631856, 51.919561337839085],
            [-0.45061155530414204, 51.919509155519854],
            [-0.4504222269909667, 51.91702542635356],
            [-0.4502441588050979, 51.916593001679466],
            [-0.4497987290377998, 51.91621628391096],
            [-0.4488701793364201, 51.916240054134704],
            [-0.4479460888480782, 51.91681858386005],
            [-0.44631370589200164, 51.91604441374359],
            [-0.44609319453519386, 51.91606624504539],
            [-0.4453250203243341, 51.917565660826966],
            [-0.4441363744279749, 51.91856117227321],
            [-0.44304712114720374, 51.9178553462862],
            [-0.4437406004890865, 51.91563998957199],
            [-0.44310754858881074, 51.9144644126172],
            [-0.443109787162152, 51.91442506900338],
            [-0.4453314582418357, 51.91409906292103],
            [-0.4454654808377415, 51.91374958028183],
            [-0.4461434640354433, 51.91298621681477],
            [-0.44703390898941, 51.91336293396229],
            [-0.44864461704008646, 51.91194949817434],
            [-0.44893895908301434, 51.91191291535371],
            [-0.4493179434219034, 51.912163429883385],
            [-0.4507853198438659, 51.91179326592174],
            [-0.4507953610046889, 51.911781818184934],
            [-0.4516214658305876, 51.911581021432895],
            [-0.45251688681533997, 51.90961819062352],
            [-0.4525336215217485, 51.90960812458671],
            [-0.4534831123762962, 51.90990134460856],
            [-0.4559017501753892, 51.908923160186],
            [-0.45613721771453475, 51.908935494702874]
          ]
        ]
      }
    },
    {
      "type": "Feature",
      "properties": {
        "db_school_name": "St Matthew's Primary School",
        "urn": "109552",
        "n_samples": 73,
        "margin_m": 336.0
      },
      "geometry": {
        "type": "MultiPolygon",
        "coordinates": [
          [
            [
              [-0.41978535079237916, 51.88427734983401],
              [-0.42034787523600803, 51.88438599729439],
              [-0.4207853962569152, 51.88432952975763],
              [-0.4208204288230863, 51.88437612200858],
              [-0.4236828173999601, 51.88419920169693],
              [-0.4240413261370173, 51.88516826060466],
              [-0.4248976494489121, 51.88577825593937],
              [-0.42521637988730937, 51.88619991062015],
              [-0.4264174883458664, 51.88667571683035],
              [-0.4264903677985069, 51.88677738941318],
              [-0.4265782939252011, 51.886963293588664],
              [-0.4266673905921637, 51.88721230209148],
              [-0.42673165113295874, 51.8874688445508],
              [-0.42677045668345004, 51.8877304503225],
              [-0.42678343352497305, 51.8879946],
              [-0.42677045668345004, 51.8882587496775],
              [-0.42673165113295874, 51.888520355449195],
              [-0.4266673905921637, 51.88877689790852],
              [-0.4265782939252011, 51.889025906411334],
              [-0.42646521918167896, 51.88926498286963],
              [-0.42632925533319044, 51.88949182484644],
              [-0.42617171178592184, 51.88970424772951],
              [-0.4259941057703554, 51.88990020577035],
              [-0.42579814772951036, 51.89007781178592],
              [-0.4255857248464416, 51.89023535533319],
              [-0.42535888286963525, 51.890371319181675],
              [-0.4251198064113324, 51.8904843939252],
              [-0.424870797908519, 51.89057349059216],
              [-0.424614255449199, 51.89063775113296],
              [-0.4243526496774961, 51.89067655668345],
              [-0.4240885, 51.89068953352497],
              [-0.4238243503225039, 51.89067655668345],
              [-0.42356274455080095, 51.89063775113296],
              [-0.42330620209148095, 51.89057349059216],
              [-0.42305719358866756, 51.8904843939252],
              [-0.4228181171303647, 51.890371319181675],
              [-0.4225912751535584, 51.89023535533319],
              [-0.4223788522704896, 51.89007781178592],
              [-0.42228578015639434, 51.8899934561388],
              [-0.422285779363483, 51.88999347341789],
              [-0.4221709248464416, 51.89007865533319],
              [-0.42194408286963525, 51.89021461918168],
              [-0.4219024138407636, 51.89023432716458],
              [-0.4198357228462955, 51.8876439834534],
              [-0.42190280983065775, 51.89023482348935],
              [-0.4218161176241441, 51.890330473599455],
              [-0.4218164926751066, 51.890330695663],
              [-0.4217536939252011, 51.89050620641134],
              [-0.421640619181679, 51.89074528286964],
              [-0.4215046553331905, 51.89097212484644],
              [-0.4213471117859219, 51.891184547729516],
              [-0.42116950577035545, 51.89138050577036],
              [-0.4209735477295104, 51.891558111785926],
              [-0.4207611248464416, 51.89171565533319],
              [-0.4205342828696353, 51.89185161918168],
              [-0.42029520641133244, 51.8919646939252],
              [-0.42004619790851905, 51.892053790592165],
              [-0.41978965544919905, 51.89211805113296],
              [-0.41952804967749613, 51.89215685668346],
              [-0.4194414247710099, 51.89216111229222],
              [-0.4178376423153328, 51.890010392080754],
              [-0.41658765573218315, 51.88972423110768],
              [-0.41509249845165713, 51.89084743874706],
              [-0.41513224961445416, 51.89123749427457],
              [-0.41433565487699625, 51.89192556827522],
              [-0.4123114848971541, 51.892637290388436],
              [-0.4120755877258673, 51.89303119590929],
              [-0.4120444518312591, 51.89329527617271],
              [-0.41189858399882406, 51.89342610678258],
              [-0.41117493343886397, 51.89452131792493],
              [-0.40955635810419905, 51.89424252314072],
              [-0.4092546075314717, 51.892419251875324],
              [-0.4088885934983153, 51.89182179277656],
              [-0.4085796595610421, 51.89183645676534],
              [-0.4071059128230011, 51.892476691430446],
              [-0.406581985778462, 51.893334075452756],
              [-0.406414868186104, 51.893443667749864],
              [-0.4042843917449012, 51.892182613679886],
              [-0.4037160873085766, 51.892318922380625],
              [-0.4021527627127063, 51.89160781025959],
              [-0.40224858205543723, 51.890830544510834],
              [-0.40309416175358426, 51.88979815467295],
              [-0.4029082452954229, 51.888696423972306],
              [-0.4030912010231954, 51.88743044363729],
              [-0.40465787123283536, 51.88746896633365],
              [-0.40575609641294696, 51.88520334279962],
              [-0.40581696759978625, 51.88494525215127],
              [-0.4062098468364607, 51.88454978838888],
              [-0.4061840354639448, 51.88424350842711],
              [-0.40591699469015197, 51.88348999579775],
              [-0.4053088989562019, 51.88285280814326],
              [-0.4051399267961404, 51.88213380266192],
              [-0.4030703398574903, 51.882145683833514],
              [-0.40263062488208223, 51.88156974591904],
              [-0.4019122472945525, 51.881856769484514],
              [-0.40024559223816303, 51.88083231398526],
              [-0.4002506833447955, 51.880811486943614],
              [-0.4020820360931814, 51.87835704692216],
              [-0.40359880145106297, 51.879444726218146],
              [-0.40360985632321145, 51.879472036728636],
              [-0.4052127019593231, 51.880661377600646],
              [-0.40777673344406506, 51.880163727342975],
              [-0.40821459928131565, 51.8808649973199],
              [-0.409977624792851, 51.881006484991275],
              [-0.41068995828272, 51.88135480947392],
              [-0.41069498434007207, 51.881358909873526],
              [-0.41134670270933443, 51.881513151125624],
              [-0.4125078302306107, 51.8811816389537],
              [-0.4137102898540514, 51.88222314218113],
              [-0.4148679032863339, 51.882117353962194],
              [-0.4150662301828576, 51.882215001920706],
              [-0.4151580530843061, 51.882329652654626],
              [-0.41585332097282945, 51.88249524669399],
              [-0.4173697615559936, 51.883603280938004],
              [-0.41823682806738116, 51.88294105934964],
              [-0.41978535079237916, 51.88427734983401]
            ]
          ],
          [
            [
              [-0.45817257307918424, 51.90514343196799],
              [-0.45916253197533674, 51.90443454133946],
              [-0.46034452229122924, 51.90520420570205],
              [-0.459923395318323, 51.90632123704014],
              [-0.4582251158181054, 51.905636686532574],
              [-0.45817257307918424, 51.90514343196799]
            ]
          ]
        ]
      }
    },
    {
      "type": "Feature",
      "properties": {
        "db_school_name": "Bramingham Primary School",
        "urn": "109594",
        "n_samples": 35,
        "margin_m": 104.8
      },
      "geometry": {
        "type": "MultiPolygon",
        "coordinates": [
          [
            [
              [-0.4420321237823404, 51.917713042199765],
              [-0.44304712114720374, 51.9178553462862],
              [-0.4441363744279749, 51.91856117227321],
              [-0.4441969150876973, 51.91880214577287],
              [-0.44475584527951584, 51.91969520419406],
              [-0.4463619215836832, 51.92058677601262],
              [-0.4463854260141265, 51.92063337198564],
              [-0.4468682330582978, 51.92120367167818],
              [-0.4492842066941841, 51.92230904662062],
              [-0.44933305113295874, 51.922504044550806],
              [-0.44937185668345003, 51.9227656503225],
              [-0.44938483352497305, 51.9230298],
              [-0.4493734485716383, 51.92326154604902],
              [-0.4467432995376272, 51.92413479454165],
              [-0.44937164432644217, 51.92326214508519],
              [-0.4494446117859219, 51.923342652270485],
              [-0.44950242479059516, 51.92342060408346],
              [-0.44992891234298854, 51.92483314841393],
              [-0.449824038379099, 51.9248669704342],
              [-0.449504483967967, 51.9249815077225],
              [-0.449285856846746, 51.9250379558642],
              [-0.449094040805872, 51.9250749814541],
              [-0.448786844495473, 51.9251266659964],
              [-0.447934920278288, 51.9253267707582],
              [-0.447271106466447, 51.9254303803171],
              [-0.446503792703133, 51.9255830505773],
              [-0.446261344530153, 51.925610414702],
              [-0.445939224189845, 51.925632230652],
              [-0.44481843963907, 51.9256587794822],
              [-0.442682604238099, 51.9259344672352],
              [-0.441841364039784, 51.9261193894809],
              [-0.44156667286714796, 51.92615224332819],
              [-0.44091837536986694, 51.924334433206184],
              [-0.4415666728671471, 51.92615224332819],
              [-0.441360916239374, 51.9261768524074],
              [-0.4406569673816, 51.9261783159302],
              [-0.440535023561255, 51.9262126576097],
              [-0.440436446441721, 51.9262059574799],
              [-0.43981353792814, 51.9262183787224],
              [-0.439731082344596, 51.926120202829],
              [-0.439387344695663, 51.9259663355563],
              [-0.438482663826201, 51.9260542077473],
              [-0.438732654432071, 51.9269368450984],
              [-0.43873262605319, 51.92697918324],
              [-0.438715064077559, 51.9270256938769],
              [-0.438660129222599, 51.9270986768278],
              [-0.438572469306633, 51.9271954961648],
              [-0.438521433971098, 51.9272424610125],
              [-0.43846461718604, 51.927286743333],
              [-0.438281698510748, 51.927402075129],
              [-0.438205729813059, 51.92745841073895],
              [-0.43811874466680956, 51.927341124846436],
              [-0.43798278081832104, 51.92711428286963],
              [-0.43792937423122463, 51.92700136412849],
              [-0.438577490742812, 51.92436287411742],
              [-0.4379563482450378, 51.92363846556661],
              [-0.4371596826109237, 51.923787222073855],
              [-0.43559366913527997, 51.924753063888815],
              [-0.4348413718442168, 51.924556693158166],
              [-0.4346563047230222, 51.92437517376883],
              [-0.4347791353574766, 51.923402586784846],
              [-0.4346738592638091, 51.92303445936161],
              [-0.4343028714445171, 51.92264433969758],
              [-0.434127736089307, 51.92260800061841],
              [-0.43285889736128974, 51.921296024469626],
              [-0.4326502929757108, 51.92086876530305],
              [-0.43369910977299364, 51.92056877521605],
              [-0.4341926591051054, 51.91990055127506],
              [-0.4353326105130314, 51.919820016341646],
              [-0.4359665141959728, 51.9201478139671],
              [-0.43606960866303357, 51.920257659864504],
              [-0.4373623825030786, 51.91928926722546],
              [-0.43770017735208, 51.91815384384072],
              [-0.4378808342145657, 51.91803189229911],
              [-0.43890903584912444, 51.91821404053197],
              [-0.43971876587899655, 51.91703181361689],
              [-0.4418629889696217, 51.91745698959578],
              [-0.4420321237823404, 51.917713042199765]
            ]
          ],
          [
            [
              [-0.4315398218598969, 51.92231447417351],
              [-0.43112750595960636, 51.92236325068762],
              [-0.4295077456517469, 51.92116160960884],
              [-0.43130618951101063, 51.91974365952866],
              [-0.4318643625045329, 51.9201264415127],
              [-0.43236410160052585, 51.92069707492259],
              [-0.4315398218598969, 51.92231447417351]
            ]
          ]
        ]
      }
    },
    {
      "type": "Feature",
      "properties": {
        "db_school_name": "Norton Road Primary School",
        "urn": "109548",
        "n_samples": 28,
        "margin_m": 154.8
      },
      "geometry": {
        "type": "Polygon",
        "coordinates": [
          [
            [-0.4530191091558126, 51.902050409585016],
            [-0.4542811721481452, 51.90210127160816],
            [-0.4548025483364731, 51.90167474170212],
            [-0.45654543782520934, 51.901891897835824],
            [-0.4566107795497473, 51.902009449306334],
            [-0.45665213489810275, 51.903218837514835],
            [-0.45656079764714946, 51.903619387823774],
            [-0.45687026915050655, 51.90445597860132],
            [-0.45817257307918424, 51.90514343196799],
            [-0.4582251158181054, 51.905636686532574],
            [-0.4581755054651129, 51.90577312078899],
            [-0.4588736750698779, 51.909050310765146],
            [-0.45662445494045184, 51.90912992503726],
            [-0.45647601713036473, 51.90905971918168],
            [-0.4562491751535584, 51.90892375533319],
            [-0.45620229983797866, 51.908888990229784],
            [-0.456202281163781, 51.90888775538378],
            [-0.45613786633137476, 51.90893552867942],
            [-0.4559017501753892, 51.908923160186],
            [-0.4542873262971753, 51.90782881916788],
            [-0.45222898373417486, 51.907866276935685],
            [-0.4522173677136045, 51.9078745122052],
            [-0.4512840953148895, 51.90761848279036],
            [-0.4506913179423152, 51.906883331572416],
            [-0.44909756147224583, 51.906559759251174],
            [-0.44983265088412366, 51.904178272429284],
            [-0.4484020436253297, 51.90370573789106],
            [-0.4476151952791164, 51.904306323060624],
            [-0.446311574914353, 51.903917239586725],
            [-0.44615298589418406, 51.90363140848523],
            [-0.4451322355575555, 51.90361405266672],
            [-0.44461678048197956, 51.90383905623931],
            [-0.4445901330288011, 51.903868483418314],
            [-0.44418499929458455, 51.90464025422395],
            [-0.4427585342625695, 51.904743673595405],
            [-0.441556173163698, 51.902798125030394],
            [-0.4419136065227966, 51.90222924921735],
            [-0.44234691687788713, 51.901336760568185],
            [-0.442480284636772, 51.90037040153494],
            [-0.4425489161477667, 51.90027786265482],
            [-0.4428739806138754, 51.900062794595264],
            [-0.44435226946539036, 51.89732266222498],
            [-0.44617003425056756, 51.89931167646586],
            [-0.4482755387019225, 51.89896059991108],
            [-0.448463520827048, 51.89860940920151],
            [-0.4496122435982171, 51.898622987989064],
            [-0.450521646762496, 51.90026895863529],
            [-0.45115977256197554, 51.900714046379434],
            [-0.4511811625751779, 51.90093156957559],
            [-0.45268301178845904, 51.90134022659741],
            [-0.4530191091558126, 51.902050409585016]
          ]
        ]
      }
    },
    {
      "type": "Feature",
      "properties": {
        "db_school_name": "The Meads Primary School",
        "urn": "109558",
        "n_samples": 35,
        "margin_m": 144.1
      },
      "geometry": {
        "type": "Polygon",
        "coordinates": [
          [
            [-0.4506913179423152, 51.906883331572416],
            [-0.4512840953148895, 51.90761848279036],
            [-0.4522173677136045, 51.9078745122052],
            [-0.45222898373417486, 51.907866276935685],
            [-0.4542873262971753, 51.90782881916788],
            [-0.4559017501753892, 51.908923160186],
            [-0.4534831123762962, 51.90990134460856],
            [-0.4525336215217485, 51.90960812458671],
            [-0.45251688681533997, 51.90961819062352],
            [-0.4516214658305876, 51.911581021432895],
            [-0.4507953610046889, 51.911781818184934],
            [-0.4507853198438659, 51.91179326592174],
            [-0.4493179434219034, 51.912163429883385],
            [-0.44893895908301434, 51.91191291535371],
            [-0.44864461704008646, 51.91194949817434],
            [-0.44703390898941, 51.91336293396229],
            [-0.4461434640354433, 51.91298621681477],
            [-0.4454654808377415, 51.91374958028183],
            [-0.4453314582418357, 51.91409906292103],
            [-0.443109787162152, 51.91442506900338],
            [-0.44310754858881074, 51.9144644126172],
            [-0.4437406004890865, 51.91563998957199],
            [-0.44304712114720374, 51.9178553462862],
            [-0.4420321237823404, 51.917713042199765],
            [-0.4418629889696217, 51.91745698959578],
            [-0.43971876587899655, 51.91703181361689],
            [-0.43890903584912444, 51.91821404053197],
            [-0.4378808342145657, 51.91803189229911],
            [-0.43788487149971234, 51.917954875801],
            [-0.43743062656062554, 51.91636744115387],
            [-0.438349360423583, 51.91552582882058],
            [-0.4381410769875122, 51.914571451716114],
            [-0.4387492104182624, 51.91394774834186],
            [-0.43891547440611367, 51.91172806842577],
            [-0.4390259610774293, 51.91159292452938],
            [-0.43927573788804974, 51.91119391548651],
            [-0.43927824623085093, 51.911172716485126],
            [-0.4414530193034772, 51.90933551016933],
            [-0.4416535910662074, 51.90931788332068],
            [-0.44274826968425673, 51.90834318562782],
            [-0.44363820296643747, 51.90808053288228],
            [-0.444363604212484, 51.90828500555389],
            [-0.44445435715262116, 51.908265563251234],
            [-0.44494619576385774, 51.90800568346102],
            [-0.4466123511599476, 51.90806771675589],
            [-0.4478211727138832, 51.90663129319284],
            [-0.44862725378521945, 51.90680609979161],
            [-0.44909756147224583, 51.906559759251174],
            [-0.4506913179423152, 51.906883331572416]
          ]
        ]
      }
    },
    {
      "type": "Feature",
      "properties": {
        "db_school_name": "Icknield Primary School",
        "urn": "109579",
        "n_samples": 52,
        "margin_m": 114.1
      },
      "geometry": {
        "type": "Polygon",
        "coordinates": [
          [
            [-0.4408590251168166, 51.90305242391534],
            [-0.441556173163698, 51.902798125030394],
            [-0.4427585342625695, 51.904743673595405],
            [-0.44418499929458455, 51.90464025422395],
            [-0.4445901330288011, 51.903868483418314],
            [-0.44461678048197956, 51.90383905623931],
            [-0.4451322355575555, 51.90361405266672],
            [-0.44615298589418406, 51.90363140848523],
            [-0.446311574914353, 51.903917239586725],
            [-0.4476151952791164, 51.904306323060624],
            [-0.4484020436253297, 51.90370573789106],
            [-0.44983265088412366, 51.904178272429284],
            [-0.44909756147224583, 51.906559759251174],
            [-0.44862725378521945, 51.90680609979161],
            [-0.4478211727138832, 51.90663129319284],
            [-0.44765835042802765, 51.90646065549446],
            [-0.44580956328275706, 51.905790577182415],
            [-0.44494619576385774, 51.90800568346102],
            [-0.44445435715262116, 51.908265563251234],
            [-0.444363604212484, 51.90828500555389],
            [-0.44363820296643747, 51.90808053288228],
            [-0.44274826968425673, 51.90834318562782],
            [-0.4416535910662074, 51.90931788332068],
            [-0.4414530193034772, 51.90933551016933],
            [-0.43927824623085093, 51.911172716485126],
            [-0.43927573788804974, 51.91119391548651],
            [-0.4390259610774293, 51.91159292452938],
            [-0.43891547440611367, 51.91172806842577],
            [-0.4387492104182624, 51.91394774834186],
            [-0.4381410769875122, 51.914571451716114],
            [-0.4375238736015549, 51.91454014305597],
            [-0.4362654748151358, 51.915779957329924],
            [-0.43539843670557193, 51.91537246764566],
            [-0.4340471037187426, 51.916103886775126],
            [-0.4333495880888431, 51.91550013370379],
            [-0.43326740756205057, 51.914969848102274],
            [-0.4324048327597025, 51.91388027215515],
            [-0.43145399791793376, 51.91397960962018],
            [-0.430430472587735, 51.91346609251458],
            [-0.4300981564054046, 51.91358642906625],
            [-0.4289041883862641, 51.91324698283211],
            [-0.42857527615960844, 51.91211787151967],
            [-0.4289847150522706, 51.91052204349622],
            [-0.4286032234390051, 51.90953779146757],
            [-0.4285150688177167, 51.90899406052115],
            [-0.4268629346580098, 51.90820301402106],
            [-0.4250840874620767, 51.90911153715742],
            [-0.4244079941756193, 51.90865963413217],
            [-0.42395086616186534, 51.90677631616446],
            [-0.42629229594710355, 51.90610830407875],
            [-0.4236073868221618, 51.905101650295094],
            [-0.42358682023552846, 51.904743304388305],
            [-0.423689328168024, 51.90463294380392],
            [-0.42638638819009267, 51.90404087330595],
            [-0.42678728241514025, 51.904205836667614],
            [-0.4276993721736095, 51.90336513909572],
            [-0.4282996383161177, 51.90329535543073],
            [-0.4288142131408692, 51.90306488325284],
            [-0.4301702174258723, 51.903992237792586],
            [-0.4308208852866061, 51.90520714735222],
            [-0.43237979380654906, 51.90509117995296],
            [-0.4337090446539883, 51.90583299676406],
            [-0.4342821611110088, 51.90383129442151],
            [-0.43545331177165836, 51.903133377382375],
            [-0.43552166551219457, 51.902454214879555],
            [-0.4370478309981858, 51.90265836133193],
            [-0.4376616011807583, 51.902499660327855],
            [-0.4380323661452199, 51.90275341139634],
            [-0.4391796333884717, 51.90236981472512],
            [-0.43929487487475005, 51.90237736683676],
            [-0.4408590251168166, 51.90305242391534]
          ]
        ]
      }
    },
    {
      "type": "Feature",
      "properties": {
        "db_school_name": "Denbigh Primary School",
        "urn": "109534",
        "n_samples": 19,
        "margin_m": 108.2
      },
      "geometry": {
        "type": "Polygon",
        "coordinates": [
          [
            [-0.43648760398269815, 51.89197189434371],
            [-0.4370224675757817, 51.89243069866754],
            [-0.4373409370809921, 51.89258681616844],
            [-0.4377749018494449, 51.892916818999495],
            [-0.43786263274653886, 51.89308065366766],
            [-0.4382127192402189, 51.893534426967136],
            [-0.43878566454262063, 51.89406130693334],
            [-0.4393812036346161, 51.89444381731494],
            [-0.439731552734375, 51.89458969193648],
            [-0.4398100624798042, 51.896242754832784],
            [-0.43877323969457005, 51.89796012570323],
            [-0.43837364573195964, 51.897999278495135],
            [-0.43709822818454597, 51.89783433386306],
            [-0.4366318598593111, 51.89787109242833],
            [-0.43648763265592344, 51.897256144344006],
            [-0.4361082306791074, 51.896460370171056],
            [-0.4354846808345961, 51.89576680095549],
            [-0.43503881641977643, 51.89551903639606],
            [-0.43320915846783087, 51.89687751288516],
            [-0.43257501368561113, 51.89588378440192],
            [-0.4319898372049978, 51.89538661398766],
            [-0.4301735717818858, 51.89451080254157],
            [-0.4301617664750269, 51.8942705],
            [-0.430169846508276, 51.89410602714479],
            [-0.43133340821723115, 51.893713794246125],
            [-0.4301691855323629, 51.89410624995763],
            [-0.43012558821407815, 51.89405814772951],
            [-0.4300742472441857, 51.89398892244524],
            [-0.4300743997885387, 51.89398876905207],
            [-0.4299931522704896, 51.89392851178592],
            [-0.4297971942296446, 51.893750905770354],
            [-0.42961958821407814, 51.89355494772951],
            [-0.42957706996269684, 51.89349761850405],
            [-0.429577514245139, 51.89349716710455],
            [-0.42948575227048963, 51.89342911178592],
            [-0.4292897942296446, 51.89325150577035],
            [-0.42911218821407815, 51.89305554772951],
            [-0.4290801280580932, 51.89301231961332],
            [-0.42907959879838553, 51.893013086465125],
            [-0.42885659358866757, 51.8929332939252],
            [-0.4286175171303647, 51.89282021918168],
            [-0.4283906751535584, 51.892684255333194],
            [-0.4281782522704896, 51.892526711785926],
            [-0.42798229422964457, 51.89234910577036],
            [-0.42780468821407813, 51.892153147729516],
            [-0.42764714466680953, 51.89194072484644],
            [-0.427511180818321, 51.89171388286964],
            [-0.4273981060747989, 51.89147480641134],
            [-0.4273090094078363, 51.891225797908525],
            [-0.4272447488670412, 51.8909692554492],
            [-0.42720594331654993, 51.8907076496775],
            [-0.4271929664750269, 51.8904435],
            [-0.42720594331654993, 51.890179350322505],
            [-0.4272447488670412, 51.88991774455081],
            [-0.4273090094078363, 51.88966120209148],
            [-0.4273843017238768, 51.88945077416494],
            [-0.4303868093206379, 51.89007530105454],
            [-0.42738547401529026, 51.889451018003626],
            [-0.42739414331654996, 51.889274550322504],
            [-0.42743294886704125, 51.88901294455081],
            [-0.4274972094078363, 51.88875640209148],
            [-0.4275863060747989, 51.88850739358867],
            [-0.42769938081832104, 51.88826831713037],
            [-0.42783534466680956, 51.888041475153564],
            [-0.42799288821407816, 51.88782905227049],
            [-0.4281704942296446, 51.88763309422965],
            [-0.4282067637372198, 51.88760022146413],
            [-0.43030795288075724, 51.88816966435744],
            [-0.43174204639566094, 51.88795864176735],
            [-0.43331196433544245, 51.89015557127138],
            [-0.43333506460259164, 51.89016403579414],
            [-0.43352327233345944, 51.890520705642416],
            [-0.43399189396381366, 51.891143974225045],
            [-0.43448643326586117, 51.89160631782486],
            [-0.43460975988695505, 51.89168848103764],
            [-0.43648760398269815, 51.89197189434371]
          ]
        ]
      }
    },
    {
      "type": "Feature",
      "properties": {
        "db_school_name": "Beech Hill Community Primary School",
        "urn": "131089",
        "n_samples": 11,
        "margin_m": 106.8
      },
      "geometry": {
        "type": "Polygon",
        "coordinates": [
          [
            [-0.4361921395755562, 51.88374223629441],
            [-0.4371157789111219, 51.88384772214016],
            [-0.4373316969832236, 51.884309125993965],
            [-0.4378658434261494, 51.88500512215032],
            [-0.4387989817938109, 51.88571147921347],
            [-0.43957314999582275, 51.88600943433202],
            [-0.4381419547851541, 51.888638393619075],
            [-0.4372698898819766, 51.888254062333495],
            [-0.4370937985894234, 51.88823401757469],
            [-0.43667060570334315, 51.88781869903449],
            [-0.4359781544768372, 51.887506400456374],
            [-0.43574587547618454, 51.88728516891652],
            [-0.435365952100363, 51.88712799175197],
            [-0.4342789013771699, 51.8872775064672],
            [-0.4335461212568779, 51.88989536381846],
            [-0.43333506460259164, 51.89016403579414],
            [-0.43331196433544245, 51.89015557127138],
            [-0.43174204639566094, 51.88795864176735],
            [-0.43030795288075724, 51.88816966435744],
            [-0.42820695229978245, 51.887600272566445],
            [-0.42820124122852177, 51.88757747269192],
            [-0.4289707789494878, 51.88664937252531],
            [-0.42943301987311006, 51.88639465583497],
            [-0.43073552091781947, 51.88406239400517],
            [-0.4311337788854179, 51.884270830520535],
            [-0.4326341824560701, 51.884172229385186],
            [-0.43267684682125535, 51.88415443031121],
            [-0.43302577578981655, 51.884177388829414],
            [-0.43319607509436703, 51.88424448440161],
            [-0.4358193952855541, 51.88353203981146],
            [-0.4361921395755562, 51.88374223629441]
          ]
        ]
      }
    },
    {
      "type": "Feature",
      "properties": {
        "db_school_name": "Dallow Primary School",
        "urn": "139705",
        "n_samples": 38,
        "margin_m": 189.3
      },
      "geometry": {
        "type": "Polygon",
        "coordinates": [
          [
            [-0.42554343179449033, 51.8772377211758],
            [-0.42570428539940863, 51.87732622767006],
            [-0.42851136145892815, 51.87701688496208],
            [-0.42853806206792866, 51.877025783582404],
            [-0.4298683069205649, 51.87626468412476],
            [-0.4318681988381516, 51.87597500195888],
            [-0.43204560577035545, 51.87613579422965],
            [-0.4322232117859219, 51.87633175227049],
            [-0.4323807553331905, 51.87654417515356],
            [-0.432516719181679, 51.876771017130366],
            [-0.4326297939252011, 51.877010093588666],
            [-0.43271889059216373, 51.87725910209148],
            [-0.4327831511329588, 51.877515644550805],
            [-0.4328219566834501, 51.8777772503225],
            [-0.4328349335249731, 51.8780414],
            [-0.4328269196889998, 51.878204525378706],
            [-0.4325286342460131, 51.87846084738789],
            [-0.4319616914865597, 51.88156662364158],
            [-0.4326555241387402, 51.88180899073211],
            [-0.4329163011571399, 51.88176184728502],
            [-0.43354160367043976, 51.882000411921844],
            [-0.4338578955583047, 51.8819570026661],
            [-0.43528988652780126, 51.88254756297082],
            [-0.4358193952855541, 51.88353203981146],
            [-0.43319607509436703, 51.88424448440161],
            [-0.43302577578981655, 51.884177388829414],
            [-0.43267684682125535, 51.88415443031121],
            [-0.4326341824560701, 51.884172229385186],
            [-0.4311337788854179, 51.884270830520535],
            [-0.43073552091781947, 51.88406239400517],
            [-0.42943301987311006, 51.88639465583497],
            [-0.4289707789494878, 51.88664937252531],
            [-0.42820069620413737, 51.887578130018014],
            [-0.42815035032250387, 51.88757565668345],
            [-0.42788874455080095, 51.88753685113296],
            [-0.42763220209148095, 51.88747259059216],
            [-0.42738319358866755, 51.8873834939252],
            [-0.4271441171303647, 51.887270419181675],
            [-0.4269172751535584, 51.88713445533319],
            [-0.4267048522704896, 51.88697691178592],
            [-0.42650889422964455, 51.88679930577035],
            [-0.42649542553991093, 51.886784445361236],
            [-0.4264174883458664, 51.88667571683035],
            [-0.42521637988730937, 51.88619991062015],
            [-0.4248976494489121, 51.88577825593937],
            [-0.4240413261370173, 51.88516826060466],
            [-0.4236828173999601, 51.88419920169693],
            [-0.4208204288230863, 51.88437612200858],
            [-0.4207853962569152, 51.88432952975763],
            [-0.42101899192057124, 51.88359008736887],
            [-0.4206373465868501, 51.88233121589742],
            [-0.42021218834350976, 51.88191309129839],
            [-0.41973956587862454, 51.88168594838803],
            [-0.41894422394707675, 51.88172091703039],
            [-0.4182998584928324, 51.88189582470529],
            [-0.41819758000363644, 51.88181567119357],
            [-0.41787895434988315, 51.88125242345693],
            [-0.4179130162019811, 51.88115416973692],
            [-0.41814041964728604, 51.87972904651937],
            [-0.41753326216726894, 51.8793356944305],
            [-0.41829929252894693, 51.877965108397234],
            [-0.4183886671858995, 51.87793526494592],
            [-0.4183997416513488, 51.87792880420159],
            [-0.4193359928912064, 51.878205982744454],
            [-0.41947666494483604, 51.87817591998669],
            [-0.4210075373815167, 51.8788919190055],
            [-0.4211170975990521, 51.87888230789697],
            [-0.42173411455884596, 51.87957672931588],
            [-0.42362024822457645, 51.87802881950422],
            [-0.423895444820218, 51.87803486019069],
            [-0.42430178540633795, 51.877921928242394],
            [-0.42457090337336173, 51.87768235263444],
            [-0.42554343179449033, 51.8772377211758]
          ]
        ]
      }
    },
    {
      "type": "Feature",
      "properties": {
        "db_school_name": "Stopsley Community Primary School",
        "urn": "109553",
        "n_samples": 47,
        "margin_m": 123.3
      },
      "geometry": {
        "type": "MultiPolygon",
        "coordinates": [
          [
            [
              [-0.40955635810419905, 51.89424252314072],
              [-0.41117493343886397, 51.89452131792493],
              [-0.41132074245239886, 51.895598328524535],
              [-0.4115116118107665, 51.896068430895276],
              [-0.40992850202051634, 51.89820168614325],
              [-0.41007009552473733, 51.89862653263099],
              [-0.40992946477346937, 51.899118802285166],
              [-0.41010248382772985, 51.901013304270194],
              [-0.4099814042645556, 51.901658876803516],
              [-0.4096373432342337, 51.90196628856196],
              [-0.40782951716047716, 51.90290753075349],
              [-0.40765210209148095, 51.90286309059216],
              [-0.40740309358866755, 51.9027739939252],
              [-0.4071640171303647, 51.90266091918168],
              [-0.4069371751535584, 51.90252495533319],
              [-0.4067247522704896, 51.902367411785924],
              [-0.40652879422964455, 51.902189805770355],
              [-0.4063511882140781, 51.901993847729514],
              [-0.4061936446668095, 51.90178142484644],
              [-0.406057680818321, 51.901554582869636],
              [-0.406039633040954, 51.90151642405045],
              [-0.40772648962094793, 51.89978285538746],
              [-0.40604070524292135, 51.90151532215728],
              [-0.40593561713036475, 51.90146561918168],
              [-0.4057087751535584, 51.90132965533319],
              [-0.40557826161827154, 51.90123285989845],
              [-0.4053621465185936, 51.89991559992646],
              [-0.40557875727714005, 51.90123588102742],
              [-0.40543401178592187, 51.90143104772951],
              [-0.40525640577035543, 51.90162700577035],
              [-0.4050604477295104, 51.90180461178592],
              [-0.40494631157055966, 51.90188926093055],
              [-0.40248311064679304, 51.900534313910555],
              [-0.40494683937304615, 51.90188955126189],
              [-0.40494305668345004, 51.901966549677496],
              [-0.40490425113295875, 51.902228155449194],
              [-0.4048399905921637, 51.90248469790852],
              [-0.4047508939252011, 51.90273370641133],
              [-0.40463781918167896, 51.90297278286963],
              [-0.40450185533319044, 51.90319962484644],
              [-0.40434431178592184, 51.90341204772951],
              [-0.4041667057703554, 51.90360800577035],
              [-0.40397074772951036, 51.90378561178592],
              [-0.4037583248464416, 51.90394315533319],
              [-0.40353148286963525, 51.904079119181674],
              [-0.4032924064113324, 51.9041921939252],
              [-0.403043397908519, 51.90428129059216],
              [-0.402786855449199, 51.904345551132955],
              [-0.4025252496774961, 51.90438435668345],
              [-0.4022611, 51.90439733352497],
              [-0.4019969503225039, 51.90438435668345],
              [-0.40173534455080095, 51.904345551132955],
              [-0.401494835042414, 51.9042853066373],
              [-0.4010003319689463, 51.90236487787795],
              [-0.4014948038029828, 51.90428518531732],
              [-0.4014820057703554, 51.90429930577035],
              [-0.4012860477295104, 51.90447691178592],
              [-0.4010736248464416, 51.90463445533319],
              [-0.40084678286963527, 51.90477041918167],
              [-0.4006077064113324, 51.9048834939252],
              [-0.400358697908519, 51.90497259059216],
              [-0.400102155449199, 51.905036851132955],
              [-0.3998405496774961, 51.90507565668345],
              [-0.3995764, 51.90508863352497],
              [-0.39949235177024695, 51.905084504500216],
              [-0.39949230792038365, 51.905084403458005],
              [-0.3993752057703554, 51.905213605770356],
              [-0.39917924772951036, 51.905391211785926],
              [-0.3989668248464416, 51.90554875533319],
              [-0.39873998286963525, 51.90568471918168],
              [-0.3985009064113324, 51.9057977939252],
              [-0.398251897908519, 51.905886890592164],
              [-0.397995355449199, 51.90595115113296],
              [-0.3977337496774961, 51.905989956683456],
              [-0.3974696, 51.906002933524974],
              [-0.3972054503225039, 51.905989956683456],
              [-0.39694384455080095, 51.90595115113296],
              [-0.39668730209148095, 51.905886890592164],
              [-0.39643829358866756, 51.9057977939252],
              [-0.3961992171303647, 51.90568471918168],
              [-0.3959723751535584, 51.90554875533319],
              [-0.3959369568183878, 51.90552248730557],
              [-0.3959367431883046, 51.905520690499515],
              [-0.3958334057703554, 51.90563470577035],
              [-0.39563744772951037, 51.90581231178592],
              [-0.3954250248464416, 51.90596985533319],
              [-0.39519818286963526, 51.906105819181676],
              [-0.3949591064113324, 51.9062188939252],
              [-0.394710097908519, 51.90630799059216],
              [-0.394453555449199, 51.90637225113296],
              [-0.3941919496774961, 51.90641105668345],
              [-0.39409150868095943, 51.9064159910332],
              [-0.39409147091059027, 51.90641591147695],
              [-0.3940186057703554, 51.906496305770354],
              [-0.39382264772951037, 51.90667391178592],
              [-0.3936102248464416, 51.90683145533319],
              [-0.39338338286963526, 51.906967419181676],
              [-0.3931443064113324, 51.9070804939252],
              [-0.39304432289554725, 51.90711626859918],
              [-0.3914256946240247, 51.90535531508692],
              [-0.3911495183533252, 51.90434244605455],
              [-0.39045595783285464, 51.90381771944331],
              [-0.389439819211531, 51.90415695511705],
              [-0.38920673324577626, 51.90407952091974],
              [-0.3882284016027142, 51.90202465520047],
              [-0.3873993022795856, 51.90216558967175],
              [-0.3862884911317027, 51.90071920064381],
              [-0.3864027352791945, 51.900182386692926],
              [-0.38462249845429625, 51.8989178425076],
              [-0.38583966845176865, 51.898322722127155],
              [-0.3863449443831727, 51.89632148182879],
              [-0.3878485628831224, 51.89730551700513],
              [-0.387884864536057, 51.89729879315779],
              [-0.3887291822029205, 51.89653688985578],
              [-0.38995978081010263, 51.89765310850014],
              [-0.3901011512303191, 51.89861448660137],
              [-0.3901404811625966, 51.898670826555325],
              [-0.3913439392671102, 51.897960179366635],
              [-0.3928012806055941, 51.898238819303884],
              [-0.39405221200390916, 51.89740692828728],
              [-0.39472888057465716, 51.89782824901612],
              [-0.3957932294846958, 51.90013538935699],
              [-0.39809157394716277, 51.89778661972475],
              [-0.39838721582960895, 51.89779564126881],
              [-0.39981154043110734, 51.89844440573106],
              [-0.4011508954276899, 51.89666019788204],
              [-0.4009212317240102, 51.89566052467623],
              [-0.39974750765350675, 51.89526200681228],
              [-0.3990704245309759, 51.89340984917118],
              [-0.4011099035015085, 51.89277027405136],
              [-0.40111171653758637, 51.892763353020314],
              [-0.4015408910112777, 51.89203569057528],
              [-0.4021527627127063, 51.89160781025959],
              [-0.4037160873085766, 51.892318922380625],
              [-0.4042843917449012, 51.892182613679886],
              [-0.406414868186104, 51.893443667749864],
              [-0.406581985778462, 51.893334075452756],
              [-0.4071059128230011, 51.892476691430446],
              [-0.4085796595610421, 51.89183645676534],
              [-0.4088885934983153, 51.89182179277656],
              [-0.4092546075314717, 51.892419251875324],
              [-0.40955635810419905, 51.89424252314072]
            ]
          ],
          [
            [
              [-0.3940766942296446, 51.908089194229646],
              [-0.39427265227048963, 51.90791158821408],
              [-0.3944850751535584, 51.90775404466681],
              [-0.39471191713036474, 51.907618080818324],
              [-0.3949509935886676, 51.9075050060748],
              [-0.395200002091481, 51.90741590940784],
              [-0.395456544550801, 51.90735164886704],
              [-0.3957181503225039, 51.90731284331655],
              [-0.3959823, 51.90729986647503],
              [-0.3962464496774961, 51.90731284331655],
              [-0.39650805544919904, 51.90735164886704],
              [-0.39676459790851903, 51.90741590940784],
              [-0.39701360641133243, 51.9075050060748],
              [-0.3972526828696353, 51.907618080818324],
              [-0.3974795248464416, 51.90775404466681],
              [-0.3976919477295104, 51.90791158821408],
              [-0.39788790577035543, 51.908089194229646],
              [-0.39806551178592187, 51.90828515227049],
              [-0.39822305533319047, 51.90849757515356],
              [-0.398359019181679, 51.908724417130365],
              [-0.3984720939252011, 51.908963493588665],
              [-0.3985611905921637, 51.90921250209148],
              [-0.3986254511329588, 51.909469044550804],
              [-0.39866425668345007, 51.9097306503225],
              [-0.3986772335249731, 51.9099948],
              [-0.39866425668345007, 51.9102589496775],
              [-0.3986254511329588, 51.910520555449196],
              [-0.3985611905921637, 51.91077709790852],
              [-0.3984720939252011, 51.911026106411335],
              [-0.398359019181679, 51.911265182869634],
              [-0.39822305533319047, 51.91149202484644],
              [-0.39806551178592187, 51.91170444772951],
              [-0.39788790577035543, 51.91190040577035],
              [-0.3976919477295104, 51.91207801178592],
              [-0.3974795248464416, 51.91223555533319],
              [-0.3972526828696353, 51.912371519181676],
              [-0.39701360641133243, 51.9124845939252],
              [-0.39676459790851903, 51.91257369059216],
              [-0.39650805544919904, 51.91263795113296],
              [-0.3962464496774961, 51.91267675668345],
              [-0.3959823, 51.91268973352497],
              [-0.3957181503225039, 51.91267675668345],
              [-0.395456544550801, 51.91263795113296],
              [-0.395200002091481, 51.91257369059216],
              [-0.3949509935886676, 51.9124845939252],
              [-0.39471191713036474, 51.912371519181676],
              [-0.3944850751535584, 51.91223555533319],
              [-0.39427265227048963, 51.91207801178592],
              [-0.3940766942296446, 51.91190040577035],
              [-0.39389908821407815, 51.91170444772951],
              [-0.39374154466680955, 51.91149202484644],
              [-0.39360558081832103, 51.911265182869634],
              [-0.3934925060747989, 51.911026106411335],
              [-0.3934034094078363, 51.91077709790852],
              [-0.39333914886704124, 51.910520555449196],
              [-0.39330034331654995, 51.9102589496775],
              [-0.39328736647502693, 51.9099948],
              [-0.39330034331654995, 51.9097306503225],
              [-0.39333914886704124, 51.909469044550804],
              [-0.3934034094078363, 51.90921250209148],
              [-0.3934925060747989, 51.908963493588665],
              [-0.39360558081832103, 51.908724417130365],
              [-0.39374154466680955, 51.90849757515356],
              [-0.39389908821407815, 51.90828515227049],
              [-0.3940766942296446, 51.908089194229646]
            ]
          ],
          [
            [
              [-0.390836, 51.90899196647503],
              [-0.3911001496774961, 51.909004943316546],
              [-0.39136175544919904, 51.90904374886704],
              [-0.39161829790851904, 51.90910800940784],
              [-0.39186730641133244, 51.9091971060748],
              [-0.3921063828696353, 51.90931018081832],
              [-0.3923332248464416, 51.90944614466681],
              [-0.3925456477295104, 51.90960368821408],
              [-0.39274160577035544, 51.909781294229646],
              [-0.3929192117859219, 51.90997725227049],
              [-0.3930767553331905, 51.91018967515356],
              [-0.393212719181679, 51.910416517130365],
              [-0.3933257939252011, 51.910655593588665],
              [-0.3934148905921637, 51.91090460209148],
              [-0.3934791511329588, 51.9111611445508],
              [-0.3935179566834501, 51.9114227503225],
              [-0.3935309335249731, 51.9116869],
              [-0.3935179566834501, 51.9119510496775],
              [-0.3934791511329588, 51.912212655449196],
              [-0.3934148905921637, 51.91246919790852],
              [-0.3933257939252011, 51.912718206411334],
              [-0.393212719181679, 51.912957282869634],
              [-0.3930767553331905, 51.91318412484644],
              [-0.3929192117859219, 51.91339654772951],
              [-0.39274160577035544, 51.91359250577035],
              [-0.3925456477295104, 51.91377011178592],
              [-0.3923332248464416, 51.91392765533319],
              [-0.3921063828696353, 51.914063619181675],
              [-0.39186730641133244, 51.9141766939252],
              [-0.39161829790851904, 51.91426579059216],
              [-0.39136175544919904, 51.91433005113296],
              [-0.3911001496774961, 51.91436885668345],
              [-0.390836, 51.91438183352497],
              [-0.3905718503225039, 51.91436885668345],
              [-0.390310244550801, 51.91433005113296],
              [-0.390053702091481, 51.91426579059216],
              [-0.3898046935886676, 51.9141766939252],
              [-0.38956561713036475, 51.914063619181675],
              [-0.3893387751535584, 51.91392765533319],
              [-0.38912635227048964, 51.91377011178592],
              [-0.3889303942296446, 51.91359250577035],
              [-0.38875278821407816, 51.91339654772951],
              [-0.38859524466680956, 51.91318412484644],
              [-0.38845928081832104, 51.912957282869634],
              [-0.3883462060747989, 51.912718206411334],
              [-0.3882571094078363, 51.91246919790852],
              [-0.38819284886704125, 51.912212655449196],
              [-0.388179201873916, 51.912120654894565],
              [-0.38913195426505487, 51.90959953349175],
              [-0.3893387751535584, 51.90944614466681],
              [-0.38956561713036475, 51.90931018081832],
              [-0.3898046935886676, 51.9091971060748],
              [-0.390053702091481, 51.90910800940784],
              [-0.390310244550801, 51.90904374886704],
              [-0.3905718503225039, 51.909004943316546],
              [-0.390836, 51.90899196647503]
            ]
          ]
        ]
      }
    },
    {
      "type": "Feature",
      "properties": {
        "db_school_name": "Ramridge Primary School",
        "urn": "134155",
        "n_samples": 45,
        "margin_m": 264.1
      },
      "geometry": {
        "type": "Polygon",
        "coordinates": [
          [
            [-0.4003165008941524, 51.88730328830008],
            [-0.40058066443310403, 51.88716905925334],
            [-0.4026690746093076, 51.88704302039772],
            [-0.4030912010231954, 51.88743044363729],
            [-0.4029082452954229, 51.888696423972306],
            [-0.40309416175358426, 51.88979815467295],
            [-0.40224858205543723, 51.890830544510834],
            [-0.4021527627127063, 51.89160781025959],
            [-0.4015408910112777, 51.89203569057528],
            [-0.40111171653758637, 51.892763353020314],
            [-0.4011099035015085, 51.89277027405136],
            [-0.3990704245309759, 51.89340984917118],
            [-0.39974750765350675, 51.89526200681228],
            [-0.4009212317240102, 51.89566052467623],
            [-0.4011508954276899, 51.89666019788204],
            [-0.39981154043110734, 51.89844440573106],
            [-0.39838721582960895, 51.89779564126881],
            [-0.39809157394716277, 51.89778661972475],
            [-0.3957932294846958, 51.90013538935699],
            [-0.39472888057465716, 51.89782824901612],
            [-0.39405221200390916, 51.89740692828728],
            [-0.3928012806055941, 51.898238819303884],
            [-0.3913439392671102, 51.897960179366635],
            [-0.3901404811625966, 51.898670826555325],
            [-0.3901011512303191, 51.89861448660137],
            [-0.38995978081010263, 51.89765310850014],
            [-0.3887291822029205, 51.89653688985578],
            [-0.387884864536057, 51.89729879315779],
            [-0.3878485628831224, 51.89730551700513],
            [-0.3863449443831727, 51.89632148182879],
            [-0.3862539081151644, 51.8961718621351],
            [-0.38611826989632136, 51.89574625092305],
            [-0.3848487110872757, 51.895203992131115],
            [-0.3845963872479162, 51.89485129435827],
            [-0.38451297099422294, 51.89480151364263],
            [-0.38349226084253085, 51.891273812907194],
            [-0.38405144172074274, 51.891023203892864],
            [-0.38452618918143255, 51.89112381850455],
            [-0.38675186447582993, 51.89073397704914],
            [-0.38749729286317347, 51.88950746025081],
            [-0.3877246687712876, 51.888737933624434],
            [-0.38772707246817384, 51.88870598394112],
            [-0.3898264962075717, 51.887518112116545],
            [-0.38985693442139385, 51.887360378970484],
            [-0.3912378548941858, 51.8859128930115],
            [-0.39176630416506864, 51.88565246522142],
            [-0.39308076313211776, 51.88545034772872],
            [-0.3937972758384064, 51.884303482607116],
            [-0.39397099320789103, 51.8842126806661],
            [-0.3955637376101219, 51.88494270451239],
            [-0.3963078038940372, 51.88652642627395],
            [-0.39718956389314813, 51.886423512375266],
            [-0.3980403172359958, 51.88768150206435],
            [-0.39863129472438114, 51.88774372069437],
            [-0.39999663494034665, 51.887210761178444],
            [-0.4003165008941524, 51.88730328830008]
          ],
          [
            [-0.39479105119387475, 51.888881597236825],
            [-0.3947515503225039, 51.88887965668345],
            [-0.394489944550801, 51.888840851132954],
            [-0.3942696219012864, 51.88878566318222],
            [-0.3942695325496368, 51.888785412508255],
            [-0.39413801178592184, 51.888962747729515],
            [-0.3939604057703554, 51.889158705770356],
            [-0.3939187899502865, 51.88919642415106],
            [-0.39281696483995576, 51.88968856032135],
            [-0.393918462159446, 51.88919657056062],
            [-0.3941221, 51.889186566475026],
            [-0.3943862496774961, 51.88919954331654],
            [-0.394647855449199, 51.88923834886704],
            [-0.394904397908519, 51.889302609407835],
            [-0.3951534064113324, 51.8893917060748],
            [-0.39516389335823676, 51.88939666603129],
            [-0.39574024915696626, 51.889800009562535],
            [-0.3951733386870485, 51.88940327603206],
            [-0.3950583882140781, 51.889276447729515],
            [-0.3949008446668095, 51.88906402484644],
            [-0.39479128456657675, 51.888881234862254],
            [-0.3963078038940372, 51.88652642627395],
            [-0.39479105119387475, 51.888881597236825]
          ]
        ]
      }
    }
  ]
}
