{"type":"FeatureCollection","features":[{"type":"Feature","properties":{"urn":"105935","db_school_name":"Christ Church CofE Primary School"},"geometry":{"type":"Polygon","coordinates":[[[-2.3594285716590635,53.48867791474424],[-2.3598202902550898,53.48825667306961],[-2.3600547655486532,53.48793877658914],[-2.3601173750931026,53.48769426589136],[-2.3601926409532563,53.48639956111101],[-2.3600189580173594,53.48456123997368],[-2.3601319019362097,53.484320863738155],[-2.3605090924540235,53.48388680418212],[-2.361186919590522,53.48331467129103],[-2.36151090867673,53.482542147410264],[-2.361565404532657,53.48219050141835],[-2.3611959805969858,53.48184442454948],[-2.3603351051584376,53.48116549464927],[-2.3598579174724086,53.48081973870011],[-2.3598574093296993,53.48075973126315],[-2.359957643303657,53.48071656565277],[-2.3599285019909586,53.48066950357625],[-2.3589811926917856,53.479960819822196],[-2.358077640424943,53.479324865376086],[-2.356493497288071,53.47806941597154],[-2.3564933534750234,53.478052270975354],[-2.3564717983319716,53.478052335317265],[-2.356406737512775,53.47800537957951],[-2.3563848948553314,53.47797115391259],[-2.3563561187797446,53.47796695342561],[-2.3563342761828703,53.4779327277491],[-2.356305500138243,53.47792852724986],[-2.3561029187468994,53.477761963580186],[-2.3559803070487777,53.47770660648883],[-2.3559800198403695,53.47767231649242],[-2.355922539968993,53.47767248781448],[-2.3559149960405126,53.47762964673173],[-2.355857480337787,53.477625531772794],[-2.3558571573407248,53.477586955525766],[-2.3558282739199807,53.47756989616182],[-2.3557779791528404,53.477570046006086],[-2.3557705071479997,53.477535777412726],[-2.355705842498775,53.47753597003441],[-2.3556982988133504,53.477493128936565],[-2.355640819182374,53.47749330012278],[-2.3556333473017705,53.47745903152018],[-2.3555972432502448,53.47743770724571],[-2.3555038031175766,53.47743369908011],[-2.355200351825623,53.47723314324944],[-2.3549467321841466,53.4769767159076],[-2.35490764889904,53.47573807478134],[-2.3546690529940753,53.47555875659329],[-2.3546402787192022,53.47555455568852],[-2.3545758316145404,53.475580465204246],[-2.3544393236119605,53.47558087043431],[-2.3544035434105335,53.47559812205508],[-2.3543894243072176,53.47562816846003],[-2.3543319829205585,53.475632625264474],[-2.354310679109595,53.47566269297719],[-2.354238904097789,53.47567147862008],[-2.354203266616283,53.47570587518809],[-2.354138711876715,53.475718925712826],[-2.3541317772069075,53.475748950781124],[-2.3540599663071573,53.475753450064886],[-2.3540315846838316,53.475796397783945],[-2.3530294335401947,53.476245145679776],[-2.353051308211712,53.476283658227615],[-2.3534335257379433,53.47645398193971],[-2.3539604776802987,53.47674817988651],[-2.354170659321148,53.476966160941096],[-2.354173016713028,53.477249053494596],[-2.3539736597377376,53.47746824874273],[-2.353560070378837,53.477846673263684],[-2.352658315047857,53.47827797513243],[-2.351898860511191,53.47854168306211],[-2.351217618793225,53.47870656998151],[-2.350895454350034,53.478848966724065],[-2.35067430511603,53.4790425022763],[-2.350595267701335,53.47904273433241],[-2.350595692023532,53.479094169344926],[-2.3505382455516335,53.47909862433151],[-2.350538599096627,53.479141486841854],[-2.350481152554733,53.47914594180111],[-2.3504812939498483,53.479163086805215],[-2.3504525883357292,53.47916745740007],[-2.350452941795283,53.479210319910266],[-2.350395495151287,53.47921477482846],[-2.350395742533027,53.479244778585574],[-2.350338331170889,53.47925351972737],[-2.3503385431780863,53.47927923723347],[-2.3502669025445018,53.479305165500705],[-2.350209808968898,53.47935248283993],[-2.3501380268754017,53.47936126602587],[-2.3501023829936054,53.479395661359966],[-2.3500520860363845,53.47939580879806],[-2.3500451478927817,53.479425833616254],[-2.349966145057612,53.4794303515085],[-2.34996628624658,53.47944749651273],[-2.3498873892305157,53.479464873106174],[-2.3498446303320923,53.47950786191638],[-2.349472157956007,53.47965040215038],[-2.3493931194014417,53.47965063341329],[-2.349378995423415,53.479680679213644],[-2.3493143627003943,53.47968515463347],[-2.3493001681943926,53.47970662792213],[-2.349235641095358,53.479723962053],[-2.349221552204472,53.47975829408577],[-2.3491713252487476,53.47976701365624],[-2.349171571771835,53.47979701741449],[-2.349107009271964,53.479810065224775],[-2.349107255750064,53.479840068983016],[-2.3490426227556305,53.47984454425622],[-2.349021207497029,53.479861752260575],[-2.3490073999974155,53.479930374276904],[-2.3488432271942776,53.480063730912455],[-2.348228479520907,53.480455583197525],[-2.3478213640530097,53.480756814327876],[-2.34747081607811,53.48094643430021],[-2.3468117049823727,53.48118838592592],[-2.346811949853468,53.48121838968452],[-2.3473195304444987,53.48177842680554],[-2.3477897571914137,53.482162830080775],[-2.3478914104243866,53.48229112457713],[-2.348231951722018,53.482633040272326],[-2.3487381256485333,53.48301733496428],[-2.3489676869924954,53.48296951454708],[-2.3490826611400526,53.48296917854239],[-2.3493501598750344,53.48316556854935],[-2.3493579448847517,53.48323841375588],[-2.3488265731417033,53.48328711681754],[-2.347590907224694,53.48332929668228],[-2.3475191529295896,53.48334236455035],[-2.347519468430422,53.48338094079449],[-2.3474765630089296,53.48340678374201],[-2.347499277659568,53.483548167244145],[-2.347549579541745,53.48354802087262],[-2.3475649332023316,53.483667994024465],[-2.347521852238071,53.48367240574192],[-2.347551332499861,53.48376233332867],[-2.347582005016489,53.4839979933696],[-2.3476323424981937,53.48400213321125],[-2.3476328685171026,53.48406642694339],[-2.347604159299415,53.48407079685624],[-2.347604755407528,53.484143663085334],[-2.3476265591309966,53.48417360407883],[-2.3476271202120818,53.48424218405782],[-2.347677563205474,53.48425918262571],[-2.3476500813129246,53.484413571249746],[-2.3477079211074234,53.48445626637675],[-2.3477307423390594,53.484610508552905],[-2.347736425183391,53.48530488074466],[-2.347571316060222,53.4853267931089],[-2.3475652868497114,53.48546826020146],[-2.3472345415405176,53.48544779051113],[-2.346206690358537,53.485425056344106],[-2.3462033109618545,53.48589227823859],[-2.3467854777098136,53.48589916197249],[-2.3474408053386395,53.48606442499181],[-2.3483557283272307,53.486336086265666],[-2.3484422821436093,53.48637441092412],[-2.3484425633642103,53.486408700898046],[-2.348471485005472,53.48643004826339],[-2.348600911792298,53.48643824326393],[-2.3496825511948485,53.48688086162819],[-2.3517003185322993,53.487543607414864],[-2.351700602392473,53.48757789737008],[-2.3517365356975573,53.48757779155273],[-2.3517510864577877,53.48759918044458],[-2.3519020419152312,53.487603022119536],[-2.352754089883146,53.48808486605922],[-2.359325164436055,53.48834817699157],[-2.3593709681592996,53.48866522902905],[-2.3594285716590635,53.48867791474424]]]}},{"type":"Feature","properties":{"urn":"135307","db_school_name":"St Edmund's RC Primary School"},"geometry":{"type":"Polygon","coordinates":[[[-2.4375639279747494,53.54219860300786],[-2.439068002143379,53.53965437297765],[-2.4397734102648054,53.539445937766274],[-2.4400366805966556,53.539444968774745],[-2.4406150283654853,53.53967808580005],[-2.4407467661018454,53.53968740206168],[-2.442634208308094,53.53764161290832],[-2.4435679682770908,53.53724607136732],[-2.4431325983949503,53.53652233882169],[-2.443130447954375,53.53631650490735],[-2.4429819599046296,53.53627784738398],[-2.4420613043657786,53.53477174886843],[-2.441763422577849,53.53460621635834],[-2.4417778334448315,53.534410123145065],[-2.4420823598051284,53.53363463923308],[-2.442131614058905,53.53362465503089],[-2.442130081656698,53.53347763071549],[-2.4423531537694743,53.53278086328384],[-2.4452260392990235,53.53061375455734],[-2.4467590111056636,53.529333772864035],[-2.4477084833030376,53.52888912928623],[-2.4482248481749034,53.52793639877832],[-2.448404243437073,53.52778869563675],[-2.448782797517193,53.52780687867148],[-2.451155746314728,53.528190024441486],[-2.4517009965875807,53.52841341106499],[-2.4540420488771715,53.5288848382766],[-2.4541736510395897,53.52888433821526],[-2.4558180926218367,53.52576103683176],[-2.45547171553087,53.52567413933769],[-2.447774810312561,53.52426233084107],[-2.4474779105358477,53.52418502683084],[-2.447362771282824,53.524185457918854],[-2.4472800123879823,53.524136757622614],[-2.4470496308739733,53.52412781767605],[-2.4239947166834255,53.51985974953178],[-2.4239778781655796,53.51982060122038],[-2.423780516256762,53.519821301329934],[-2.4234344483401604,53.51975391406223],[-2.4234004790965984,53.519646212270835],[-2.422907173969833,53.51965776121616],[-2.42219859792861,53.51952303871868],[-2.4177065182783757,53.515980694467224],[-2.417688529662848,53.51582392505154],[-2.4175240767499675,53.51582449981842],[-2.4174744516626467,53.515795267158424],[-2.4174571387824266,53.51570710947682],[-2.41732528770269,53.51567816400602],[-2.416231347704193,53.514809600065306],[-2.4162300021178753,53.514672376471005],[-2.4168972133973647,53.51395450280335],[-2.4169943402227996,53.513797331523364],[-2.4161864567453226,53.51190835781371],[-2.415906720449635,53.51188972784127],[-2.414591697165223,53.5119433082683],[-2.414236628727364,53.51263068145254],[-2.413405236032209,53.51337851463431],[-2.412803753156356,53.51409614173684],[-2.4126398785261194,53.51415551991714],[-2.4124096533427903,53.51415631478875],[-2.412310699783694,53.514127250238865],[-2.4122629841741534,53.514294049218584],[-2.4114108991714494,53.51461065080973],[-2.4050096769926963,53.51764173868603],[-2.4037406869722924,53.51909673075051],[-2.402414000742037,53.521414479615444],[-2.402450242136428,53.52176722970027],[-2.4021654248352142,53.522954230949736],[-2.401449127511967,53.52374079964144],[-2.401169690202742,53.52376134211091],[-2.399307884669528,53.52343431019027],[-2.3990940570765535,53.52343502454622],[-2.3997147259243823,53.52646176717884],[-2.400919129594311,53.53031971733994],[-2.400961758990669,53.53134878307999],[-2.400669828822496,53.533535604987335],[-2.4003876945565725,53.538506154192575],[-2.4039431824783093,53.53864121945478],[-2.4071994110950095,53.53845373376758],[-2.409666954501641,53.538386489159926],[-2.410456938544692,53.53840338261692],[-2.4119064182898815,53.538555227432724],[-2.414181488287104,53.53899825583651],[-2.4172839570186047,53.53990885007334],[-2.4193295635191903,53.54043099740451],[-2.41934640603366,53.54047014622751],[-2.4194780447310706,53.5404696842819],[-2.4195277971020333,53.54050871756973],[-2.420302923680271,53.540682429865946],[-2.42226408402059,53.54097937846867],[-2.425507592174389,53.54115411272714],[-2.4290131198860716,53.541200393080445],[-2.43227412598664,53.54147290089927],[-2.434712207593865,53.541728711762964],[-2.4375639279747494,53.54219860300786]]]}},{"type":"Feature","properties":{"urn":"105955","db_school_name":"St Charles' RC Primary School"},"geometry":{"type":"Polygon","coordinates":[[[-2.37502409130551,53.52980918291562],[-2.378667160781326,53.52301083621989],[-2.3787488305603586,53.51846171279458],[-2.37929618653135,53.51716922247336],[-2.374562124087852,53.515081477094846],[-2.3734863795155787,53.51389818337803],[-2.373485097255506,53.513752457027934],[-2.374562870086034,53.513186980125546],[-2.374823071704039,53.512988387138286],[-2.37525845338269,53.51285169935816],[-2.3755374019198565,53.512798776308706],[-2.375834273586065,53.51279784279668],[-2.3760617541735156,53.51284917355564],[-2.376480129017609,53.512764581417294],[-2.376846852503254,53.51276342525712],[-2.3769697407411536,53.51283590277902],[-2.377109445155862,53.51283546189717],[-2.3776652992360385,53.512500608031786],[-2.378167643450768,53.51204100914475],[-2.3784280067727113,53.511863226360646],[-2.378496558012508,53.51171727877463],[-2.3787045304299492,53.51153966133936],[-2.3791580909573145,53.51148617620088],[-2.379612115750489,53.51148473445237],[-2.379629298979101,53.5114534519007],[-2.379891236148494,53.51145261930112],[-2.379944275733581,53.51152531586198],[-2.380012914401217,53.51138977642979],[-2.3808510186168648,53.51137669838335],[-2.381757661515947,53.51121766501553],[-2.381809299680914,53.51113422545206],[-2.3813861822241655,53.51068797616651],[-2.37672554647824,53.50696581693565],[-2.37622225963702,53.505343548133844],[-2.375639542148956,53.50460631957549],[-2.374868743370971,53.504317279592634],[-2.3740297677455504,53.504215816029934],[-2.3732233362277437,53.50384360237461],[-2.3727520247628764,53.50385548324599],[-2.3725753303922765,53.50361661988929],[-2.3725737777409406,53.50343966613895],[-2.372798005723302,53.50312668672591],[-2.3733014819519713,53.502802425246834],[-2.3735455407761354,53.50276002501814],[-2.3738774435037504,53.50277980538115],[-2.3739639130978656,53.50268585074752],[-2.375497993755801,53.50242080527044],[-2.375777334142408,53.50241992689961],[-2.3757943323290625,53.50236782676828],[-2.3772238230741367,53.50212390673305],[-2.3808981668015687,53.501060904832634],[-2.3811076652579857,53.50106023666346],[-2.3811245629517868,53.50099772673641],[-2.381664456756002,53.50085027232887],[-2.3820463815172674,53.50060963674593],[-2.3823198998097843,53.499963382729845],[-2.3823189627377306,53.49985929234187],[-2.3807970618530194,53.49952064521285],[-2.3801994973393152,53.499074947001304],[-2.379899835231965,53.49875321083978],[-2.3791290210465714,53.49845378886237],[-2.379058263460925,53.49834992000916],[-2.378866235410817,53.49835052919833],[-2.3780959917911706,53.49811355479309],[-2.3751794766062804,53.49798742903158],[-2.37495216861375,53.49794650537804],[-2.374515745153606,53.497947874454916],[-2.374498012859695,53.497916702029855],[-2.3740965952249367,53.49792836916547],[-2.3739913953283978,53.49787665187791],[-2.3728541373040826,53.49758874552977],[-2.3623316902136806,53.49399867638715],[-2.36140345728246,53.49363716152164],[-2.359002505799943,53.492509783520525],[-2.3588804985308074,53.49253096885152],[-2.3587260429731436,53.4928437131238],[-2.358890348451762,53.49369678562043],[-2.358718345510058,53.49399917319698],[-2.358423536964555,53.4942290636915],[-2.3579170659513498,53.49419935436999],[-2.3567155258088066,53.49454645692118],[-2.3563489586835105,53.49454755107883],[-2.3562974651156723,53.494651798081584],[-2.3562664828049478,53.495120310730854],[-2.3552921788529364,53.49550835824062],[-2.355047795203989,53.495509084902935],[-2.354628243405315,53.49543746589461],[-2.3545567686508924,53.49523990066877],[-2.353596695956266,53.49524274662341],[-2.3526761157515974,53.49579716309126],[-2.351960933236434,53.495861728595834],[-2.351351604878947,53.496061299851],[-2.3508136435824,53.49644802641961],[-2.3501343039825193,53.49662697836496],[-2.3492613105333064,53.496608715503726],[-2.347920404995523,53.497008183402436],[-2.3470836788784166,53.49715634829464],[-2.3459485714771744,53.49710759458476],[-2.3454251259754804,53.49714033746304],[-2.344865160327278,53.49697540620393],[-2.3443392681244957,53.4967062807863],[-2.343342060370903,53.49643850876262],[-2.3427484594575105,53.49642980424457],[-2.3423806168300803,53.496274719231266],[-2.341822014778655,53.49627631912009],[-2.3397924508320362,53.49788514674255],[-2.3397407460718878,53.49796856844096],[-2.3418817035299058,53.50152244905849],[-2.343064876631661,53.50318454825172],[-2.3430655494541934,53.50326782087729],[-2.343135554432929,53.503288438445736],[-2.3440363472247445,53.504566193713615],[-2.3440375280574566,53.504711920758886],[-2.3432371552322655,53.50505773063474],[-2.3422443730335787,53.50536244926162],[-2.3419693512449054,53.50806965834148],[-2.341799600501916,53.50867388415395],[-2.34142114226272,53.50938279941216],[-2.341321310047582,53.50999723385661],[-2.341324490544007,53.51039277843587],[-2.3412374309944375,53.51042425506707],[-2.341185797586927,53.510518086301566],[-2.340941327233794,53.51051878425797],[-2.3408881884029507,53.51042525214425],[-2.3408007941817743,53.51041509218612],[-2.3405768766067,53.51080087508773],[-2.340664355106908,53.51082144427525],[-2.3407160735831494,53.510738022335985],[-2.34096054520368,53.51073732483824],[-2.3410310632559574,53.510820397998685],[-2.341258073050973,53.510819749740016],[-2.341277460170563,53.51105910838838],[-2.3410542962772305,53.511538573732565],[-2.340238894521514,53.512207094252645],[-2.3402218488259385,53.512259189313475],[-2.342243005479841,53.513856448773424],[-2.343241625866539,53.5142491372528],[-2.3432428043895026,53.51439486407255],[-2.342659625433111,53.51570810983876],[-2.3457898897087626,53.516209146372084],[-2.3455408042479333,53.51779208011082],[-2.345889937565759,53.517770251248486],[-2.349227748616425,53.51799995511339],[-2.3488785214838277,53.520134880659576],[-2.34865676466457,53.520780904061155],[-2.3486588173335186,53.52103072104674],[-2.3485735371358385,53.52128079284315],[-2.348358402441314,53.52486221494379],[-2.3687162279202765,53.529693492373895],[-2.37502409130551,53.52980918291562]]]}},{"type":"Feature","properties":{"urn":"105956","db_school_name":"St Mark's RC Primary School"},"geometry":{"type":"Polygon","coordinates":[[[-2.3536767585464426,53.535426426305406],[-2.354084354741893,53.53492477326632],[-2.35408386321279,53.534865898721165],[-2.352793185890844,53.53415339146166],[-2.3527919615832844,53.53400620505804],[-2.353117203556551,53.53350479830118],[-2.3530995079850343,53.5333576605558],[-2.35283190390954,53.53286781753075],[-2.352830761150397,53.53273044352502],[-2.3528795994735865,53.53266161061927],[-2.352945397420279,53.532651603622845],[-2.3529447442091596,53.53257310418949],[-2.3536777060840315,53.531589669886245],[-2.353660663905584,53.531521031620564],[-2.3531985386457897,53.53140464639841],[-2.3532135372814955,53.53122797395837],[-2.3535542408419925,53.530608767954526],[-2.3534344604222173,53.53006942521927],[-2.353302300645067,53.53002075267841],[-2.3514881223625568,53.52971209735557],[-2.35145388407892,53.52955519526811],[-2.356305277835322,53.52480130294942],[-2.356370073757788,53.52467354481349],[-2.354426745729683,53.524649887041555],[-2.3542293900312408,53.52467991034587],[-2.349256575479109,53.52471417493707],[-2.3490723701834977,53.522340043684466],[-2.349593377294695,53.52162219424284],[-2.3496091152881404,53.52153383400562],[-2.349094080488847,53.5209760167348],[-2.3491080432332327,53.52067178259191],[-2.349156066416193,53.52050482654889],[-2.349683114227404,53.52052291054844],[-2.349715802013831,53.520493376806975],[-2.3502058155118832,53.518019143264986],[-2.3495466806955996,53.51795238465502],[-2.349464036477361,53.517913375644596],[-2.3491512976702147,53.51792410269186],[-2.346020780399028,53.51764864221434],[-2.3462714756159206,53.51608769750384],[-2.3434037322403,53.51571327976391],[-2.3434025412933854,53.51556609275656],[-2.3443317137627147,53.51442514553089],[-2.344331156511633,53.51435645825303],[-2.3437372235887937,53.514201165439545],[-2.342614112367033,53.51375300750372],[-2.3418681586469976,53.5131173190495],[-2.3418676844403814,53.51305844421182],[-2.3417852938388135,53.51304886725497],[-2.341354353796405,53.512687029493655],[-2.340642621517937,53.512208238745146],[-2.3405110830353997,53.51222823914198],[-2.339336801796801,53.513605358238266],[-2.338290785939004,53.514560156354705],[-2.337846053151171,53.51453197677168],[-2.335538454642247,53.51418522322207],[-2.3332798962702967,53.51378922488364],[-2.3331976602286333,53.51379926697026],[-2.3322706602567522,53.51525412755344],[-2.3316988968935246,53.515824852562766],[-2.33004494473078,53.5169677053555],[-2.32981445079389,53.516968341899435],[-2.329417642591236,53.51675355754094],[-2.32930239619771,53.516753875262935],[-2.326945144835322,53.51851682059875],[-2.326714642419385,53.518517451179406],[-2.3221264224866283,53.51706782045815],[-2.3219121684235304,53.51703895991669],[-2.3208436536316155,53.5194361293816],[-2.3204837249551216,53.51974128860765],[-2.320435367545849,53.519878795865566],[-2.3201062156568124,53.51989930361284],[-2.3199124086356195,53.52040026948093],[-2.3196654306364968,53.5204009305757],[-2.3194674049532,53.520342584185656],[-2.3185625568028274,53.520443127172754],[-2.3173292797865166,53.52066228827199],[-2.316605318842153,53.52073289778889],[-2.3163089428254744,53.520733682847485],[-2.3156153550066665,53.520460762175475],[-2.314526758551164,53.52020850344124],[-2.313653671183467,53.52015192278085],[-2.31292833774332,53.52003607274108],[-2.3124644253712443,53.51964477981417],[-2.3114469569925506,53.51786152871104],[-2.3113643478461334,53.51782249331735],[-2.3077609613934005,53.51814583650057],[-2.30756367374618,53.518185595314506],[-2.307748980520694,53.518764066242355],[-2.307750688553787,53.518999566159614],[-2.3069980765534517,53.521935493032615],[-2.30751306858392,53.522562179694525],[-2.307994918954184,53.52542623852582],[-2.310643101994652,53.527254351292996],[-2.3121114137913277,53.52761359327139],[-2.315865753491597,53.52755466345763],[-2.3184649682144367,53.52718469486719],[-2.322284833350195,53.52708613809653],[-2.324641378723763,53.52729563705317],[-2.3278028911805473,53.52937710374691],[-2.335327725489431,53.53126969305558],[-2.3391894960310733,53.53431053224652],[-2.3424702379635045,53.53672490224236],[-2.3461505083942154,53.53758762503424],[-2.3481440819823196,53.537640709645636],[-2.3492090145434212,53.53694090342297],[-2.349192138993849,53.53689188942621],[-2.3484793470395684,53.536344461081015],[-2.3484782182238373,53.53620708709175],[-2.3491989956493278,53.535724162480506],[-2.349511946437631,53.53572324755805],[-2.3519348252346144,53.53591238976792],[-2.352000546999771,53.53589257086357],[-2.3524895436308833,53.53527293153723],[-2.3527201364174166,53.53527225112223],[-2.3535451543729633,53.53544644107099],[-2.3536767585464426,53.535426426305406]]]}},{"type":"Feature","properties":{"urn":"151262","db_school_name":"St Teresa's RC Primary School a Voluntary Academy"},"geometry":{"type":"Polygon","coordinates":[[[-2.491460270830496,53.468024356738],[-2.491623177431913,53.46790606076612],[-2.492806486342096,53.465117379323864],[-2.4902086298897776,53.46205020071905],[-2.4900474220456665,53.459463097936364],[-2.4878698725349357,53.45862902950944],[-2.4870707931864344,53.457691285755736],[-2.4869561004579417,53.456280244941404],[-2.4866832546982622,53.45539916421365],[-2.484864793798217,53.45434792974201],[-2.483085274416088,53.45382582596316],[-2.4820194382416867,53.45251664527305],[-2.480096279430657,53.45089723606638],[-2.479066979247599,53.449901550633555],[-2.4774464125905693,53.448888617545855],[-2.476320684441721,53.44806973259571],[-2.476349572501946,53.447716739842996],[-2.4787713766490955,53.4440606514377],[-2.4785657708846656,53.44329690712534],[-2.4775741438251897,53.442712747782004],[-2.4770732867840635,53.44196978568334],[-2.475144667319878,53.43980139565625],[-2.4739859570469775,53.438943410552206],[-2.4715882123742197,53.43885488358755],[-2.4707326584841094,53.438681820815795],[-2.4706000351872075,53.43856471763821],[-2.4679930505021455,53.43735949616787],[-2.4668390649771204,53.43691311428297],[-2.465853753766987,53.43687775425319],[-2.464212925783371,53.43694295831114],[-2.4633585068464345,53.43686786003802],[-2.4618737403072366,53.43618746157644],[-2.4606052457156897,53.43425153296034],[-2.458944857859328,53.43249353670806],[-2.4565283784022505,53.4306207847574],[-2.4554706518152365,53.42993867274895],[-2.4544677267835255,53.4282369164632],[-2.452948287310992,53.427340890929315],[-2.4516902354559327,53.4263262311606],[-2.450679249388163,53.42384029840108],[-2.4493546838858933,53.422727842967014],[-2.4494642370252033,53.420668971588775],[-2.4507000808726263,53.41960567547209],[-2.4516731327205563,53.41852375656387],[-2.4509692766843862,53.417134506513925],[-2.449882266229092,53.41674652064797],[-2.4498721226715747,53.415785943820175],[-2.449642430215957,53.41578680929881],[-2.447550210027835,53.41653963914635],[-2.444217101449423,53.41788518799147],[-2.436538953860755,53.42116784061092],[-2.4258165761912984,53.42538229814096],[-2.421767970019732,53.42753354399432],[-2.4175684843166336,53.43107708566473],[-2.4150742029692016,53.43449693405715],[-2.409502299364224,53.44567101267308],[-2.412531989618799,53.446562379038625],[-2.4128007717361277,53.44718878639581],[-2.4143857561194895,53.44808509191639],[-2.4151101099387278,53.4482786183477],[-2.4174091815018985,53.44830981162783],[-2.4183315477632408,53.44860064744674],[-2.4185314718803212,53.44889401070119],[-2.41987863845687,53.448967697937526],[-2.4217098452226153,53.44817707389121],[-2.4221009876999404,53.44788162781303],[-2.423050952486123,53.447643014535444],[-2.424527091764211,53.4474809410779],[-2.4251512046106614,53.44749832466657],[-2.4424098121721958,53.471352799178035],[-2.4491070643983313,53.47081809371106],[-2.4739949604951494,53.469231993679394],[-2.491460270830496,53.468024356738]]]}},{"type":"Feature","properties":{"urn":"136080","db_school_name":"Holy Family VA RC Primary School"},"geometry":{"type":"Polygon","coordinates":[[[-2.2740046194049652,53.4885133591851],[-2.2748602281681856,53.48994799206134],[-2.275712702132896,53.49089081716938],[-2.2771533641162325,53.49216877301078],[-2.2801586800252425,53.493740724452024],[-2.2801590215436436,53.49379249295946],[-2.280332816428123,53.493817969771335],[-2.2859521484282963,53.496768439377846],[-2.2861474018153403,53.49675502939095],[-2.2889346896958513,53.49489756604484],[-2.2894319307950144,53.49461163079371],[-2.2903847565846247,53.494298701910644],[-2.291748148662032,53.49372591651353],[-2.2920519899093743,53.49372517386839],[-2.293226361552596,53.494071739163495],[-2.2953401142369962,53.49529605199878],[-2.2954486329432924,53.495295783590834],[-2.296248782252562,53.49487964692882],[-2.2979829755622347,53.4945776590027],[-2.2995012985360397,53.49444443774091],[-2.299631153083286,53.49439234269736],[-2.299776224437693,53.49342130364283],[-2.2998324701013813,53.49216575587228],[-2.3001797042420704,53.49216488360442],[-2.3009182185943646,53.492253621431175],[-2.301940244977703,53.49253577331219],[-2.3047412364412456,53.49272279404924],[-2.3070410364558542,53.492626307281675],[-2.309750621169596,53.49217927096626],[-2.311374295189046,53.49163147047121],[-2.3121743144475646,53.49122816937172],[-2.3143570794685107,53.48999292112877],[-2.3151356268320766,53.489628483588355],[-2.315807389656124,53.4894972856395],[-2.319279215208952,53.48944922755856],[-2.3193205735865035,53.48917732762838],[-2.3192017622732646,53.4878057559176],[-2.318812662369211,53.48511478513696],[-2.3188052816392624,53.48413118545466],[-2.3233002443764788,53.481724763734476],[-2.323203711662257,53.48044373043671],[-2.3231600241816786,53.48040502155401],[-2.3215326217853054,53.48038352964189],[-2.3189052590954367,53.48010584274866],[-2.3168405739007194,53.479632470978565],[-2.3136426119498146,53.47846315744035],[-2.303281000179174,53.473623590815926],[-2.303172444526311,53.47361092411391],[-2.3030859507610675,53.47364997082981],[-2.30259061263028,53.474155979865124],[-2.3022435255884877,53.47415685893478],[-2.301135534909935,53.47392669561792],[-2.299747102653532,53.4739172467869],[-2.2982088190124497,53.47419288844608],[-2.2967143533709917,53.47453311326341],[-2.2933579901473236,53.4754214879391],[-2.2918876251195552,53.47612397937565],[-2.291281790859526,53.47635842147102],[-2.2903279584102334,53.4764642834577],[-2.289753512089165,53.47812230169984],[-2.2894282635701204,53.47814897524595],[-2.288638471577392,53.48005341421279],[-2.2883348157476955,53.48006709020099],[-2.287907473252639,53.481038798229505],[-2.2874951525675167,53.48102684931382],[-2.27919995072379,53.479959375635524],[-2.2783564372731124,53.48036255807559],[-2.2782696526651183,53.48036276035792],[-2.278140153540297,53.48046660092879],[-2.2777074983055328,53.480661743301454],[-2.2765192552932128,53.48144104220583],[-2.2747939823310004,53.4830628189839],[-2.2742992842776424,53.48373695851766],[-2.2739140630964036,53.48456615297133],[-2.2737463146370755,53.48547250174904],[-2.273420916419331,53.48548618963045],[-2.273356153226849,53.485538107279126],[-2.27342691440205,53.48641802452097],[-2.2740046194049652,53.4885133591851]]]}},{"type":"Feature","properties":{"urn":"105966","db_school_name":"St Luke's RC Primary School"},"geometry":{"type":"Polygon","coordinates":[[[-2.299487526387068,53.510769092866404],[-2.299567788650502,53.51077686006754],[-2.300182138015895,53.510695633156956],[-2.3005163291718524,53.510694792862274],[-2.301091533605121,53.51074912360899],[-2.304834134612821,53.51069182057123],[-2.3077307522245074,53.510110664103216],[-2.309358909821161,53.50973990920511],[-2.3107589795361347,53.50925816714272],[-2.3123316162025698,53.50861658817367],[-2.3125187538809624,53.50861609871865],[-2.312559089502919,53.50864786705357],[-2.312558209411774,53.5085283423417],[-2.3128913846378003,53.50839200613822],[-2.313065154411482,53.508391550841665],[-2.3130913592725193,53.508319765947334],[-2.313304582462356,53.50823155373551],[-2.3133175376171327,53.508175740477085],[-2.3119981582625577,53.50689627037519],[-2.3119703127738545,53.506744942175395],[-2.3145967590529635,53.505829648043274],[-2.3148104393426254,53.505805179661685],[-2.3145658938430054,53.505271936278724],[-2.3145650672566354,53.50516037983904],[-2.314697721995029,53.50502456638441],[-2.314777857978166,53.50501638675901],[-2.3148038806275695,53.50492069650378],[-2.3156131528518094,53.50410577661553],[-2.316835291138221,53.50309851325711],[-2.3180380428475673,53.50307937992133],[-2.3200549305509455,53.50290665474922],[-2.3225785257899734,53.502581127114084],[-2.3243416185163843,53.502432920116156],[-2.326159199269679,53.502420002470785],[-2.3266000607042994,53.5023948924289],[-2.326493516064077,53.500705865892854],[-2.3274774476513396,53.50004975684785],[-2.329400307058127,53.498116096414634],[-2.3294131762276997,53.49805231303929],[-2.329251577043833,53.49789338889066],[-2.3292628400534343,53.4976224293213],[-2.3293424030762337,53.49754252510554],[-2.3296485258594033,53.49738231090739],[-2.329793852730302,53.49716676059277],[-2.3298606076034707,53.49715860777001],[-2.3296998143623298,53.49710327231067],[-2.329459150724961,53.49708799940347],[-2.328344942516516,53.49643765160158],[-2.3279820458109204,53.496167720078056],[-2.3274450052184092,53.49584248557116],[-2.3273639062633773,53.49572318055395],[-2.3273762863970795,53.49559565080873],[-2.327616264705696,53.49552327640833],[-2.328470130554782,53.495345624503415],[-2.328280464750771,53.495011469405526],[-2.3280241121590337,53.49469343413666],[-2.327967339150198,53.494263291581895],[-2.328192099339919,53.49395190306681],[-2.3282854509825435,53.49392774104618],[-2.3281892054852946,53.4935773919402],[-2.3281739346590204,53.49333041066559],[-2.3288789201660354,53.49291410993441],[-2.329051453505629,53.49276223336905],[-2.329316283468919,53.492450732241586],[-2.329395033430958,53.49226723973896],[-2.329725800409998,53.49184399688953],[-2.329725305572394,53.49178025030364],[-2.3296578170116815,53.49169278316484],[-2.329627630936302,53.49124663079029],[-2.3297467090765736,53.49109490068592],[-2.3297582766063836,53.49086378239021],[-2.3293666572112457,53.49033097380695],[-2.3293380814421876,53.49009199772648],[-2.329484250396024,53.489988004123745],[-2.3295634896745465,53.48986825805059],[-2.3298428344661457,53.48970811696677],[-2.329895412155325,53.48959641279247],[-2.329854957991634,53.489548713545176],[-2.329560027804008,53.48942203177917],[-2.329598441274838,53.489206776348276],[-2.3288068204703496,53.48877865950072],[-2.3286998730715918,53.48877098539162],[-2.3282328636920497,53.4888519547603],[-2.3257495372366344,53.48908984028019],[-2.3231849261784783,53.489184461222905],[-2.3203393042412994,53.489224001724644],[-2.318321693283161,53.489213459424626],[-2.3171475430377377,53.489431732541874],[-2.3169346003484956,53.48954385674669],[-2.3168277719887924,53.489552108688414],[-2.316788164457309,53.48961596170696],[-2.3166946374795527,53.48961620975249],[-2.3166683313030316,53.48967205896404],[-2.316561561951217,53.48968827900456],[-2.3165617994818666,53.48972015235021],[-2.316481989509474,53.489768174832086],[-2.316375160496774,53.489776426369936],[-2.3163753385404795,53.48980033137925],[-2.316268746737894,53.48984045616774],[-2.3162556822980305,53.489880333231525],[-2.315922662753334,53.49001667900901],[-2.315896236798874,53.490056591375875],[-2.3154968822937256,53.49025685934327],[-2.3154039455632995,53.49033678974546],[-2.315350500662882,53.490336930877106],[-2.315350678134058,53.49036083588652],[-2.315297292350235,53.490368945330886],[-2.3149515545302206,53.49059297537465],[-2.3135274821471286,53.49135372903519],[-2.3125549036328574,53.491738765823335],[-2.3123548301809294,53.4917871001973],[-2.3123416442846194,53.49181104015272],[-2.3118884584444843,53.491963625797766],[-2.3097131670971573,53.492335837185685],[-2.3086583328127133,53.49244215833158],[-2.3072557948017556,53.492509522759306],[-2.30607954391831,53.49245676368347],[-2.3045820391588405,53.49232512789183],[-2.3038463385479284,53.49221544307637],[-2.3030966544178417,53.49201813585998],[-2.301866352158521,53.49187781914229],[-2.3016527852420765,53.49379079549238],[-2.3015999017983213,53.493870613902615],[-2.3015753272264465,53.494173478379615],[-2.3014820163490834,53.49420558790228],[-2.3001200590166597,53.49435245089676],[-2.2991056869792303,53.49452233380518],[-2.2982250448710495,53.49470781119873],[-2.297705690133461,53.494964098389744],[-2.2970675690682185,53.495435827797365],[-2.293993811344129,53.499260335155356],[-2.2942416532519876,53.50031156358593],[-2.294242536784697,53.50043905700444],[-2.294135676566288,53.50044728869284],[-2.294136283778724,53.5005349404172],[-2.2940964111810556,53.50056691250313],[-2.2941511939525308,53.50075802097766],[-2.2942047072778156,53.500765857645405],[-2.2942054802843797,53.50087741437861],[-2.2942589937700135,53.50088525102167],[-2.294301738663479,53.50126763244321],[-2.2944621149154307,53.5012672371557],[-2.2953697399258792,53.504938461294685],[-2.2967629653800996,53.50730164270595],[-2.297897389788092,53.50895625957691],[-2.299487526387068,53.510769092866404]]]}}]}