{"type": "FeatureCollection", "features": [{"type": "Feature", "properties": {"db_school_name": "Mossbourne Port Side Academy", "urn": "151442", "n_samples": 132, "margin_m": 595.4}, "geometry": {"type": "Polygon", "coordinates": [[[0.4282243203682181, 51.51418505439564], [0.4265985578395191, 51.51530969918835], [0.4266707785270837, 51.51555119622307], [0.42603939299973254, 51.516703056710085], [0.42349172761858306, 51.514910186919025], [0.4215462646565858, 51.51691353566209], [0.4226396174613796, 51.51843146559329], [0.4203547483307696, 51.51983608131338], [0.4203084987851158, 51.51990270184074], [0.4201788853169583, 51.520154666197854], [0.4200894817273491, 51.52041334298877], [0.42007791836871994, 51.52047624116551], [0.42512441090919073, 51.521373871658334], [0.420079188489083, 51.52047646711653], [0.41998274149069115, 51.52061539144324], [0.41985312431911564, 51.52086735546205], [0.41976371761342285, 51.52112603201806], [0.41971538307223494, 51.52138892999807], [0.41970858688933826, 51.52165351759225], [0.41974339523686993, 51.521917246675144], [0.41981947360032107, 51.52217757734575], [0.41993608997286025, 51.52243200238975], [0.4200921218792209, 51.522678071428835], [0.4202860671625369, 51.522913414524034], [0.4205160584311058, 51.52313576500557], [0.4207798810267304, 51.523342981309376], [0.42107499434218687, 51.52353306760952], [0.42139855628294975, 51.52370419304748], [0.4214867644936077, 51.52374224709836], [0.42148781098250393, 51.52374174097119], [0.42156465823364625, 51.523862921532995], [0.4217102442919976, 51.524039569739585], [0.42170961569954396, 51.52403970179564], [0.42177101195591765, 51.52424974937125], [0.4218876448305737, 51.524504172180336], [0.4220436946373468, 51.52475023831239], [0.42223765904700566, 51.524985577856405], [0.4224676704836589, 51.525207924176776], [0.4227315140948657, 51.52541513574947], [0.4230266490709809, 51.52560521679412], [0.42335023310882625, 51.525776336502794], [0.42355774354162307, 51.52586584933145], [0.4254513778476575, 51.52502236734024], [0.4235575675289436, 51.525865927729996], [0.4236318443368454, 51.526027934216664], [0.42378790896163004, 51.52627399777751], [0.42398188901481526, 51.5265093341776], [0.42421191676985315, 51.52673167681155], [0.42447577721713314, 51.526938884190905], [0.4247709293848367, 51.52712896057559], [0.425094530804176, 51.52730007520255], [0.42544346488360624, 51.52745057992558], [0.42581437092841123, 51.527579025096244], [0.4258915529785186, 51.52759987151517], [0.4258926470434327, 51.5275992395982], [0.42599523825963315, 51.52776097261091], [0.42618923615833215, 51.52799630507261], [0.4264192822683552, 51.528218643085346], [0.42668316140329504, 51.52842584520513], [0.42697833241131794, 51.52861591574254], [0.4273019526421384, 51.528787023990795], [0.4276096305373411, 51.528919720798115], [0.4276111562970242, 51.52891878345737], [0.42777526522471204, 51.52907738375563], [0.4280391555153534, 51.529284582650135], [0.42833433773599433, 51.52947464960157], [0.42865796912832943, 51.52964575393771], [0.4290069328120483, 51.52979624761144], [0.42932138408125303, 51.5299051241366], [0.4314774581428197, 51.528388522440515], [0.42932256313765965, 51.52990429481574], [0.42939255473438864, 51.52997193216424], [0.42965645756103477, 51.53017912722568], [0.42993549323699654, 51.530358785879116], [0.42993820031276814, 51.53035735896396], [0.4300139419881527, 51.5304305508515], [0.43027785031394944, 51.53063774442778], [0.4305730506201717, 51.5308278054659], [0.4308966999742866, 51.530998903350614], [0.4312456813229321, 51.53114939009692], [0.4315526407185353, 51.53125566163148], [0.43512140620424317, 51.52880298195527], [0.43523382109925923, 51.52854608581677], [0.43522691784493506, 51.52851591028527], [0.43487997108607634, 51.52803379298118], [0.4358370643926747, 51.52750681610222], [0.43720044792943363, 51.52720583611988], [0.4377565111443213, 51.52609204459516], [0.4389978752457689, 51.526117565826276], [0.43990330998086596, 51.526542015550795], [0.44116176465346735, 51.52586507711929], [0.4423462422419356, 51.525734219887994], [0.44429105763692556, 51.5265390397323], [0.4445127545595521, 51.52643370340733], [0.44501011295500736, 51.52631644466065], [0.4456685663494893, 51.52645779167795], [0.4467242601711645, 51.52646603275099], [0.44835494857267594, 51.5260280473737], [0.44864312906841064, 51.526098427700106], [0.45070141457084456, 51.52593727065272], [0.4512438922158178, 51.52572497023153], [0.4522519449722826, 51.52692409343787], [0.4535989071998314, 51.527310450876364], [0.45520123989904837, 51.52669767003521], [0.4553518375547368, 51.526493594284005], [0.454657601431341, 51.52525020876944], [0.45666845597737565, 51.52445082434607], [0.4569200231907624, 51.524099810462666], [0.45691177771084923, 51.52404516719858], [0.45766780088849096, 51.522710230822064], [0.45936394697612937, 51.52106057224165], [0.4592972731589554, 51.52099618574863], [0.45903329253446473, 51.52078905819306], [0.4587380424881454, 51.520599069228766], [0.45841436644632566, 51.52042804832986], [0.45806538145240494, 51.52027764230239], [0.4576944481531644, 51.520149299433186], [0.45730513844425824, 51.52004425554988], [0.45690120108607946, 51.51996352212631], [0.4564865256205414, 51.51990787654751], [0.4560651049355649, 51.51987785462775], [0.4556409968368614, 51.519873745453474], [0.4552182849961735, 51.51989558860089], [0.454801039650986, 51.51994317375471], [0.454393278433136, 51.520016042731804], [0.45439131747999134, 51.520016527322866], [0.45438932770725615, 51.5200200243872], [0.45424076771335553, 51.51987653575364], [0.45397681630600084, 51.519669396386874], [0.4536815942844933, 51.519479394280765], [0.4533579448053966, 51.51930835903598], [0.4530089846564347, 51.51915793759674], [0.4526380742452557, 51.51902957839828], [0.4522487852472278, 51.51892451742547], [0.45184486622340964, 51.51884376631674], [0.45143020653925997, 51.518788102627354], [0.45121812427858743, 51.518772984417396], [0.45121819352137393, 51.51877291422153], [0.45112058761658136, 51.51867862870999], [0.4508566572486801, 51.51847148200082], [0.4505614558720069, 51.51828147172793], [0.45023782644438504, 51.5181104275707], [0.4499337469582621, 51.51797933675673], [0.44699737012559676, 51.5199717849981], [0.4499323410062902, 51.51798029080945], [0.4497477571052134, 51.51783541256737], [0.44945256445584664, 51.51764539936802], [0.4491289436727339, 51.51747435201816], [0.4487800112673629, 51.51732391757864], [0.4484091273803279, 51.51719554460987], [0.4480198634316839, 51.5170904692293], [0.4476159677413875, 51.517009703214114], [0.4474052032430047, 51.51698140128681], [0.4456212312666067, 51.51992553132494], [0.44740522312494724, 51.516981368473004], [0.4472003807185411, 51.516910463495186], [0.4468111218710665, 51.516805384027585], [0.44660648448110213, 51.516764460806705], [0.44660655753356476, 51.51676440735327], [0.44649576998443746, 51.516630072163004], [0.446265687719236, 51.51640777366253], [0.44600179250214644, 51.51620061548625], [0.445706625936193, 51.516010592460944], [0.44538303064407697, 51.51583953438883], [0.445241893928505, 51.51577867772573], [0.4452417800152212, 51.51577871360703], [0.44524550927051176, 51.51563029928994], [0.4452105598224106, 51.51536657940589], [0.44513434983838596, 51.5151062667011], [0.4450176139310918, 51.5148518680414], [0.4448614769346163, 51.51460583329872], [0.44466744304852507, 51.514370531762324], [0.44443738133181526, 51.51414822932753], [0.4441735076872376, 51.51394106668092], [0.4438783635100858, 51.513751038692355], [0.44355479120749114, 51.513579975211854], [0.44320590682421834, 51.513429523455564], [0.44283507003857686, 51.51330113215076], [0.44244585181721807, 51.51319603759142], [0.4420420000399355, 51.51311525173942], [0.4416274034249065, 51.5130595524846], [0.44155037352232124, 51.51305405413124], [0.44155139552194944, 51.513053213882756], [0.44153802745754156, 51.5130321453066], [0.4413440174846358, 51.51279683789791], [0.44111397992677925, 51.512574528568784], [0.44085013045411275, 51.5123673580722], [0.44055501022921095, 51.512177321353725], [0.4402314614286177, 51.51200624834741], [0.43988259987085904, 51.51185578636118], [0.4395117850145227, 51.51172738422076], [0.4391225876151784, 51.51162227832457], [0.43871875535220045, 51.5115414807436], [0.4383041767559352, 51.511485769480615], [0.43788284378190545, 51.51145568098232], [0.4374588133915594, 51.51145150497621], [0.4370361685086245, 51.511473281681916], [0.4366189787260042, 51.51152080142387], [0.43621126114058867, 51.51159360664863], [0.43588947944398493, 51.511673080962396], [0.43588869368030875, 51.511673795081364], [0.43589374626721183, 51.51147434870913], [0.4358588547540148, 51.511210625114785], [0.43578270564137883, 51.51095030537031], [0.4356660329556598, 51.51069589640946], [0.4355099609220766, 51.51044984820342], [0.4353159931146114, 51.5102145301713], [0.4350859979559874, 51.50999220836725], [0.4348221907081206, 51.50978502366449], [0.4345271121270675, 51.50959497114539], [0.43420360398847296, 51.50942388089618], [0.4338547817194387, 51.50927340039092], [0.4334840044003656, 51.5091449786336], [0.4330948424255096, 51.50903985221158], [0.4326910431332731, 51.50895903339349], [0.4322764947366538, 51.50890330038663], [0.4318551889004957, 51.50887318984703], [0.43149481501013354, 51.50886962184601], [0.4302726822328591, 51.511471575722084], [0.4307412906151689, 51.51253814123395], [0.42903038670803506, 51.51274568231524], [0.42871119161237325, 51.51269026805495], [0.428008747730527, 51.512961903480765], [0.4277277152977155, 51.51386674688243], [0.4282243203682181, 51.51418505439564]], [[0.45011186315838025, 51.52344806304157], [0.44983712570248385, 51.52341160169868], [0.4489026742891713, 51.52213863753135], [0.4489170742335446, 51.52208158968712], [0.44905600720038286, 51.52205945115687], [0.4502187769010708, 51.52279991382122], [0.45011186315838025, 51.52344806304157]]]}}, {"type": "Feature", "properties": {"db_school_name": "Harris Academy Chafford Hundred", "urn": "137549", "n_samples": 117, "margin_m": 244.7}, "geometry": {"type": "Polygon", "coordinates": [[[0.2877871080232974, 51.47790521538637], [0.28740985267841485, 51.47802577750207], [0.2870533360109102, 51.47816884834853], [0.28672099118535116, 51.47833305028177], [0.2864160187125204, 51.478516802166396], [0.28614135563258025, 51.47871833459447], [0.2858996472302034, 51.47893570691713], [0.28569322155409677, 51.47916682592586], [0.28552406698644783, 51.47940946600333], [0.28539381307873346, 51.479661290550034], [0.28530371483902134, 51.47991987448109], [0.2853021884931964, 51.479928049992026], [0.28966426128872536, 51.480948685495896], [0.28530214503341966, 51.479928039822305], [0.2851016521172678, 51.48015250742106], [0.28493249089904443, 51.480395146690896], [0.28480223107332775, 51.480646970615965], [0.28480218983330696, 51.480647088969455], [0.28886244109593634, 51.48196796407781], [0.28480679715466295, 51.48064858794082], [0.2846902532511132, 51.48073409397342], [0.2844485274936729, 51.48095146345142], [0.28424208561516967, 51.48118258003407], [0.28407291615384267, 51.48142521812736], [0.2839426488046341, 51.481677041150974], [0.2838525387051076, 51.48193562403471], [0.2838034543250517, 51.482198476568605], [0.2837958690772716, 51.48246306738175], [0.2838298567313371, 51.48272684831907], [0.28390509067548736, 51.48298727898147], [0.2840208470348827, 51.4832418511931], [0.2841760116171868, 51.48348811315966], [0.28436909061960963, 51.48372369308537], [0.2845982249951693, 51.483946322020664], [0.28486120834059575, 51.48415385572065], [0.28515550813419693, 51.48434429530329], [0.28516701309049747, 51.484350408535285], [0.28517114271262306, 51.484348996998314], [0.28520657343549144, 51.48447162703813], [0.2853223410280033, 51.48472619776855], [0.2853572298138268, 51.484781565268705], [0.2902167314382594, 51.484446092565854], [0.28535854317229464, 51.484781474629656], [0.28532819081187316, 51.48494403598826], [0.28532061444495405, 51.48520862668169], [0.28535461343239654, 51.485472406928295], [0.2854298610533983, 51.48573283633563], [0.28543332876138877, 51.485740461487595], [0.2871392571606162, 51.48606380644044], [0.2854377028286313, 51.48574129059454], [0.2852315498831386, 51.4858654781846], [0.28495683834409113, 51.48606700821354], [0.2847150864628786, 51.486284378391126], [0.2845086227070127, 51.486515495529574], [0.2843394358255499, 51.486758134029515], [0.2842091556813535, 51.48700995730677], [0.2841190375353971, 51.48726854028874], [0.28406994993516504, 51.487531392764495], [0.28406236632469034, 51.48779598336371], [0.2840963604579989, 51.48805976393334], [0.2841716056611468, 51.48832019407787], [0.28428737795106684, 51.48857476562642], [0.28444256298218557, 51.488821026791015], [0.28451729357249017, 51.48891219550005], [0.2892986460241995, 51.488056711576725], [0.2845170137026925, 51.48891224556801], [0.2845284762154964, 51.48900118072472], [0.28460372559387587, 51.48926161050353], [0.28471950283026637, 51.48951618152817], [0.28487469353148653, 51.48976244201573], [0.28506780364338075, 51.489998020184615], [0.2852933631124501, 51.49021713950862], [0.28867395703131704, 51.48949277133616], [0.28529511566989224, 51.490216764014875], [0.28532524766869, 51.4904505113698], [0.285400504222529, 51.49071094049182], [0.28551628980349686, 51.49096551057088], [0.2856326108303971, 51.49115007982588], [0.2901171328085927, 51.49062622847161], [0.28563362175010365, 51.49114996175773], [0.28562893881974083, 51.49131354510156], [0.285662945246137, 51.491577324926034], [0.2857382057784635, 51.49183775373813], [0.28585399628614333, 51.49209232337973], [0.28600920224825926, 51.49233858208122], [0.2862023294637423, 51.49257415807822], [0.286431518421465, 51.49279678245891], [0.28669456219260403, 51.49300431102223], [0.28698892767356826, 51.493194744935515], [0.28731177997533935, 51.493366249992825], [0.28766000972454664, 51.4935171742879], [0.28803026301340234, 51.49364606413139], [0.288418973709845, 51.4937516780585], [0.288822397816344, 51.4938329987922], [0.2892366495459082, 51.49388924304609], [0.28965773876709167, 51.49391986907271], [0.29008160945655537, 51.493924581884066], [0.29050417878784174, 51.49390333609418], [0.2909213764788971, 51.49385633635608], [0.29132918401835706, 51.49378403538932], [0.2917236733917269, 51.49368712961657], [0.292101044933578, 51.493566552451966], [0.2924576639402615, 51.493423465305675], [0.29279009568983966, 51.493259246391816], [0.2928739600112022, 51.49320872368697], [0.29282970851960716, 51.49304829683534], [0.2928737615305505, 51.49320800412916], [0.29304504682685506, 51.49325453516313], [0.29344847424358184, 51.49333583993458], [0.2938627266206586, 51.49339206782991], [0.29428381382037405, 51.49342267725925], [0.2947076798388529, 51.493427373394454], [0.2951302418946377, 51.493406111010195], [0.2955474297757855, 51.49335909491946], [0.2959552250654693, 51.49328677799921], [0.29625373970639673, 51.493213434083714], [0.29625380474109764, 51.49321359042629], [0.2963469101548984, 51.49320890444829], [0.29676409485101407, 51.49316188406385], [0.2970492335289369, 51.49311131538768], [0.2970478581709455, 51.49311346400165], [0.29706281513112415, 51.49313170144596], [0.29718807112287476, 51.493253328850905], [0.30215107656156204, 51.49179056646979], [0.2971863967255388, 51.49325382230044], [0.29720951563303694, 51.49330461835163], [0.2972652974256946, 51.493393082489725], [0.3011066040438449, 51.492931964741445], [0.2972628332432555, 51.493393378251625], [0.29726187432889306, 51.49342717577484], [0.2972959497877909, 51.49369095128135], [0.2973712802735916, 51.49395137166936], [0.2974871409820026, 51.49420592886177], [0.2976424167159456, 51.49445217120876], [0.2978356126022657, 51.49468772710332], [0.2980648684683022, 51.494910327827206], [0.29832797674062433, 51.495117829407064], [0.2986224036941873, 51.49530823327011], [0.29894531384765705, 51.495479705499754], [0.2992935972702071, 51.495630594505876], [0.29966389953683337, 51.495759446939], [0.3000526540434918, 51.495865021694705], [0.3004561163704564, 51.49594630187324], [0.30087040036240775, 51.49600250457886], [0.30129151557699363, 51.49603308846435], [0.30171540574039507, 51.49603775894765], [0.30213798783851403, 51.496016471050524], [0.30255519146631443, 51.49596942983169], [0.3029629980552834, 51.49589708841023], [0.30335747960016946, 51.49580014359858], [0.3037348365110805, 51.49567952918691], [0.30377263722994113, 51.495664357776], [0.30339194823810695, 51.493466067155126], [0.30377226378989824, 51.495662201458806], [0.3039968247389031, 51.495707433317456], [0.30441111051161895, 51.495763623484464], [0.3048322254826685, 51.4957941946492], [0.30525611338056835, 51.49579885235217], [0.30567869121304864, 51.49577755173828], [0.30609588861617776, 51.49573049798874], [0.30639960128301835, 51.49567661192268], [0.3063995074673304, 51.495678357833555], [0.30642581435742344, 51.49568550031503], [0.30682928572768486, 51.49576675843868], [0.3072435752050916, 51.49582293854451], [0.307664692294404, 51.495853499502985], [0.30808858070372025, 51.49585814695295], [0.3085111574358395, 51.49583683613806], [0.30892835213743924, 51.49578977233777], [0.30933614632603773, 51.49571740888873], [0.3095366719896092, 51.495668116652325], [0.30979272793802987, 51.49285029004125], [0.30953662249380653, 51.495668661312436], [0.3096494352417138, 51.49570790351106], [0.3100382113254589, 51.49581344486874], [0.3100549030741753, 51.495816806000576], [0.31307779728941953, 51.49364821400076], [0.31005723430344606, 51.49581513370968], [0.3101103901366757, 51.49587991559621], [0.31033971122727194, 51.49610249144897], [0.3106028814239958, 51.49630996465527], [0.31089736640513277, 51.496500336915474], [0.3112203301301973, 51.49667177461739], [0.31156866215211837, 51.496822626503445], [0.3119390075775372, 51.496951439581636], [0.312327799386472, 51.49705697312663], [0.31273129279969264, 51.49713821063563], [0.31314560136228065, 51.49719436962393], [0.3135667343950804, 51.49722490916541], [0.31399063545255923, 51.49722953510523], [0.3144132214156449, 51.49720820289426], [0.3148304218420879, 51.497161118018035], [0.3152382181942778, 51.497088734016295], [0.31563268256567545, 51.49699174811155], [0.31601001553196517, 51.49687109448991], [0.31620067862182505, 51.49679454486773], [0.31620084641440116, 51.49679563397579], [0.3162881273052454, 51.49681932194613], [0.3166916252115436, 51.49690054576435], [0.31710593602848774, 51.496956690723486], [0.31752706905518213, 51.496987216032586], [0.3179509678461378, 51.49699182767385], [0.3183735493041203, 51.496970481235905], [0.3187907430302929, 51.49692338234139], [0.3191985305516186, 51.496850984665016], [0.31959298404666936, 51.49675398556108], [0.31997030419595296, 51.49663331934276], [0.32032685679128003, 51.49649014827809], [0.32065920775089773, 51.496325851389436], [0.32096415620254, 51.49614201116492], [0.3212387653153652, 51.49594039830967], [0.32142861374651954, 51.49576954995467], [0.32142864520869147, 51.49576956736952], [0.3214987067413277, 51.49573493119687], [0.3218036478745516, 51.4955510888632], [0.32207824974929533, 51.49534947411364], [0.3223198679295619, 51.49513202882718], [0.32252617576604353, 51.4949008473266], [0.32269518679280196, 51.494658156201055], [0.32282527384298715, 51.494406292855714], [0.3229151847000458, 51.494147682995234], [0.3229640541344668, 51.49388481725822], [0.32297141221100284, 51.49362022722769], [0.3229371887873331, 51.493356461048975], [0.3228617141619188, 51.493096058889776], [0.32274571586582074, 51.49284152847857], [0.3225903116304737, 51.492595320957285], [0.3225535203818478, 51.49255049831765], [0.3178172155434616, 51.4932595384281], [0.32255591943510653, 51.49255013911778], [0.3225562113995332, 51.49253964377558], [0.3225219913802252, 51.492275877390455], [0.3224476879314903, 51.492019500934866], [0.3224460573364184, 51.49201952737848], [0.3224552790973338, 51.49199300243686], [0.32250414927887466, 51.49173013679803], [0.32251151007537965, 51.49146554667743], [0.3224772913182459, 51.49120178022127], [0.32240182326090555, 51.49094137759991], [0.3222921104832832, 51.490700621273554], [0.3222898645906885, 51.490700580394254], [0.3223216225561578, 51.490654974212674], [0.3224517009902353, 51.49040311124026], [0.3225416068223083, 51.49014450157556], [0.32259047487110337, 51.48988163585522], [0.32259783521455254, 51.48961704566213], [0.32256361768833863, 51.48935327914322], [0.32255572241324676, 51.48932603558351], [0.3225575750998929, 51.48932622127729], [0.322725290625566, 51.48908536216474], [0.322855362629171, 51.48883349876615], [0.3229452633634635, 51.48857488879535], [0.3229941276962122, 51.48831202289197], [0.32299543792968216, 51.48826490788931], [0.32299672917340716, 51.48826512113571], [0.3230157181511554, 51.48824383931443], [0.32318470306530556, 51.488001147570415], [0.32331476962542544, 51.48774928368959], [0.32340466581207206, 51.487490673381735], [0.3234535265367701, 51.48722780728971], [0.32346088194788475, 51.48696321699995], [0.3234266619284903, 51.48669945066028], [0.32335119674398793, 51.486439048439934], [0.32323521383425363, 51.48618451806802], [0.3230798307823058, 51.4859383106861], [0.3228865445281486, 51.48570279724713], [0.3226572169325874, 51.48548024568795], [0.3223940568308047, 51.48527279909507], [0.322099598749118, 51.485082455073446], [0.32177667849031805, 51.48491104651685], [0.3214284058229485, 51.48476022396479], [0.32105813453752985, 51.4846314397152], [0.3206694301579355, 51.48452593384594], [0.32026603561847855, 51.48444472227933], [0.3198518352366613, 51.48438858700418], [0.31943081732785017, 51.4843580685497], [0.3190070358209945, 51.484353460782955], [0.3185845712441142, 51.48437480808053], [0.31816749145423023, 51.48442190490103], [0.31775981248886404, 51.48449429776289], [0.3173654599151101, 51.484591289608304], [0.31698823104748014, 51.48471194651144], [0.3166317583975384, 51.48485510666659], [0.31629947470653097, 51.485019391569885], [0.3159945798971683, 51.48520321928701], [0.3157200102624318, 51.485404819679694], [0.3154784101878685, 51.485622251444624], [0.3152721066797422, 51.485853420800765], [0.31513483416195764, 51.48605051876773], [0.31513561591295125, 51.48605217518173], [0.3149182939615697, 51.48595804646422], [0.3145480305504509, 51.48582924156532], [0.31415933023204856, 51.485723714066104], [0.31375593590165046, 51.4856424800971], [0.3133417318748016, 51.4855863218629], [0.3129207065019959, 51.48555578011368], [0.3124969137840502, 51.48555114894082], [0.31230083298363004, 51.48556104601203], [0.3123008668531021, 51.48556069477214], [0.312191802530683, 51.48554590642128], [0.3103543860246163, 51.48794809218906], [0.31219028845412716, 51.48554788599522], [0.311979673392004, 51.485436060664796], [0.3116314280746475, 51.48528520866118], [0.3112611791103238, 51.48515639318171], [0.31087249180814447, 51.48505085460498], [0.310469108938125, 51.48496960916823], [0.31005491470551055, 51.48491343918637], [0.30963389736653163, 51.48488288552276], [0.30921011084468153, 51.48487824238349], [0.30878763571626094, 51.48489955448563], [0.3083705399398407, 51.48494661662669], [0.30796283970679006, 51.48501897565901], [0.30786953126232497, 51.48504191596454], [0.3069222806499389, 51.487967448051094], [0.30787012328086044, 51.48504008743349], [0.30756725172945354, 51.484879257437015], [0.30721902486359026, 51.48472839207583], [0.306848792455714, 51.48459956243568], [0.30658085899730375, 51.484526798882236], [0.30435177996274587, 51.486383713900395], [0.30658045328234346, 51.48452713687693], [0.3064663316091973, 51.484437133577], [0.30617194410069093, 51.48424674862329], [0.3058490881999057, 51.4840752953454], [0.30550087305599255, 51.483924424713386], [0.305130651905887, 51.483795589488196], [0.30497730615849206, 51.48375394154198], [0.3049775651423078, 51.48375390378857], [0.30507716586900585, 51.48368079228384], [0.30531880615501444, 51.48346338140328], [0.30552515017597365, 51.483232228986054], [0.3056942111168374, 51.48298956134125], [0.3058243613294033, 51.48273771564799], [0.3059143479881798, 51.48247911744102], [0.3059633051330243, 51.482216257246776], [0.30596983961091206, 51.48198439511591], [0.3059681820038455, 51.48198389118602], [0.30621755628822644, 51.48186062569856], [0.30652246937133687, 51.48167682310505], [0.30679705840044347, 51.48147524391295], [0.307038679062771, 51.48125782965872], [0.30724500468452903, 51.48102667436622], [0.30741404862785576, 51.4807840043722], [0.30754418340821005, 51.48053215687836], [0.30763415634867414, 51.480273557436746], [0.30768310162115486, 51.480010696585715], [0.3076905485593936, 51.47974610586136], [0.3076564261647025, 51.479482333415845], [0.30758106376207883, 51.47922191947737], [0.30746518780142673, 51.478967371888075], [0.3073099148357526, 51.478721141955475], [0.3071167407449347, 51.47848560084985], [0.30688752630975175, 51.47826301677467], [0.3066244792758411, 51.47805553312967], [0.30633013308095036, 51.477865147876706], [0.306007322450742, 51.47769369430675], [0.3056591560984287, 51.4775428233928], [0.30528898679115024, 51.47741398789856], [0.304941093252818, 51.47731948788082], [0.30225401961405524, 51.47994950546797], [0.3049410903899435, 51.477319490683094], [0.30491015949489325, 51.47729948320868], [0.3045873581299515, 51.47712802559621], [0.30423920069922233, 51.47697715033849], [0.30386903988396763, 51.476848310241046], [0.3034804401447204, 51.476742745919545], [0.3030771434085943, 51.47666147385916], [0.30266303305171094, 51.476605276631204], [0.30224209652292156, 51.47657469536134], [0.30181838696785224, 51.476570024521514], [0.3013959842219192, 51.47659130909549], [0.300978955546917, 51.47663834414579], [0.30057131648824104, 51.47671067678556], [0.30054061297106033, 51.476718224461045], [0.3005406524977831, 51.47671781877962], [0.30016952029329447, 51.47661698676647], [0.2997662301980704, 51.4765357032246], [0.29935212468355865, 51.47647949423243], [0.29893119115201644, 51.47644890102892], [0.29850748272022637, 51.476444218200854], [0.29808507921279426, 51.47646549084747], [0.2976680478988382, 51.47651251414613], [0.2972604043491424, 51.47658483532307], [0.2968660737897209, 51.476681758010656], [0.29648885332294167, 51.4768023489489], [0.2961323753792181, 51.476945446967214], [0.2958000727504226, 51.477109674159976], [0.2954951455412019, 51.477293449148554], [0.29522053035603774, 51.47749500230243], [0.294978872018576, 51.47771239277319], [0.2947724980955703, 51.4779435271775], [0.29460339647096767, 51.47818617974964], [0.2944731961865094, 51.4784380137697], [0.2943831517339341, 51.478696604061604], [0.29437410457339563, 51.47874511640957], [0.2943727281066964, 51.478741507733716], [0.2943621034646868, 51.47873118659459], [0.29409910964039787, 51.47852367418231], [0.2938048115472849, 51.47833325687818], [0.29348204344808837, 51.47816176828185], [0.2931339136467416, 51.478010859703595], [0.29276377455867025, 51.477881984269764], [0.29237519043538457, 51.47777638293632], [0.2919719030537838, 51.47769507254475], [0.29155779570002976, 51.47763883603546], [0.29113685579413046, 51.47760821491231], [0.2907131365142529, 51.4776035040309], [0.29029071778943116, 51.47762474876054], [0.2898736670352544, 51.47767174454737], [0.2898647468710867, 51.477673326437596], [0.2898647590525947, 51.477673421335474], [0.2898523318076383, 51.47767251716113], [0.28942861191626, 51.47766780164172], [0.28900619185393894, 51.47768904175638], [0.2885891390491355, 51.47773603299565], [0.28818146927946914, 51.47780832289448], [0.2877871080232974, 51.47790521538637]]]}}]}