{
  "type": "FeatureCollection",
  "features": [
    {
      "type": "Feature",
      "properties": {
        "CATCHMENT_NAME": "Fred Longworth High School catchment",
        "SCHOOL_URN": 137448,
        "SCHOOL_NAME": "Fred Longworth High School"
      },
      "geometry": {
        "type": "MultiPolygon",
        "coordinates": [
          [
            [
              [-2.478086621452042, 53.49261242212995],
              [-2.477715499920455, 53.49257246290494],
              [-2.4765670130418678, 53.49257706310064],
              [-2.4710324521755487, 53.494083124603975],
              [-2.4702677142984917, 53.49417176405583],
              [-2.4692394508975597, 53.494232897683226],
              [-2.4664388015460097, 53.49414400981621],
              [-2.4651956547467715, 53.49424875888516],
              [-2.4638118957728556, 53.49462516683911],
              [-2.4624562379503354, 53.49538673003138],
              [-2.4610663143869265, 53.49740414228446],
              [-2.4611466301855454, 53.49818866330719],
              [-2.4609352896060903, 53.49856049185804],
              [-2.459938415784742, 53.49932063760509],
              [-2.4577548009168892, 53.50099859920238],
              [-2.4570857910555346, 53.50110105557196],
              [-2.456463873906126, 53.501131979612424],
              [-2.45555661390785, 53.50133522839956],
              [-2.454770075086465, 53.501637895899336],
              [-2.453549237564185, 53.50161401129647],
              [-2.4530230395660797, 53.50164455290685],
              [-2.4470008838228297, 53.50249491964066],
              [-2.443465130611088, 53.50310743916016],
              [-2.4413929127365894, 53.5040711866955],
              [-2.439916731355497, 53.50481865550793],
              [-2.4390330976473726, 53.50500741483186],
              [-2.4374041163220856, 53.50487070129841],
              [-2.435344482156453, 53.50474980824637],
              [-2.4338357709346132, 53.504669679356795],
              [-2.432925846406539, 53.504630168859066],
              [-2.4317024604850768, 53.50436347117029],
              [-2.426879322559972, 53.50552234495011],
              [-2.422841933288398, 53.50629296652213],
              [-2.420572358179281, 53.5067290502179],
              [-2.4159925786537815, 53.50835748470717],
              [-2.415611552468102, 53.50855857584301],
              [-2.4152767206346604, 53.50858827417692],
              [-2.414943974527386, 53.508831999873784],
              [-2.4150166183814976, 53.50891736261926],
              [-2.4148749448308187, 53.509117619683245],
              [-2.414829295125356, 53.50934608164322],
              [-2.414614556707464, 53.50941816897754],
              [-2.4146403010199626, 53.50960357794193],
              [-2.414165583927723, 53.51001901937772],
              [-2.414579183774742, 53.510702503987645],
              [-2.4147278132696828, 53.51121567538465],
              [-2.415406427235207, 53.51206947096189],
              [-2.4156740672879287, 53.51251088479295],
              [-2.41573086018201, 53.513423906522945],
              [-2.4152570848063757, 53.51393923054159],
              [-2.414547511934927, 53.51482636073923],
              [-2.4152963325365655, 53.515508688330705],
              [-2.4160435044492288, 53.51601978882289],
              [-2.4167432317900976, 53.51657385684498],
              [-2.4181218704406975, 53.517995959254385],
              [-2.41831466490351, 53.518123707802026],
              [-2.4192051457495105, 53.51859147339748],
              [-2.420505062124114, 53.519300369797406],
              [-2.4216127737470527, 53.519938584998975],
              [-2.4228385348961483, 53.52040514788739],
              [-2.4240612004063298, 53.52055779361724],
              [-2.425957426674199, 53.521021956288024],
              [-2.427015091684453, 53.521431999124104],
              [-2.427495828009017, 53.52161578464956],
              [-2.4281937870678907, 53.52197002202675],
              [-2.4337096450552376, 53.52280636951579],
              [-2.446398572670186, 53.524885927467665],
              [-2.459617838210804, 53.52717600412628],
              [-2.4661429497697767, 53.528206650792704],
              [-2.468277254795569, 53.52846942254848],
              [-2.4721835254059514, 53.52871083930668],
              [-2.471822089491409, 53.528512502482634],
              [-2.471676818109681, 53.528370386043505],
              [-2.4714849232348564, 53.52834260778642],
              [-2.471484129689753, 53.52827126487372],
              [-2.471626859858761, 53.52818508332692],
              [-2.4715540662475326, 53.52809975642687],
              [-2.4715764258645296, 53.52795697573411],
              [-2.471501886930074, 53.52771469348159],
              [-2.471452089022994, 53.52754366015982],
              [-2.4713788209552097, 53.52741552739507],
              [-2.4712825570998187, 53.52737310090742],
              [-2.471281605302572, 53.52728748849919],
              [-2.4709915518885497, 53.527046059869],
              [-2.4709408059492013, 53.52678941390911],
              [-2.4706991256507123, 53.52659060083941],
              [-2.4708662730692135, 53.52654713213044],
              [-2.470985210943572, 53.526475315517395],
              [-2.4709834672160977, 53.52631836015956],
              [-2.470670744065731, 53.526191174184824],
              [-2.470692313732713, 53.52597705067734],
              [-2.470737511938134, 53.52573429438417],
              [-2.4705434117921876, 53.52550675440614],
              [-2.4704677748476254, 53.52516458957435],
              [-2.4710646633010427, 53.5250052636066],
              [-2.471564655280361, 53.524746433194984],
              [-2.4720175444814916, 53.52455913406876],
              [-2.4722803039490007, 53.52450101395363],
              [-2.472253814633235, 53.524272807434976],
              [-2.472298046194499, 53.523944433103104],
              [-2.472656259668979, 53.523857394548074],
              [-2.4725592085915635, 53.523743624033735],
              [-2.472630405315364, 53.52368626259972],
              [-2.472531445308193, 53.52340126591605],
              [-2.472314674717862, 53.52328797028078],
              [-2.4721927277929026, 53.52308868040607],
              [-2.4720457239542335, 53.522789603361645],
              [-2.4721145367481165, 53.52251821038117],
              [-2.4721116753409147, 53.522261370163136],
              [-2.472062834460579, 53.52217594691827],
              [-2.472036823201071, 53.52199054676651],
              [-2.471843686959643, 53.52184861652485],
              [-2.4720571124118718, 53.52166226732177],
              [-2.472078671398089, 53.52144813869965],
              [-2.471909796873973, 53.52133465219193],
              [-2.471981308227552, 53.52130582980353],
              [-2.4718837883539955, 53.521149251947456],
              [-2.471906301315455, 53.52102073736152],
              [-2.471905030209782, 53.52090658561085],
              [-2.472024426427207, 53.520877573444096],
              [-2.472189960724878, 53.52069141389581],
              [-2.4724277969605937, 53.520547774897835],
              [-2.474750873092128, 53.52059561558234],
              [-2.477192381899086, 53.52052877911937],
              [-2.4786498191452573, 53.52025181115581],
              [-2.4806842807500775, 53.520186539923344],
              [-2.481095515528204, 53.520555885581956],
              [-2.4828042233250205, 53.52131952052886],
              [-2.483648747169959, 53.52188687195537],
              [-2.487043461876371, 53.52141640844405],
              [-2.48715973219085, 53.52111627461499],
              [-2.487034929141655, 53.520674433585775],
              [-2.4869101303010686, 53.5202325923111],
              [-2.4871457813909346, 53.51990343133366],
              [-2.487857474149014, 53.51932974050813],
              [-2.4881616483983833, 53.5187149093724],
              [-2.488104391952223, 53.51790178757148],
              [-2.4880922248393142, 53.5168458992578],
              [-2.487989566752569, 53.516246996564334],
              [-2.4890146331122884, 53.513788419182255],
              [-2.4891041348065976, 53.513245805659786],
              [-2.489884544164991, 53.512414962043124],
              [-2.4888199264389184, 53.51143473077695],
              [-2.4887700785443023, 53.51126370018401],
              [-2.488430683052155, 53.510894081720046],
              [-2.4884983859107708, 53.51053706337374],
              [-2.488565103029056, 53.51009443144872],
              [-2.48846409696279, 53.50963821756246],
              [-2.4872869526554298, 53.50927202768853],
              [-2.4869200473740865, 53.50858858465034],
              [-2.486344935064273, 53.508533854758674],
              [-2.485698178984641, 53.50849368376983],
              [-2.4848125564494215, 53.50849729024973],
              [-2.4841184188608656, 53.508500112604466],
              [-2.4837113472241645, 53.508487496264294],
              [-2.4834449649871253, 53.50821745356007],
              [-2.4831097029508657, 53.508204543786675],
              [-2.4808110747354446, 53.5081424937836],
              [-2.4784167109128097, 53.50808078404706],
              [-2.4777143855682535, 53.507355849369894],
              [-2.477728359506189, 53.50647107456901],
              [-2.4756809565222815, 53.50532342479787],
              [-2.4758091996690132, 53.50395302524842],
              [-2.475677856935643, 53.502911863636584],
              [-2.475641929040482, 53.50184178242679],
              [-2.4761463393663834, 53.49987055331203],
              [-2.475482777838348, 53.498317808601804],
              [-2.4755141711687854, 53.496847906708396],
              [-2.4755452443964847, 53.49534946551235],
              [-2.478086621452042, 53.49261242212995]
            ]
          ],
          [
            [
              [-2.478098811938602, 53.49261373410353],
              [-2.4780986512304537, 53.49259946508569],
              [-2.478086621452042, 53.49261242212995],
              [-2.478098811938602, 53.49261373410353]
            ]
          ]
        ]
      }
    }
  ]
}
