{"type":"FeatureCollection","features":[{"type":"Feature","properties":{"area_name":"Brimsham Green School / Yate Academy / Chipping Sodbury School"},"geometry":{"type":"Polygon","coordinates":[[[-2.4495522585826692,51.58985947441787],[-2.444623889018157,51.59028072562752],[-2.4436562476788386,51.590624132412934],[-2.4425072138749835,51.590184165839986],[-2.4403914202395907,51.59280098837179],[-2.4326210519616493,51.59360917648125],[-2.429537262376519,51.59295189951214],[-2.4254243970338676,51.59418546519687],[-2.423277744308548,51.594862650175884],[-2.4208295489681437,51.59423438195251],[-2.419045006318521,51.591956216426745],[-2.4176844184469743,51.593315337196636],[-2.4150543005111795,51.59280780561752],[-2.4111839418083107,51.59237271785702],[-2.407979478408765,51.592097498975264],[-2.4065576057725613,51.59048242432775],[-2.406104011438979,51.5885235021788],[-2.4051062724619743,51.58692731996467],[-2.4051370777845364,51.58615405509818],[-2.39957354063439,51.58564174069956],[-2.394372972434325,51.58488745708299],[-2.3907147112802867,51.58446204491883],[-2.3878720723700617,51.584849408570285],[-2.384153661913929,51.585067342896444],[-2.381008846786005,51.58505291648823],[-2.3792860109995386,51.586654025551816],[-2.3788019415759494,51.588182609719645],[-2.378650889387184,51.590242984432955],[-2.3786916950349815,51.590292670127624],[-2.378770043779185,51.59040958967085],[-2.3788198333210104,51.590545536751435],[-2.3787749613616747,51.59065230505819],[-2.3785693256023936,51.59068168827992],[-2.378136823744384,51.590585480105446],[-2.377411353488861,51.59031547422357],[-2.3765820062653717,51.58994756580167],[-2.375881669148549,51.58959918919297],[-2.375309825214851,51.58928385570415],[-2.374865957540734,51.589015076641935],[-2.374549549202656,51.588806363313005],[-2.3743600832770735,51.58867122702407],[-2.3742970428404444,51.58862317908183],[-2.3743874155962623,51.58811026086146],[-2.3705775587723186,51.58793646047143],[-2.368673003811372,51.58784957731273],[-2.366375333762373,51.586065058343046],[-2.3652864977608954,51.58498176130915],[-2.363382120353971,51.583086134287036],[-2.360298130581423,51.58423760014884],[-2.359917340986703,51.58401446826316],[-2.3593107774234148,51.5838126930514],[-2.3585820840256,51.58363700237365],[-2.3578349049273006,51.58349212409002],[-2.3571728842625586,51.58338278606063],[-2.3566996661654156,51.58331371614558],[-2.3565188947699145,51.58328964220498],[-2.3541003276683186,51.58098300931865],[-2.3525580206222916,51.58065413786626],[-2.350350646013357,51.58016587743517],[-2.3486577684091343,51.58099325466408],[-2.346207995192772,51.58036445850365],[-2.346631391939518,51.58219296737951],[-2.3443339612951113,51.581312593517595],[-2.341309926686856,51.58091656984631],[-2.341370945473545,51.57846408273467],[-2.339374924744884,51.57798547779165],[-2.338649707879882,51.578469435303276],[-2.336321682089928,51.57836323399205],[-2.3339936110331827,51.57825703061581],[-2.3307584457828363,51.57875552346046],[-2.3281584021448447,51.575665057423976],[-2.3258595844015915,51.57478507624107],[-2.3199043652355176,51.57709725784185],[-2.3175753725388244,51.57608686441836],[-2.31615479028581,51.57628058678265],[-2.316215508935932,51.57744601822838],[-2.3108327981357877,51.57590831321644],[-2.3086264971388464,51.5763247057219],[-2.3072049871962674,51.57832712391261],[-2.307235508259554,51.579362142085245],[-2.3033958546409785,51.57815335656271],[-2.299948445919372,51.57592882504807],[-2.3014608753324017,51.57522226554055],[-2.3036669336912583,51.573901713962954],[-2.3040909540510217,51.573016909181],[-2.3032436436497656,51.57207366591138],[-2.3009160380519185,51.57106287980887],[-2.2990417873830613,51.57110687074755],[-2.2960181535670103,51.569806275216855],[-2.29326630760471,51.56877613585667],[-2.2956855597577865,51.568369913844464],[-2.2956247344024105,51.567204021574454],[-2.2930551377454442,51.56695776443394],[-2.2909388633944747,51.565956632786985],[-2.2897593052938405,51.56448163407703],[-2.2895171909456886,51.562532815308565],[-2.287521810413824,51.56205378361389],[-2.2849520103359473,51.56361625533991],[-2.2826237419079085,51.56260589495655],[-2.2808695148670726,51.560458604044406],[-2.2819890552463558,51.55624568089187],[-2.2760928017044404,51.5561061798148],[-2.272826788680864,51.554665035622904],[-2.267082580101342,51.553369366941666],[-2.2704386225870143,51.55068008714312],[-2.270740898753862,51.54927270147634],[-2.271890113345232,51.54790393815025],[-2.2721618425819057,51.54546151931395],[-2.2727967834067457,51.54368129033186],[-2.2710126854890174,51.54230820501055],[-2.271497259176572,51.539875495843226],[-2.269379917263226,51.535256825386064],[-2.2702272823468403,51.534390890864216],[-2.2659330868878462,51.5303189781486],[-2.262305229975047,51.52821526435535],[-2.2621845137099648,51.52588442053967],[-2.262757988982633,51.522938726039214],[-2.2644521209863635,51.52120727184781],[-2.265087385287654,51.52033164776526],[-2.262939791522483,51.52010465562888],[-2.2625166956187917,51.51918075062006],[-2.2597048070596513,51.51879441857449],[-2.259281407079412,51.51696589573425],[-2.2573165342605472,51.51480900927042],[-2.2559861047586622,51.513585655374726],[-2.2529325127603674,51.51305879167871],[-2.2506941968960397,51.51244009786626],[-2.2506650629315996,51.51140468701461],[-2.2516929635117586,51.51041840852753],[-2.251208641460487,51.50923318310811],[-2.2509667471170243,51.50818852237928],[-2.2527206340976305,51.50671832148571],[-2.2571348333673744,51.50588605147997],[-2.2597348310320866,51.504453993027035],[-2.2649350725222086,51.50430365777968],[-2.2749130155965025,51.50217498727041],[-2.2798414592432756,51.49994454533743],[-2.286795370942807,51.49741986512124],[-2.288427724034709,51.496331199489354],[-2.289244167262833,51.495334818654285],[-2.288760702052358,51.494150102096164],[-2.2939611275634872,51.49219105091414],[-2.3004315033309712,51.49119406728984],[-2.3051179753185287,51.48972814138698],[-2.309199781383835,51.488363680980356],[-2.3130091173600347,51.48672871946372],[-2.3113765924788163,51.48510402133577],[-2.3083223535276205,51.48276794784066],[-2.305359641782602,51.48082405488915],[-2.3030317967801626,51.478909123678875],[-2.3003402326920988,51.47723611364953],[-2.3003105326131235,51.47439193882621],[-2.302668412696191,51.47101104764044],[-2.3084738474232935,51.47256803673227],[-2.31173883533516,51.473104544017],[-2.3130692256198704,51.471615009974016],[-2.3171813586106618,51.470381424697266],[-2.3185123858586763,51.46889144993826],[-2.3224426738589505,51.46777903316881],[-2.3263124114758065,51.4664049261271],[-2.330786763281137,51.464929323595406],[-2.337710590693268,51.46317792732147],[-2.339222916923656,51.46428052957603],[-2.3444836861595912,51.46439149669602],[-2.3476579293389053,51.464536301272176],[-2.347265739825521,51.468264908306715],[-2.34632864864987,51.469643362226016],[-2.346418743902517,51.47274836359552],[-2.3452698269207093,51.47502171682428],[-2.3442120328302622,51.47678219986968],[-2.343395592835631,51.477778594669125],[-2.343485891509188,51.479074867172095],[-2.3420652025509203,51.47926812871211],[-2.3408855128695434,51.48412439835497],[-2.3392227261469025,51.48508172803269],[-2.340250682110646,51.48680831058804],[-2.343395823948513,51.487727355860166],[-2.3419448633211486,51.489599394850416],[-2.3410073260865025,51.49188241856412],[-2.3500180645973643,51.491905456955145],[-2.3581204832033897,51.49072486727891],[-2.366797460810871,51.49021609501619],[-2.3765941541095628,51.49001738594713],[-2.3900488498849946,51.49024316532866],[-2.397153657652761,51.49017971375625],[-2.3945833881760055,51.48812423181976],[-2.3968514535345853,51.48706503627416],[-2.3983029689597872,51.48700176073933],[-2.400630270481087,51.48710792901043],[-2.4014172517077275,51.48598116845866],[-2.4052261529416294,51.48525077725268],[-2.4061332956355144,51.484646097061166],[-2.4066774794961114,51.486996245065015],[-2.4107297494776736,51.48731059566501],[-2.4118782677008657,51.488654686721205],[-2.4130878033836463,51.48935594066462],[-2.413662291536333,51.491836962765845],[-2.417743828181673,51.494090408500966],[-2.417925550589646,51.49577841468762],[-2.4203140976584288,51.49614589043745],[-2.4245467010427255,51.49633897593988],[-2.427419632928342,51.49608248586955],[-2.4305337348887677,51.496870623487915],[-2.4311688070858457,51.497803728788156],[-2.435038433436855,51.49823879695664],[-2.4433528969429426,51.50158993309374],[-2.448160400588827,51.50335946935424],[-2.4445927648182897,51.50513494855695],[-2.443051324729853,51.50751944494328],[-2.4420225837654805,51.510314893012925],[-2.441024964844016,51.51143204456488],[-2.4359759182315956,51.512235339897515],[-2.4324079557511147,51.513106200236315],[-2.430472676305971,51.51379302777152],[-2.432317745501504,51.5190453541258],[-2.4323178339254503,51.526280780518256],[-2.4301407307771075,51.533158345272085],[-2.4295056832470134,51.534938113429895],[-2.4305641554243307,51.537699741570364],[-2.4340715419436254,51.53837678458443],[-2.4394528443386285,51.53810523124402],[-2.4451979919244136,51.537592204615095],[-2.445454777281723,51.53762538731501],[-2.446141561709683,51.5377120836205],[-2.447132987742343,51.53783301584014],[-2.4483036979137505,51.53796890628256],[-2.4495283347579546,51.538100477256336],[-2.4506815408090037,51.53820845107007],[-2.4516379586009465,51.538273550032365],[-2.4526099694436874,51.53834011328675],[-2.453820536428612,51.53845597792152],[-2.4551601893120325,51.53860711382621],[-2.45651945785026,51.538779490890335],[-2.4577888717996066,51.53895907900342],[-2.458858960916383,51.53913184805498],[-2.459620254956902,51.539283767934535],[-2.4601102346873596,51.539367164611015],[-2.460541534137729,51.53940264666979],[-2.461066463050043,51.53947854682696],[-2.461837331166335,51.53968319779862],[-2.4630064482286373,51.54010493230084],[-2.4647261239789833,51.54083208304973],[-2.4671486681594064,51.541952982761366],[-2.4694159451399136,51.54372697024926],[-2.4707153959180648,51.5461461425614],[-2.4712675683774425,51.54889735998682],[-2.47129301040163,51.551667482814544],[-2.4710122698742105,51.5541433713336],[-2.4706458946787673,51.55601188583303],[-2.4704144326988837,51.55695988660185],[-2.470252286033224,51.55788146374505],[-2.4699801592874,51.55964102709033],[-2.469647230995246,51.561881465191526],[-2.4693026796905984,51.56424566660246],[-2.4689956839072917,51.566376519876954],[-2.468775422179162,51.56791691356885],[-2.468691073040044,51.56850973623197],[-2.470897856786151,51.5744241703308],[-2.4708380083271115,51.57597212068817],[-2.4714724516440914,51.57690565325631],[-2.469567693262234,51.57862749896415],[-2.468117144743771,51.579594966611246],[-2.4638838057741226,51.579401847552425],[-2.463127864424924,51.58065951575796],[-2.4623721398469223,51.58282132803875],[-2.460739676816274,51.583909518881974],[-2.458774199784295,51.58446593314409],[-2.455810898376352,51.585235355399156],[-2.4544205104766816,51.585559477072174],[-2.4523338408161317,51.587402059940516],[-2.4495522585826692,51.58985947441787]]]}},{"type":"Feature","properties":{"area_name":"Downend School / King's Oak Academy / Mangotsfield School / Winterbourne Academy"},"geometry":{"type":"Polygon","coordinates":[[[-2.521325658627069,51.47697812488355],[-2.518763534193664,51.48240888395239],[-2.5175730710524715,51.48678424832109],[-2.5160991782601783,51.49160489787585],[-2.5150273852697547,51.493835837650195],[-2.5198193285036448,51.49413581902306],[-2.521736286312772,51.49527142839498],[-2.519930263940539,51.497676973881546],[-2.5178973471311146,51.49843801908898],[-2.5169896915613874,51.49914793607713],[-2.5204926086674324,51.499937011254744],[-2.51928448217395,51.50211872771351],[-2.518680021873063,51.50320994745354],[-2.517966535301147,51.505329860790674],[-2.5189912074347167,51.50729344318132],[-2.5352981337915295,51.52527793464186],[-2.5319239094867574,51.52542986075698],[-2.531329409763871,51.5275052300327],[-2.5308066325371,51.52918318752543],[-2.530408626656554,51.529949937934376],[-2.5280116960155024,51.53171175000711],[-2.5279348721894137,51.53183019613246],[-2.5277263801138887,51.532142729724576],[-2.5274191888930373,51.532585143607555],[-2.5270462676309693,51.53309323060551],[-2.5266405854317946,51.53360278354253],[-2.5262351113996244,51.53404959524273],[-2.5258628146385673,51.5343694585302],[-2.52549233096534,51.53470231134737],[-2.525091532791254,51.53518262236097],[-2.524692244112318,51.535737980481635],[-2.5243262889245397,51.53629597461997],[-2.5240254912239264,51.536784193686586],[-2.523821675006486,51.53713022659211],[-2.5237466642682267,51.53726166224715],[-2.523735730814657,51.53731007416125],[-2.523694002905326,51.53745432033387],[-2.5236080892172987,51.53769291641048],[-2.5234645984276405,51.53802437803653],[-2.523250139213417,51.538447220857506],[-2.522951320251693,51.53895996051885],[-2.5225547502195345,51.53956111266605],[-2.52202396574383,51.54030145323968],[-2.5213793027793776,51.54117304013012],[-2.520692032054359,51.542086521470104],[-2.520033424296955,51.542952545392374],[-2.519474750235347,51.54368176002966],[-2.519087280597716,51.5441848135147],[-2.5189422861122432,51.544372353980215],[-2.5171809174292146,51.54527849051429],[-2.5156169499426313,51.54487610754568],[-2.512911861588658,51.54440653440859],[-2.510759533000165,51.545212282754754],[-2.5093448954634354,51.54771805735191],[-2.5085786434831108,51.547634354038415],[-2.5075350640108462,51.548272210521326],[-2.506375095912155,51.55080689572326],[-2.504928088366508,51.55307760094075],[-2.5039164539731225,51.55395068588066],[-2.50276299280254,51.555617562851616],[-2.5027055858280596,51.55552272731601],[-2.5025467515619924,51.55528218883453],[-2.5023065699903952,51.554961899595206],[-2.5020051210993275,51.55462781178606],[-2.501662484874846,51.55434587759511],[-2.5012987413030108,51.55418204921037],[-2.5009339703698785,51.55420227881987],[-2.5004468176125347,51.55430940123655],[-2.499760039925185,51.554372441776835],[-2.4989593462688084,51.554406839813055],[-2.4981304456043816,51.554428034717525],[-2.4973590468928832,51.55445146586257],[-2.4967308590952912,51.55449257262052],[-2.4963315911725825,51.554566794363694],[-2.4960165950780238,51.554692631353454],[-2.4956076212263723,51.55487092307843],[-2.495140514331609,51.55509041632283],[-2.4946511191077145,51.55533985787083],[-2.4941752802686694,51.55560799450663],[-2.4937488425284533,51.55588357301443],[-2.493407650601047,51.5561553401784],[-2.4930864470593423,51.55650859216188],[-2.492719249855508,51.55699143172841],[-2.4923408344481737,51.55753681749818],[-2.4919859762959677,51.55807770809138],[-2.491689450857518,51.55854706212819],[-2.491486033591454,51.5588778382288],[-2.4914104999564044,51.55900299501341],[-2.4890643706772324,51.558398176740575],[-2.486505337543639,51.55898605354855],[-2.4865178031960546,51.55886903603449],[-2.4865513606602865,51.55855398211507],[-2.4866002506968106,51.55809488972447],[-2.4866587140661043,51.557545756796856],[-2.486720991528645,51.55696058126638],[-2.486781323844909,51.55639336106723],[-2.486833951775373,51.55589809413355],[-2.4867888196219643,51.55530632627929],[-2.486590186980353,51.55447816110677],[-2.4862844043668617,51.55351075931675],[-2.4859178222978118,51.55250128160998],[-2.4855367912895256,51.55154688868721],[-2.4851876618583257,51.55074474124922],[-2.4849167845205336,51.55019199999675],[-2.4846001902122827,51.54972675152546],[-2.484095351096333,51.54917205686249],[-2.4834213832327428,51.548602876835446],[-2.482597402681571,51.548094172271945],[-2.4816425255028776,51.5477209039996],[-2.4805758677567207,51.547558032846005],[-2.47941654550316,51.547680519638796],[-2.4779876958558162,51.54804422369009],[-2.47621632317946,51.548523267331895],[-2.474276177812739,51.54906987816776],[-2.472341010094301,51.54963628380125],[-2.4705845703627936,51.550174711835936],[-2.469180608956864,51.55063738987537],[-2.4683028762151613,51.55097654552311],[-2.467626085018679,51.55130978592965],[-2.4667684794235814,51.551751759763654],[-2.4658195458375687,51.55224952796388],[-2.4648687706683385,51.552750151469034],[-2.4640056403235913,51.55320069121787],[-2.463319641211025,51.5535482081491],[-2.4629002597383396,51.55373976320146],[-2.462530746610079,51.55387018009081],[-2.4619832976031644,51.55404993639681],[-2.4613308332895727,51.55424956765607],[-2.4606462742412827,51.554439609405236],[-2.460002541030272,51.55459059718092],[-2.459472554228519,51.55467306651975],[-2.4591292344080014,51.554657552958346],[-2.4588578766830573,51.5545466596701],[-2.458521760222589,51.554380050842006],[-2.458159704998887,51.5541842523225],[-2.457810530984242,51.55398578996003],[-2.4575130581509455,51.55381118960305],[-2.4573061064712873,51.5536869771],[-2.457228495917559,51.55363967829933],[-2.4572611438655665,51.55346683388047],[-2.4573465425015413,51.553006292971475],[-2.4574658740134128,51.55234504409367],[-2.4576003205891106,51.55157007576842],[-2.457731064416564,51.550768376517055],[-2.4578392876837025,51.55002693486093],[-2.457906172578455,51.54943273932139],[-2.457931295762346,51.54876824448112],[-2.4579399946888896,51.54782463037918],[-2.4579526787620676,51.54670231026553],[-2.4579897573858616,51.54550169739009],[-2.458071639964254,51.544323205002776],[-2.4582187359012266,51.54326724635352],[-2.458451454600761,51.542434234692266],[-2.458698346074003,51.541533463772375],[-2.458881150271391,51.540312985287535],[-2.4590105747330395,51.53893115726576],[-2.4590973269990615,51.537546337735066],[-2.4591521146095703,51.53631688472348],[-2.4591856451046796,51.53540115625902],[-2.459208626024503,51.53495751036971],[-2.45914854540991,51.534456373359845],[-2.4589593291636738,51.533412790443634],[-2.4586914144196412,51.532052576690305],[-2.4583952383116596,51.53060154716908],[-2.458121237973576,51.529285516949166],[-2.4579198505392386,51.528330301099786],[-2.457841513142493,51.52796171469017],[-2.4596152165615024,51.52532151975294],[-2.4615190911419633,51.523620033129006],[-2.4653996187290637,51.52167381062671],[-2.4662741566683097,51.51615767618593],[-2.4670307661931927,51.51525624609074],[-2.4673208589183644,51.51280046007756],[-2.4695279733850257,51.51148069854477],[-2.4698670177421587,51.50937715192741],[-2.468421986048911,51.50892980496838],[-2.4683058177242905,51.508916723737734],[-2.4679928598374943,51.5088800348253],[-2.4675364330191205,51.50882357040037],[-2.466989857899768,51.50875116263222],[-2.466406455110035,51.50866664369014],[-2.46583954528052,51.50857384574341],[-2.465342449041821,51.508476600961316],[-2.464873754035024,51.508360312431606],[-2.464364159911224,51.50821829106649],[-2.463824552732251,51.50806590042574],[-2.4632658185599348,51.50791850406912],[-2.4626988434561055,51.507791465556416],[-2.4621345134825923,51.507700148447384],[-2.4615837147012254,51.50765991630182],[-2.4610533259644907,51.507655060474725],[-2.460548518517813,51.507660058738416],[-2.4600782207162313,51.507675892758215],[-2.459651360914783,51.507703544199465],[-2.459276867468507,51.5077439947275],[-2.4589636687324403,51.50779822600766],[-2.4587206930616223,51.50786721970527],[-2.458509090662945,51.507884831082606],[-2.458293039779688,51.50780683776773],[-2.458086027377184,51.50766709877683],[-2.4579015404207665,51.507499473126096],[-2.45775306587577,51.50733781983172],[-2.4576540907075275,51.50721599790988],[-2.4576181018813723,51.50716786637679],[-2.4550428554318673,51.50763800289858],[-2.4550501425987408,51.5076695183407],[-2.4550519781184015,51.50775714331246],[-2.455018323019409,51.50789049578197],[-2.454919138330324,51.508059193717344],[-2.4547243850797065,51.50825285508668],[-2.454404024296116,51.5084610978581],[-2.453928017008113,51.508673539999705],[-2.4533452987191575,51.508919024053945],[-2.452749425097745,51.50921259652399],[-2.4521778668700387,51.50952296439544],[-2.451668094762203,51.50981883465387],[-2.4512575795004032,51.51006891428488],[-2.450983791810803,51.510241910274054],[-2.4508842024195663,51.510306529606986],[-2.4497436150319376,51.51024001780892],[-2.4484407218001123,51.5089978973561],[-2.4471540161308636,51.50787352683052],[-2.446058940473093,51.50630729816714],[-2.445392489928939,51.504209604854765],[-2.445431366865965,51.503576866003456],[-2.444219431292126,51.503907190145064],[-2.444422913615519,51.50173101516269],[-2.4421283955099096,51.50333111707364],[-2.440886833263387,51.50070759995277],[-2.4388157761312,51.50210024347145],[-2.437733674281252,51.503370267030135],[-2.4379925202356567,51.505249993355996],[-2.435846394200502,51.505188918849704],[-2.4335360748323507,51.50667112621767],[-2.4327478885357205,51.50733675758583],[-2.4336917287619335,51.50871329355819],[-2.434547993738235,51.51036892367853],[-2.430004513003112,51.512069826648336],[-2.429806180930522,51.51211401407102],[-2.4292676956263834,51.51223874090424],[-2.4284738234611467,51.51243225399571],[-2.4275093308052593,51.51268280019318],[-2.4264589840291713,51.512978626344385],[-2.425407549503331,51.513307979297046],[-2.424439793598188,51.5136591058989],[-2.4232968847555765,51.51412259843935],[-2.4222877297957632,51.51454417805787],[-2.4214078619192456,51.51492054493966],[-2.4206528143265205,51.51524839926997],[-2.4200181202180846,51.515524441234],[-2.419499312794435,51.515745371016976],[-2.419091925256069,51.51590788880412],[-2.417879937955984,51.51653268240127],[-2.4157392262775015,51.51777526895151],[-2.4130676303645533,51.519378666708626],[-2.4102629903610713,51.52108589392638],[-2.4077231464109876,51.522639968858556],[-2.4058459386582345,51.523783909758926],[-2.4050292072467445,51.52426073488125],[-2.4046169836116955,51.524456108900864],[-2.403801210332671,51.52486737753765],[-2.402752090941683,51.52540489467771],[-2.4016398289707444,51.525979014207145],[-2.400634627951868,51.52650009001204],[-2.3999066914170664,51.52687847597851],[-2.399626222898352,51.52702452599265],[-2.395451882740444,51.52957598686952],[-2.3957254204670293,51.52700302752517],[-2.3968915718040575,51.523601526701555],[-2.3950497322113486,51.52392004263154],[-2.3942092110035604,51.522381889535446],[-2.395155762825315,51.52103922646519],[-2.395294493125327,51.51839292387006],[-2.3952521754150764,51.51717370013419],[-2.395688271433812,51.515774937811024],[-2.3958628373981803,51.51521565121564],[-2.3967218465818374,51.5141525157792],[-2.397087108579122,51.51315127499693],[-2.3969415302155963,51.512094092229574],[-2.397561726975541,51.511120345598],[-2.397926988972826,51.51011910481572],[-2.398189016070171,51.50927989536092],[-2.3994217691604987,51.50362965240868],[-2.399311270659189,51.500088327326296],[-2.399634159194438,51.49786745794149],[-2.4003322823105187,51.49562948616352],[-2.4012268983978178,51.49208288919274],[-2.4017981323913773,51.49075692063795],[-2.4028160195226738,51.48901742644855],[-2.4027251193587156,51.487445399372874],[-2.4049086574100706,51.48230372026416],[-2.4071512517867717,51.47849967330611],[-2.409568572260102,51.47870641724064],[-2.410589798053235,51.47881804578041],[-2.4124578544149737,51.479601829359474],[-2.413152741507451,51.48008239482156],[-2.4132579923639756,51.48008551045951],[-2.4135318017253184,51.48009902370872],[-2.413911254779132,51.48012918407224],[-2.4143334367130707,51.48018224105311],[-2.414735432714788,51.48026444415437],[-2.4150543279719368,51.48038204287907],[-2.415227207672171,51.48054128673026],[-2.4153814787943366,51.480816965484564],[-2.415652099363832,51.48123495006884],[-2.4159880109210414,51.481727913381256],[-2.4163381550063496,51.48222852832001],[-2.416651473160141,51.482669467783275],[-2.4168769069228007,51.482983404669234],[-2.4169633978347127,51.48310301187607],[-2.417189929531985,51.48474807368893],[-2.4184276844403945,51.48552021114473],[-2.420224336864138,51.48670042579681],[-2.4218924594814335,51.48694087198152],[-2.423750400015363,51.48673928027835],[-2.4246361203976625,51.48677869164581],[-2.42491762910206,51.487907932508136],[-2.425964705099334,51.48912244347907],[-2.4252735275891895,51.49049244945425],[-2.425092823003845,51.49191897401058],[-2.4247919189694738,51.49339092231669],[-2.4253385263661875,51.49553348025539],[-2.4263859826761394,51.49674740980973],[-2.429293709931763,51.49504112370884],[-2.4315396447125437,51.49308821213204],[-2.4329161281787215,51.49121403434062],[-2.434237946322,51.48985469603701],[-2.435640604553212,51.48908241439349],[-2.4371718337237467,51.489250298252465],[-2.438064119399304,51.48842232523374],[-2.4430467248730174,51.487174776784755],[-2.44841113022082,51.48504274155642],[-2.448158494129209,51.482296196293866],[-2.4489112696915214,51.47954338984862],[-2.4488950091394366,51.47941732171886],[-2.448856445917581,51.47908138381974],[-2.4488109076775513,51.47859897588649],[-2.448773722070946,51.47803349765435],[-2.448760216749362,51.47744834885855],[-2.4487857193643974,51.47690692923433],[-2.44886555756765,51.476472638516924],[-2.448932332582533,51.476089878101845],[-2.448926639576394,51.475675954469615],[-2.4488757209558085,51.47525307190623],[-2.4488068191273538,51.47484343469766],[-2.4487471764976068,51.47446924712991],[-2.4487240354731434,51.474152713488955],[-2.448764638460541,51.47391603806078],[-2.4488840516663717,51.473649834629384],[-2.4490605323463623,51.47326835907961],[-2.4492665841385763,51.47282855377786],[-2.449474710681077,51.47238736109053],[-2.4496574156119277,51.47200172338404],[-2.4497872025691914,51.47172858302478],[-2.449836575190932,51.47162488237915],[-2.449861988390085,51.47155973658752],[-2.449926902955791,51.471387192208184],[-2.4500143313404186,51.471141588734476],[-2.4501072859963373,51.470857265659745],[-2.4501887793759165,51.47056856247734],[-2.450241823931526,51.4703098186806],[-2.4502494321155335,51.47011537376286],[-2.4502397162935403,51.46987847070572],[-2.450248122796257,51.46951051751516],[-2.4502685911028257,51.469072564411235],[-2.4502950606923894,51.468625661614],[-2.4503214710440915,51.468230859343514],[-2.4503417616370746,51.46794920781984],[-2.4503498719504817,51.46784175726305],[-2.450436454976272,51.467819913804504],[-2.4506719481639676,51.467746274722735],[-2.4510199676790525,51.46760867695857],[-2.451444129687012,51.46739495745281],[-2.451908050353332,51.46709295314629],[-2.452375345843497,51.46669050097982],[-2.4528096323229924,51.46617543789422],[-2.4531844309805413,51.46568561055613],[-2.453498302830755,51.46534825210306],[-2.453752438093641,51.46513525671739],[-2.4539480269892064,51.46501851858146],[-2.4540862597374584,51.46496993187764],[-2.4541683265584044,51.46496139078829],[-2.4541954176720515,51.46496478949575],[-2.4572884947056632,51.46368305149552],[-2.460206706967349,51.46296157673288],[-2.462675365236167,51.460802340977835],[-2.4634049518781826,51.45879934554148],[-2.461553164584141,51.45813370711526],[-2.4615593606991455,51.457266886673054],[-2.4598755054477612,51.45690894599151],[-2.4597783962921302,51.45620374417855],[-2.4593778368063406,51.455118632269155],[-2.459264571828826,51.45429610768876],[-2.4573318740761545,51.45304299990422],[-2.4572409739121963,51.45147097282854],[-2.4599427406380743,51.452196813149385],[-2.4613863669499523,51.45391942553089],[-2.4648908366716156,51.453250525274626],[-2.467781748961741,51.45271104252831],[-2.4678401657697466,51.45267379949761],[-2.468018471059372,51.45257854293195],[-2.4683212471290337,51.45244998162101],[-2.468753076277145,51.452312824354436],[-2.469318540802122,51.45219177992191],[-2.4700222230023794,51.45211155711309],[-2.4708687051763323,51.452096864717646],[-2.4717140072386017,51.452118710763116],[-2.4724140291782084,51.452132646826605],[-2.4729743234475845,51.45214033097375],[-2.4734004424991616,51.452143421270215],[-2.473697938785372,51.45214357578164],[-2.4738723647586482,51.45214245257368],[-2.4739292728714224,51.452141709712],[-2.4774133865267545,51.45154406449937],[-2.48115095525276,51.450144863728745],[-2.48159596680506,51.45004861573389],[-2.4823313349214136,51.44995474382501],[-2.483226274785822,51.44986777903589],[-2.4841500015822855,51.449792252400336],[-2.484971730494806,51.44973269495214],[-2.485560676707384,51.449693637725105],[-2.4857860554040205,51.44967961175303],[-2.4859957963711654,51.449656175589595],[-2.4865538682399344,51.44959090639363],[-2.487353544461331,51.4494913631066],[-2.488288098486357,51.44936510467001],[-2.4892508037660166,51.44921969002531],[-2.4901349337513117,51.449062678114004],[-2.490833761893245,51.44890162787756],[-2.491548876187181,51.44870711985843],[-2.4924750028615725,51.44846382374858],[-2.4934951309949107,51.448200429114856],[-2.494492249665688,51.44794562552411],[-2.495349347952396,51.447728102543195],[-2.495949414933526,51.447576549738955],[-2.4961754396875717,51.44751965667824],[-2.499885793029865,51.44672834048594],[-2.5008968696662595,51.44711101218149],[-2.501125153680743,51.44896860628225],[-2.5021885754192605,51.44918041197998],[-2.502249304571216,51.453629708783104],[-2.501709584005384,51.454836633877775],[-2.5015669964534206,51.45618872679855],[-2.5043412905369657,51.46280595839989],[-2.506229467365413,51.46650355707179],[-2.5077218097800866,51.46858328657424],[-2.503806089225037,51.475948086026584],[-2.50684626278724,51.47656337808276],[-2.507455395552688,51.478599263914894],[-2.5097437888863694,51.476503594240306],[-2.512144141004061,51.47540139962541],[-2.5133953341683304,51.47547533838588],[-2.5141448384317022,51.47575320818638],[-2.515026097633117,51.4747968321529],[-2.5160189905393002,51.475669344117314],[-2.51624540899076,51.47731358354477],[-2.5180114194245604,51.477987791521436],[-2.5199294564833092,51.47667598141477],[-2.521325658627069,51.47697812488355]]]}},{"type":"Feature","properties":{"area_name":"Hanham Woods Academy / Sir Bernard Lovell Academy"},"geometry":{"type":"Polygon","coordinates":[[[-2.2868914985106104,51.447110276887976],[-2.2947484678662335,51.448949307762454],[-2.294337009417216,51.452277205684176],[-2.2947824127803327,51.45389085227332],[-2.2950785661646034,51.455905737575115],[-2.294085104135051,51.45678986255089],[-2.2940504153705006,51.457934322078366],[-2.2933575813398974,51.4636991112555],[-2.2924296374132522,51.465559524613],[-2.2965447194226347,51.47319887438317],[-2.299669090870813,51.473254436898756],[-2.301078283826993,51.47368524337299],[-2.3065245433883352,51.47301144906235],[-2.3094674259117007,51.47236936679382],[-2.311449632433454,51.47308898833037],[-2.315053592416494,51.47395659076745],[-2.316825976376758,51.47156699775406],[-2.318173559594597,51.46837494518082],[-2.320731857392507,51.46875942943543],[-2.323641305007093,51.46960872106001],[-2.328694943454705,51.47014722527793],[-2.330455591599852,51.46925672438018],[-2.331896311917485,51.4680169795184],[-2.333431379445521,51.467926413209845],[-2.3344233332908395,51.4674830891596],[-2.334680062206826,51.466798378956746],[-2.337816831554759,51.465241466984025],[-2.3388399695798214,51.465716183354544],[-2.342712414267641,51.4643999837876],[-2.3449208260760948,51.46351687021914],[-2.3490165502830798,51.462204523763916],[-2.355960336071097,51.46070687782713],[-2.3563421231546977,51.462090049747786],[-2.3604365649799384,51.461580498572616],[-2.364307161818669,51.4610674232426],[-2.3677320301711067,51.4597445150145],[-2.3686602754920982,51.45907038210314],[-2.368886387114836,51.45746730766407],[-2.371385184537698,51.45521159956077],[-2.3767624045834803,51.452082655758005],[-2.379129416201181,51.45257919519112],[-2.3800235874557627,51.453396426110146],[-2.3820706926387762,51.45354372703511],[-2.3832852076697093,51.45390671727834],[-2.383860202472895,51.45437504880316],[-2.3853311227157894,51.45485714767601],[-2.386545823655496,51.45522081144594],[-2.388750047288347,51.45674708168872],[-2.390921530114841,51.45896224890413],[-2.391656130374584,51.46000643557255],[-2.3932873729884356,51.460261923265826],[-2.394501357013742,51.46142805335894],[-2.396642130302175,51.462724522145486],[-2.400575265501976,51.46324538546374],[-2.401981474411535,51.4643004836163],[-2.4021075353881574,51.46556455759898],[-2.4026813400544107,51.466836018596496],[-2.4024565108134173,51.46763629775551],[-2.402741591805577,51.469476555524224],[-2.402420587478768,51.46993078068141],[-2.4035074540018333,51.47063630622751],[-2.4050425015561934,51.470545739604496],[-2.4080485815719346,51.470937606361424],[-2.4102250922862436,51.46993891869537],[-2.4111535143558367,51.46926780370628],[-2.4134260219882093,51.46861214697836],[-2.41729661882694,51.46809907164835],[-2.4192153027331402,51.46858855785048],[-2.4203999532660934,51.46803353356874],[-2.4222541758526983,51.46829186119851],[-2.424748857371093,51.468445870784635],[-2.4294189731045024,51.46840466182593],[-2.4368393828256467,51.468636220742795],[-2.436521304266372,51.467483857683256],[-2.4365558270804346,51.46518901996758],[-2.437484823777545,51.464515231626045],[-2.4374233918762833,51.46267782432824],[-2.436817759806172,51.46129112825274],[-2.4371711025687897,51.460148998009196],[-2.4382603279728943,51.45924825915402],[-2.438646566070977,51.45741789985144],[-2.441621916574982,51.45689106786505],[-2.445205813510644,51.456144338438776],[-2.448147517303065,51.456305390941594],[-2.45237060077561,51.45625713890897],[-2.4555043307183695,51.45630647550445],[-2.456883089548266,51.45403246833617],[-2.4563076215225474,51.45356479996087],[-2.4553174132946682,51.45320466542431],[-2.4551902758187514,51.45274406056284],[-2.453750977097265,51.45237652292682],[-2.4509399626370354,51.450266691694345],[-2.451836501340343,51.4494776532279],[-2.4556723749681955,51.45045593150832],[-2.4616850619388218,51.45123934057781],[-2.4618615283552656,51.451223851125135],[-2.4623405354126926,51.45118723882893],[-2.463046494823245,51.451144287781894],[-2.4639038182990647,51.45110978207673],[-2.4648369175522955,51.45109850580614],[-2.465770204295079,51.45112524306283],[-2.4666280902395585,51.451204777939516],[-2.467407920221242,51.45133183369308],[-2.46814042385757,51.451481365944424],[-2.468799122153952,51.451638057703505],[-2.4693575361157962,51.45178659198028],[-2.469789186748512,51.4519116517847],[-2.470067595057509,51.45199792012671],[-2.4701662820481944,51.45203008001628],[-2.474538344754532,51.45317078703287],[-2.4777707200177224,51.45346892835806],[-2.4786208206221714,51.453551028167844],[-2.4798202976594528,51.45363330545554],[-2.4811941391248262,51.453711091805275],[-2.4825673330135523,51.453779718801194],[-2.4837648673208914,51.45383451802745],[-2.4846117300421042,51.45387082106816],[-2.4849329091724504,51.45388395950748],[-2.491488557302016,51.454811787497974],[-2.5003489680768163,51.4556353361611],[-2.5127243735901685,51.45654609535701],[-2.5127310953870388,51.45648509124788],[-2.5127722978643,51.45631381460269],[-2.512879536651926,51.456049868944774],[-2.5130843673798915,51.45571085779749],[-2.5134183456781725,51.455314384684165],[-2.5139130271767427,51.454878053128134],[-2.514599967505577,51.45441946665274],[-2.5151049073421614,51.454165557787405],[-2.515740199765275,51.45390513253017],[-2.5164578521872483,51.453647558635076],[-2.5172098720204117,51.45340220385619],[-2.517948266677096,51.45317843594757],[-2.5186250435696316,51.45298562266327],[-2.519192210110349,51.452833131757345],[-2.5196192956483516,51.45261925692023],[-2.5196265108633753,51.452352592560054],[-2.5193429438803556,51.45206437269945],[-2.518897682824229,51.451785831361065],[-2.5184198158199322,51.45154820256752],[-2.5180384309924007,51.45138272034146],[-2.5178826164665713,51.45132061870552],[-2.517278173114242,51.44913078801591],[-2.517270561730056,51.448867414844926],[-2.517364227776806,51.4484112884453],[-2.5176111135016033,51.44781847864494],[-2.518063161151561,51.447145055271726],[-2.518772312973791,51.44644708815357],[-2.519790511215406,51.44578064711835],[-2.521169698123518,51.445201801993974],[-2.522547475052517,51.44478002164251],[-2.5235627333465294,51.44452285427737],[-2.5242703474465866,51.444393952007374],[-2.5247251917937223,51.444356966941314],[-2.5249821408289694,51.44437555118799],[-2.52509606899336,51.44441335685621],[-2.525121850727927,51.44443403605477],[-2.5278733562454225,51.44390367991353],[-2.5289942982540485,51.443117846770676],[-2.5349420706562222,51.44367076073177],[-2.536223881948625,51.44265799227942],[-2.5341829741453994,51.44147548008512],[-2.530019154583369,51.44198628353577],[-2.5297650080429084,51.44198731905092],[-2.5291002161819924,51.44198236568634],[-2.5281712506413174,51.44195933357706],[-2.527124583061581,51.441906132858065],[-2.52610668508348,51.44181067366437],[-2.525264028347712,51.44166086613097],[-2.524743084494974,51.44144462039287],[-2.524367214078973,51.44112868088693],[-2.5238992778033906,51.44072224352593],[-2.523393909229158,51.44027600974336],[-2.5229057419172074,51.439840680972694],[-2.5224894094284704,51.43946695864743],[-2.522199545323878,51.439205544201045],[-2.5220907831643626,51.43910713906703],[-2.521712034066783,51.436117713436744],[-2.5218097244127082,51.43485682427483],[-2.5213077706298246,51.434472142702084],[-2.5205815669553013,51.433868649212215],[-2.519740996272047,51.43314766861087],[-2.5188959414629712,51.4324105257037],[-2.5181562854109827,51.431758545296354],[-2.5176319109989898,51.43129305219447],[-2.517432701109901,51.431115371203695],[-2.5128609562465507,51.42989570683356],[-2.5016704507433456,51.42730940107811],[-2.501625343033475,51.42727557495798],[-2.5015131513551294,51.4271824888076],[-2.501368572885208,51.42704273094198],[-2.5012263048006096,51.42686888967612],[-2.501121044278233,51.42667355332504],[-2.5010874884949783,51.42646931020375],[-2.501160334627744,51.42626874862726],[-2.5012140426285274,51.42600424546086],[-2.501132088517328,51.42563534134704],[-2.5009609075685626,51.42521492092081],[-2.5007469350566485,51.42479586881721],[-2.5005366062560026,51.42443106967127],[-2.5003763564410426,51.42417340811802],[-2.5003126208861857,51.424075768792484],[-2.4970992354664707,51.42528659171667],[-2.4968953427377873,51.42536736168078],[-2.49635384322696,51.425581331842814],[-2.495580004946822,51.42588599260739],[-2.4946790959102074,51.42623883437909],[-2.4937563841299495,51.42659734756251],[-2.492917137618882,51.42691902256227],[-2.492266624389839,51.42716134978293],[-2.491690785449848,51.42731203052639],[-2.4910445587938,51.427397353933124],[-2.4903858897914724,51.42743269244866],[-2.489772723812642,51.42743341851853],[-2.489263006227087,51.42741490458826],[-2.488914682404584,51.42739252310338],[-2.48878569771491,51.42738164650941],[-2.4856040007598694,51.4279022095745],[-2.4810107698148194,51.425148038385885],[-2.4806607901614006,51.423880101228754],[-2.4831743210036175,51.42133309333633],[-2.4831924515004666,51.42123910244151],[-2.483236338028719,51.420986303309064],[-2.4832902231449303,51.420618456267015],[-2.483338349405656,51.420179321643396],[-2.483364959367452,51.419712659766226],[-2.483354295586875,51.41926223096353],[-2.4832906006204793,51.41887179556334],[-2.4831125284127635,51.418559353070066],[-2.482806827157777,51.41830982987108],[-2.4824300012114997,51.41811781290546],[-2.4820385549299115,51.4179778891123],[-2.4816889926689925,51.417884645430696],[-2.4814378187847224,51.41783266879973],[-2.4813415376330816,51.417816546158505],[-2.481237520781982,51.417823596717845],[-2.4809553616405924,51.417848916199546],[-2.480539897326775,51.417898756309086],[-2.4800359649583914,51.41797936875194],[-2.4794884016533048,51.418097005233626],[-2.478942044529377,51.418257917459606],[-2.478441730704471,51.41846835713538],[-2.478175805797395,51.41865565903447],[-2.477889861892965,51.418933314769944],[-2.4776061073121087,51.41925788872485],[-2.477346750375754,51.41958594528225],[-2.477133999404828,51.419874048825186],[-2.476990062720259,51.42007876373671],[-2.476937148642974,51.420156654399875],[-2.472540493404554,51.4211130018758],[-2.4669794986737763,51.41792658377805],[-2.4635901177334754,51.41775849340563],[-2.459338057515169,51.41608457798251],[-2.458313730772324,51.41641299622611],[-2.4537391509671,51.416800249123916],[-2.4497628754633385,51.416304870247025],[-2.4476612202383614,51.41739297404259],[-2.445678154630841,51.41801595146129],[-2.441873758801156,51.416613443603275],[-2.437266620189631,51.41688511716773],[-2.434707792805246,51.41730377790443],[-2.433809514213883,51.418896259690634],[-2.433946566891803,51.418961380095844],[-2.4342779947665916,51.419135223927],[-2.434684202599795,51.41938551510741],[-2.435045595152957,51.41967997756038],[-2.4352425771876236,51.41998633520921],[-2.4351555534653393,51.420272311977214],[-2.4346649287476496,51.420505631787684],[-2.4338830142884276,51.420662542227404],[-2.432822876578373,51.42081043710373],[-2.431629769762698,51.42094380374689],[-2.4304489479866165,51.421057129487096],[-2.429425665395342,51.421144901654586],[-2.4287051761340877,51.42120160757958],[-2.4284327343480667,51.42122173459231],[-2.419028395543459,51.42187681832004],[-2.4136684769704613,51.42163341403508],[-2.4109983101188712,51.42266861489527],[-2.4088234283772754,51.423269447520504],[-2.403468504287874,51.4230583311344],[-2.400799183895516,51.42409422103991],[-2.398347017492156,51.42573974174623],[-2.3957230237639995,51.42774253113073],[-2.3935723915361127,51.42786232653958],[-2.3904019346734957,51.42792547178141],[-2.387609387269106,51.42838271603849],[-2.3794850896645814,51.42802567916491],[-2.3736990871020147,51.42943754852818],[-2.370752245872151,51.42869133472825],[-2.366496823963798,51.42942749184723],[-2.3618703268636576,51.431350112839134],[-2.3586578263027733,51.431714192020635],[-2.35565001065643,51.43212578400774],[-2.352933863006241,51.43036198617995],[-2.3494349345626673,51.43125598813093],[-2.346868437654343,51.43274941258669],[-2.3430212675683086,51.432842160303544],[-2.3371516350983104,51.43351667086274],[-2.3325807753357246,51.43206418407919],[-2.328763301547732,51.43154447110306],[-2.323607559739325,51.43120732589933],[-2.3201454887449904,51.43125515045033],[-2.3142822255099444,51.42727826602329],[-2.310494624822232,51.42578779007755],[-2.304805347757947,51.42398054222363],[-2.3054700220436057,51.42305031383812],[-2.305256402259316,51.421577528274064],[-2.304206118202207,51.41857753017925],[-2.3019011195966743,51.418751921864654],[-2.298693836670421,51.4200816138169],[-2.2944477789228257,51.42037473891477],[-2.292974590624553,51.42149923349441],[-2.2893890562234565,51.42385257142009],[-2.28670235712241,51.42381027275711],[-2.2863906418859443,51.426583511743225],[-2.285731899590036,51.430795544211776],[-2.2849848283096814,51.43858781354934],[-2.2856455197271965,51.44582823336321],[-2.2837559192996104,51.447864059388],[-2.2868914985106104,51.447110276887976]]]}}]}