{"type":"FeatureCollection","features":[{"type":"Feature","properties":{"NAME":"Amherst Primary School"},"geometry":{"type":"Polygon","coordinates":[[[-2.567039,49.468527],[-2.566785,49.46861],[-2.566237,49.4693],[-2.56611,49.469328],[-2.565728,49.469218],[-2.565221,49.469578],[-2.56281,49.470271],[-2.562303,49.47074],[-2.562219,49.471127],[-2.562051,49.471293],[-2.561926,49.472259],[-2.561079,49.472122],[-2.559894,49.472206],[-2.55731,49.472099],[-2.555193,49.472156],[-2.553457,49.472048],[-2.550409,49.472355],[-2.549732,49.472549],[-2.5488,49.472523],[-2.546765,49.471863],[-2.546046,49.471836],[-2.543334,49.471397],[-2.542064,49.471454],[-2.540286,49.471815],[-2.539779,49.472036],[-2.539524,49.471677],[-2.53893,49.471375],[-2.538126,49.471375],[-2.537913,49.471017],[-2.537786,49.470962],[-2.536812,49.471101],[-2.536516,49.471267],[-2.535881,49.47135],[-2.535838,49.471102],[-2.535711,49.471047],[-2.535457,49.471047],[-2.53516,49.470909],[-2.534822,49.470855],[-2.534398,49.470883],[-2.533932,49.4708],[-2.534017,49.47069],[-2.533974,49.470414],[-2.533846,49.470166],[-2.533592,49.47],[-2.533633,49.469586],[-2.534098,49.469337],[-2.534647,49.468675],[-2.534647,49.468564],[-2.534943,49.468316],[-2.535996,49.46619],[-2.535953,49.466052],[-2.536164,49.465582],[-2.536163,49.465141],[-2.536078,49.465031],[-2.536162,49.464837],[-2.535695,49.464369],[-2.53455,49.463625],[-2.534041,49.463156],[-2.533278,49.46266],[-2.53243,49.46244],[-2.532219,49.462606],[-2.532262,49.462772],[-2.53205,49.462855],[-2.531838,49.462634],[-2.531033,49.462304],[-2.530565,49.461311],[-2.530311,49.461145],[-2.530522,49.4612],[-2.530819,49.461145],[-2.530946,49.461504],[-2.531074,49.461559],[-2.532513,49.461557],[-2.532682,49.461336],[-2.532851,49.461281],[-2.534033,49.459652],[-2.533863,49.459376],[-2.533566,49.459183],[-2.533015,49.459073],[-2.533861,49.458796],[-2.53475,49.458823],[-2.535555,49.45896],[-2.53691,49.458959],[-2.538095,49.458792],[-2.538518,49.458653],[-2.538897,49.458156],[-2.539108,49.457632],[-2.539406,49.458183],[-2.539575,49.458321],[-2.541863,49.459036],[-2.544575,49.460027],[-2.545465,49.460274],[-2.546058,49.460577],[-2.55076,49.461482],[-2.55076,49.461593],[-2.550887,49.461648],[-2.552031,49.461812],[-2.552921,49.462197],[-2.553768,49.462251],[-2.554785,49.462554],[-2.556565,49.463297],[-2.557626,49.464234],[-2.558093,49.464537],[-2.559363,49.46448],[-2.559406,49.464756],[-2.559915,49.464893],[-2.560423,49.464893],[-2.560889,49.464975],[-2.560974,49.46514],[-2.562457,49.465497],[-2.566693,49.466154],[-2.565976,49.467286],[-2.566781,49.467451],[-2.567459,49.467422],[-2.567206,49.467671],[-2.567207,49.468002],[-2.567039,49.468527]]]}},{"type":"Feature","properties":{"NAME":"Castel Primary School"},"geometry":{"type":"Polygon","coordinates":[[[-2.613811,49.474886],[-2.613345,49.474887],[-2.613134,49.475025],[-2.61288,49.475026],[-2.612794,49.474833],[-2.612624,49.47475],[-2.612371,49.474889],[-2.612287,49.475027],[-2.61216,49.475027],[-2.612244,49.474916],[-2.611947,49.474724],[-2.611523,49.474614],[-2.611269,49.474642],[-2.610802,49.474257],[-2.610039,49.474092],[-2.609531,49.474203],[-2.609489,49.474286],[-2.608769,49.474343],[-2.608516,49.474481],[-2.608601,49.474591],[-2.608347,49.474702],[-2.608432,49.474785],[-2.608178,49.474785],[-2.608051,49.474841],[-2.608094,49.474923],[-2.607924,49.474896],[-2.607798,49.474951],[-2.607926,49.4752],[-2.608053,49.475255],[-2.607969,49.475586],[-2.607758,49.475614],[-2.607587,49.475311],[-2.60746,49.475256],[-2.607206,49.475394],[-2.607334,49.475559],[-2.606825,49.475422],[-2.606656,49.475505],[-2.606571,49.475367],[-2.606317,49.475285],[-2.6064,49.474871],[-2.606737,49.474512],[-2.606736,49.474153],[-2.606311,49.473822],[-2.605294,49.473521],[-2.605293,49.4733],[-2.604995,49.473024],[-2.605206,49.472914],[-2.605206,49.472776],[-2.604951,49.472555],[-2.604273,49.472391],[-2.603595,49.472392],[-2.602749,49.472669],[-2.602497,49.473028],[-2.60271,49.473387],[-2.602584,49.473663],[-2.602669,49.473884],[-2.602543,49.474187],[-2.602714,49.474408],[-2.602926,49.47449],[-2.602842,49.474766],[-2.603055,49.47507],[-2.602758,49.475042],[-2.602546,49.474877],[-2.602545,49.474546],[-2.602333,49.474408],[-2.601867,49.474382],[-2.601443,49.474465],[-2.601274,49.474576],[-2.60119,49.474741],[-2.601234,49.47499],[-2.600853,49.475018],[-2.600557,49.475129],[-2.600557,49.475267],[-2.600769,49.475404],[-2.600728,49.475542],[-2.600177,49.475516],[-2.599711,49.475599],[-2.599372,49.475462],[-2.599076,49.47549],[-2.598991,49.475352],[-2.598779,49.47527],[-2.598567,49.47527],[-2.59844,49.475353],[-2.5981,49.475133],[-2.59772,49.475299],[-2.597679,49.475575],[-2.597467,49.47552],[-2.597424,49.47541],[-2.596958,49.475355],[-2.596661,49.475218],[-2.59628,49.475301],[-2.596026,49.475274],[-2.595434,49.475496],[-2.594587,49.475552],[-2.594079,49.475718],[-2.593825,49.475691],[-2.593402,49.475775],[-2.593106,49.475996],[-2.593107,49.476161],[-2.592938,49.476217],[-2.592811,49.476162],[-2.591753,49.476577],[-2.591331,49.476826],[-2.590824,49.477296],[-2.590443,49.477186],[-2.58934,49.476636],[-2.588661,49.476472],[-2.588363,49.476003],[-2.588149,49.475369],[-2.587809,49.475038],[-2.586409,49.474295],[-2.585518,49.473579],[-2.584117,49.472615],[-2.583436,49.471733],[-2.582882,49.470657],[-2.582711,49.470078],[-2.582073,49.469279],[-2.580843,49.468508],[-2.579696,49.467406],[-2.578805,49.467103],[-2.578042,49.466718],[-2.577702,49.46647],[-2.577575,49.466222],[-2.577023,49.465947],[-2.57626,49.465727],[-2.574524,49.465454],[-2.572871,49.46507],[-2.572108,49.464739],[-2.571811,49.464464],[-2.57109,49.464106],[-2.56969,49.46317],[-2.568545,49.462619],[-2.567697,49.462317],[-2.565494,49.461768],[-2.565153,49.461078],[-2.56456,49.460831],[-2.564981,49.460058],[-2.564938,49.459947],[-2.564599,49.459948],[-2.563413,49.459728],[-2.563244,49.459811],[-2.562949,49.460253],[-2.562611,49.460337],[-2.562399,49.460309],[-2.561464,49.458931],[-2.561717,49.458654],[-2.561377,49.458158],[-2.561799,49.457771],[-2.561882,49.457164],[-2.562263,49.457246],[-2.563023,49.456666],[-2.563574,49.456638],[-2.564292,49.456388],[-2.56535,49.456194],[-2.565985,49.456],[-2.566449,49.455668],[-2.567336,49.454811],[-2.568437,49.455169],[-2.568818,49.455196],[-2.569117,49.45594],[-2.569456,49.456023],[-2.569668,49.45616],[-2.570006,49.456022],[-2.570469,49.455194],[-2.570723,49.455193],[-2.570892,49.45511],[-2.571606,49.453122],[-2.571774,49.452984],[-2.571816,49.452625],[-2.571688,49.452377],[-2.571686,49.451908],[-2.571894,49.450528],[-2.572441,49.449699],[-2.573157,49.448346],[-2.574003,49.44818],[-2.574426,49.448372],[-2.574808,49.448648],[-2.575064,49.449199],[-2.575574,49.449806],[-2.576337,49.450301],[-2.578492,49.449084],[-2.579336,49.448172],[-2.579588,49.44762],[-2.580096,49.447868],[-2.580562,49.447867],[-2.583993,49.448773],[-2.585049,49.448054],[-2.585514,49.447832],[-2.585513,49.447694],[-2.585767,49.447583],[-2.585766,49.447418],[-2.586019,49.447142],[-2.586696,49.446865],[-2.587371,49.446367],[-2.587497,49.446118],[-2.587284,49.44576],[-2.588721,49.44504],[-2.589566,49.444736],[-2.589651,49.444763],[-2.589567,49.444901],[-2.589696,49.445563],[-2.590418,49.446169],[-2.591647,49.446857],[-2.591903,49.447326],[-2.592328,49.447712],[-2.592244,49.44796],[-2.592584,49.448456],[-2.592756,49.449063],[-2.593605,49.449669],[-2.594071,49.449861],[-2.594874,49.449584],[-2.595593,49.4495],[-2.596227,49.449196],[-2.598299,49.448779],[-2.599018,49.448502],[-2.599736,49.448114],[-2.60033,49.448582],[-2.600883,49.449244],[-2.601053,49.449326],[-2.602491,49.449241],[-2.602619,49.449324],[-2.603635,49.44935],[-2.605793,49.449319],[-2.607359,49.449233],[-2.607697,49.449067],[-2.607994,49.449232],[-2.608122,49.449508],[-2.608377,49.449728],[-2.609353,49.450334],[-2.609693,49.450775],[-2.610202,49.451133],[-2.61067,49.451684],[-2.611434,49.452152],[-2.611307,49.452262],[-2.611393,49.452428],[-2.612241,49.452978],[-2.612496,49.45306],[-2.613004,49.453087],[-2.613174,49.453446],[-2.613853,49.453693],[-2.61466,49.454354],[-2.615296,49.454656],[-2.616147,49.455703],[-2.616401,49.455786],[-2.616908,49.455647],[-2.618009,49.45559],[-2.620549,49.455585],[-2.622034,49.456576],[-2.623689,49.457429],[-2.623819,49.458035],[-2.624032,49.458477],[-2.624797,49.459138],[-2.625222,49.459633],[-2.625437,49.46024],[-2.625776,49.460516],[-2.626203,49.461177],[-2.626207,49.462115],[-2.626336,49.462584],[-2.625702,49.462944],[-2.624265,49.463499],[-2.624054,49.463775],[-2.623715,49.463638],[-2.622486,49.463391],[-2.621385,49.463311],[-2.619692,49.463314],[-2.618295,49.463454],[-2.616645,49.463733],[-2.615038,49.464094],[-2.612837,49.464429],[-2.61178,49.46479],[-2.611358,49.465039],[-2.610174,49.46551],[-2.608316,49.466644],[-2.607387,49.467501],[-2.60705,49.467943],[-2.606588,49.468827],[-2.606296,49.469849],[-2.606297,49.47007],[-2.606466,49.470124],[-2.606339,49.47018],[-2.606386,49.471228],[-2.606513,49.471366],[-2.606771,49.472249],[-2.607112,49.4728],[-2.607409,49.473076],[-2.608003,49.473268],[-2.609019,49.473294],[-2.6094,49.473238],[-2.609951,49.473458],[-2.610586,49.473401],[-2.611053,49.473511],[-2.611562,49.473869],[-2.611817,49.473979],[-2.611944,49.473951],[-2.611944,49.474034],[-2.612071,49.474089],[-2.612283,49.474006],[-2.612621,49.474005],[-2.612707,49.474088],[-2.612623,49.474281],[-2.61275,49.474474],[-2.612962,49.474556],[-2.613386,49.474528],[-2.613302,49.474694],[-2.613811,49.474886]]]}},{"type":"Feature","properties":{"NAME":"Forest Primary School"},"geometry":{"type":"Polygon","coordinates":[[[-2.573996,49.44611],[-2.574036,49.445254],[-2.574162,49.445033],[-2.574119,49.444813],[-2.573357,49.444731],[-2.572807,49.444759],[-2.57217,49.444346],[-2.571916,49.444071],[-2.571662,49.444016],[-2.571742,49.442746],[-2.571657,49.442664],[-2.570176,49.442638],[-2.56975,49.441756],[-2.56975,49.441618],[-2.570003,49.441369],[-2.569661,49.440321],[-2.56966,49.4401],[-2.569998,49.439961],[-2.570971,49.439795],[-2.571478,49.439601],[-2.571011,49.439049],[-2.570968,49.438774],[-2.570841,49.438636],[-2.571559,49.438304],[-2.572066,49.43822],[-2.57287,49.437971],[-2.573801,49.438025],[-2.573801,49.438107],[-2.573928,49.438162],[-2.575028,49.438133],[-2.575237,49.43725],[-2.576042,49.437415],[-2.576253,49.437304],[-2.576291,49.435952],[-2.577179,49.435868],[-2.579293,49.435368],[-2.57997,49.435367],[-2.580097,49.435312],[-2.579756,49.434595],[-2.579544,49.434567],[-2.578952,49.434651],[-2.578654,49.433934],[-2.580557,49.433655],[-2.580726,49.433572],[-2.580468,49.432414],[-2.580976,49.43233],[-2.581017,49.432137],[-2.580633,49.431227],[-2.580633,49.431034],[-2.581302,49.428825],[-2.581174,49.428301],[-2.581004,49.42808],[-2.580788,49.426811],[-2.581041,49.42659],[-2.58159,49.426341],[-2.58159,49.426148],[-2.581758,49.425899],[-2.581757,49.425623],[-2.582222,49.425485],[-2.582517,49.425291],[-2.58239,49.425043],[-2.582559,49.424987],[-2.582558,49.424905],[-2.582135,49.424795],[-2.582219,49.424712],[-2.58205,49.424602],[-2.582092,49.424491],[-2.581922,49.424464],[-2.581625,49.424133],[-2.581752,49.424188],[-2.581879,49.424133],[-2.581709,49.423912],[-2.581708,49.423719],[-2.58192,49.423857],[-2.58209,49.423857],[-2.582216,49.423774],[-2.582386,49.423939],[-2.582555,49.423828],[-2.582809,49.423828],[-2.582936,49.424049],[-2.583148,49.424159],[-2.583486,49.42402],[-2.583486,49.42391],[-2.583824,49.423827],[-2.583696,49.423634],[-2.583823,49.42344],[-2.583314,49.423055],[-2.583482,49.422778],[-2.58327,49.422696],[-2.583227,49.42242],[-2.58293,49.422255],[-2.582761,49.422283],[-2.582718,49.4222],[-2.582845,49.422034],[-2.583014,49.422034],[-2.583141,49.421923],[-2.583097,49.421675],[-2.583309,49.42162],[-2.583477,49.421205],[-2.583773,49.421177],[-2.583815,49.421067],[-2.583815,49.42115],[-2.583942,49.421205],[-2.584153,49.421122],[-2.584238,49.421315],[-2.58407,49.421591],[-2.584282,49.421701],[-2.584325,49.421811],[-2.584579,49.421866],[-2.58479,49.4217],[-2.585043,49.421645],[-2.585127,49.421424],[-2.585338,49.42123],[-2.585676,49.421147],[-2.585506,49.421037],[-2.585336,49.420734],[-2.585632,49.420568],[-2.585885,49.42054],[-2.586054,49.420346],[-2.586435,49.420373],[-2.586816,49.420593],[-2.587112,49.420345],[-2.587408,49.420372],[-2.587619,49.420289],[-2.587873,49.420399],[-2.58762,49.420675],[-2.587621,49.420785],[-2.58779,49.420868],[-2.588128,49.420564],[-2.588297,49.420619],[-2.588424,49.420563],[-2.588465,49.420398],[-2.588762,49.420535],[-2.588847,49.420728],[-2.588974,49.420756],[-2.589101,49.420673],[-2.58927,49.420755],[-2.589355,49.420728],[-2.589523,49.420451],[-2.589438,49.420286],[-2.589522,49.42012],[-2.589818,49.420203],[-2.590031,49.420561],[-2.590243,49.420533],[-2.590412,49.420616],[-2.590539,49.42056],[-2.590369,49.420423],[-2.590538,49.420284],[-2.590495,49.420064],[-2.590664,49.420091],[-2.590707,49.420229],[-2.590876,49.420229],[-2.591512,49.420642],[-2.591681,49.420641],[-2.591723,49.420559],[-2.592062,49.420586],[-2.592146,49.42053],[-2.592103,49.420282],[-2.591849,49.4202],[-2.592017,49.420034],[-2.591974,49.419758],[-2.591719,49.41951],[-2.592057,49.419399],[-2.592099,49.419316],[-2.591591,49.419069],[-2.591379,49.418848],[-2.591167,49.418793],[-2.591462,49.418627],[-2.591842,49.41824],[-2.591671,49.417827],[-2.591798,49.417744],[-2.591797,49.417633],[-2.591628,49.417551],[-2.591627,49.41744],[-2.5915,49.417358],[-2.591964,49.416998],[-2.592345,49.417025],[-2.592854,49.417356],[-2.593025,49.417825],[-2.59294,49.417907],[-2.592983,49.418073],[-2.593195,49.4181],[-2.593365,49.418238],[-2.593409,49.418707],[-2.593663,49.418789],[-2.59379,49.418927],[-2.594044,49.418982],[-2.594511,49.419312],[-2.594722,49.419257],[-2.59472,49.418871],[-2.594975,49.418953],[-2.595186,49.418842],[-2.5951,49.418677],[-2.595227,49.418456],[-2.595396,49.418594],[-2.595397,49.418897],[-2.595482,49.418952],[-2.595863,49.419007],[-2.595862,49.418814],[-2.596031,49.418731],[-2.596159,49.418924],[-2.596117,49.419117],[-2.596541,49.419254],[-2.596794,49.419199],[-2.596963,49.418978],[-2.597132,49.419032],[-2.597724,49.418949],[-2.597851,49.419004],[-2.597978,49.418948],[-2.597977,49.418755],[-2.598485,49.418754],[-2.599374,49.418946],[-2.59984,49.419304],[-2.599967,49.419249],[-2.599882,49.419028],[-2.600008,49.419],[-2.600262,49.419028],[-2.600305,49.419193],[-2.600559,49.419165],[-2.600856,49.419358],[-2.601236,49.419192],[-2.601193,49.419109],[-2.601828,49.419273],[-2.602295,49.419659],[-2.602253,49.419742],[-2.602507,49.419824],[-2.602466,49.420073],[-2.602678,49.42021],[-2.602973,49.420017],[-2.603566,49.420154],[-2.603693,49.420126],[-2.603735,49.420043],[-2.603438,49.419878],[-2.603353,49.419712],[-2.603649,49.419629],[-2.603861,49.41985],[-2.604157,49.419877],[-2.604537,49.419738],[-2.604452,49.4196],[-2.604621,49.419517],[-2.604621,49.419434],[-2.605213,49.419489],[-2.605594,49.419626],[-2.605848,49.419515],[-2.605975,49.419598],[-2.606144,49.41957],[-2.606525,49.419652],[-2.607161,49.419927],[-2.607584,49.419982],[-2.607669,49.420092],[-2.607585,49.420175],[-2.607882,49.420367],[-2.608136,49.420422],[-2.608304,49.420311],[-2.6086,49.420283],[-2.6086,49.420145],[-2.608769,49.420228],[-2.608938,49.420172],[-2.608938,49.420034],[-2.608768,49.419897],[-2.608937,49.419814],[-2.610544,49.419811],[-2.610756,49.419728],[-2.610628,49.419563],[-2.610797,49.419535],[-2.610754,49.419452],[-2.610923,49.419314],[-2.61105,49.419369],[-2.611136,49.419562],[-2.611432,49.419534],[-2.611473,49.419423],[-2.611219,49.419175],[-2.611218,49.419065],[-2.611006,49.418927],[-2.611175,49.418872],[-2.611132,49.418734],[-2.611217,49.418678],[-2.611598,49.418788],[-2.611851,49.41865],[-2.611808,49.418512],[-2.611935,49.418401],[-2.61185,49.418346],[-2.612189,49.418484],[-2.612781,49.418455],[-2.612866,49.418648],[-2.613078,49.418731],[-2.613205,49.418675],[-2.613204,49.41851],[-2.613543,49.418592],[-2.613797,49.418564],[-2.614051,49.418674],[-2.613925,49.418922],[-2.614137,49.419143],[-2.613969,49.419419],[-2.614055,49.419612],[-2.613801,49.419695],[-2.613802,49.419806],[-2.614098,49.419915],[-2.614056,49.420053],[-2.614184,49.420136],[-2.614607,49.420246],[-2.614692,49.420356],[-2.614694,49.420908],[-2.61495,49.421487],[-2.614826,49.422149],[-2.615466,49.423556],[-2.615469,49.42419],[-2.615217,49.424688],[-2.615176,49.425074],[-2.614797,49.425351],[-2.614501,49.425434],[-2.61463,49.425875],[-2.614082,49.426456],[-2.614083,49.426621],[-2.614637,49.427614],[-2.613791,49.427753],[-2.613414,49.428637],[-2.613668,49.428747],[-2.613838,49.42894],[-2.613246,49.429079],[-2.612402,49.429549],[-2.60911,49.431707],[-2.609197,49.432231],[-2.609071,49.432535],[-2.608733,49.432563],[-2.6081,49.433006],[-2.607847,49.433365],[-2.60751,49.433641],[-2.607216,49.434111],[-2.606369,49.433892],[-2.604379,49.433647],[-2.604252,49.433702],[-2.603705,49.434503],[-2.602902,49.434836],[-2.601805,49.435638],[-2.599439,49.436607],[-2.597621,49.436996],[-2.595378,49.436862],[-2.594404,49.43656],[-2.592499,49.43648],[-2.59216,49.436287],[-2.591399,49.436454],[-2.589537,49.436567],[-2.585729,49.436573],[-2.585263,49.436518],[-2.584335,49.43732],[-2.584083,49.437845],[-2.584085,49.438479],[-2.584257,49.439252],[-2.583877,49.439446],[-2.583835,49.439584],[-2.584262,49.440576],[-2.581469,49.440774],[-2.581343,49.440829],[-2.581514,49.441519],[-2.581562,49.443229],[-2.579619,49.44417],[-2.579916,49.444446],[-2.580679,49.444859],[-2.581866,49.445354],[-2.581444,49.445768],[-2.581191,49.446155],[-2.580389,49.446791],[-2.58001,49.447288],[-2.579841,49.447399],[-2.578824,49.447179],[-2.579077,49.446793],[-2.579285,49.445827],[-2.579158,49.445772],[-2.578143,49.445801],[-2.577465,49.445746],[-2.577589,49.444836],[-2.577462,49.444781],[-2.577039,49.444864],[-2.573996,49.44611]]]}},{"type":"Feature","properties":{"NAME":"Hautes Capelles Primary School"},"geometry":{"type":"Polygon","coordinates":[[[-2.552767,49.498403],[-2.552681,49.497823],[-2.553188,49.497326],[-2.553567,49.496608],[-2.554075,49.496387],[-2.554286,49.49611],[-2.554328,49.495834],[-2.554073,49.495503],[-2.553138,49.494677],[-2.553011,49.494429],[-2.550805,49.49352],[-2.549915,49.493411],[-2.548687,49.493413],[-2.548264,49.493661],[-2.548008,49.493248],[-2.548135,49.49311],[-2.548474,49.493026],[-2.548388,49.492723],[-2.547666,49.491951],[-2.547623,49.491786],[-2.546732,49.491235],[-2.546011,49.491015],[-2.544741,49.491071],[-2.543852,49.491321],[-2.542963,49.49168],[-2.541906,49.492482],[-2.540719,49.492235],[-2.540168,49.491959],[-2.539447,49.491905],[-2.538939,49.491685],[-2.538812,49.491712],[-2.538599,49.491244],[-2.538429,49.491161],[-2.536947,49.491383],[-2.5352,49.487273],[-2.535242,49.487191],[-2.535496,49.487107],[-2.535326,49.486694],[-2.535791,49.486583],[-2.535748,49.486335],[-2.535875,49.486279],[-2.535875,49.486169],[-2.536214,49.486113],[-2.536298,49.485948],[-2.535957,49.485148],[-2.53583,49.485037],[-2.535531,49.48421],[-2.535404,49.484155],[-2.534981,49.484155],[-2.53443,49.484266],[-2.53426,49.483797],[-2.534048,49.483715],[-2.533877,49.483273],[-2.53396,49.482473],[-2.533663,49.482391],[-2.534,49.481507],[-2.534254,49.481452],[-2.534296,49.481148],[-2.534634,49.481093],[-2.534634,49.480872],[-2.534761,49.480734],[-2.534674,49.480072],[-2.534462,49.479989],[-2.534503,49.479133],[-2.534672,49.479188],[-2.534799,49.479133],[-2.535348,49.478415],[-2.535856,49.478497],[-2.536026,49.478414],[-2.536954,49.477116],[-2.538137,49.475873],[-2.539404,49.474713],[-2.54118,49.473331],[-2.541476,49.473359],[-2.542366,49.473689],[-2.542874,49.473385],[-2.543678,49.473411],[-2.544017,49.473246],[-2.544142,49.472666],[-2.544139,49.471562],[-2.546173,49.471919],[-2.546766,49.471918],[-2.5488,49.472578],[-2.549689,49.472604],[-2.550536,49.47241],[-2.553457,49.472103],[-2.555193,49.472212],[-2.55731,49.472154],[-2.559894,49.472261],[-2.561079,49.472177],[-2.561884,49.472314],[-2.562011,49.472258],[-2.562135,49.471293],[-2.562304,49.471127],[-2.562388,49.47074],[-2.562979,49.470243],[-2.563614,49.470132],[-2.564079,49.469938],[-2.565221,49.469633],[-2.565728,49.469246],[-2.567847,49.46985],[-2.567763,49.470043],[-2.567807,49.470402],[-2.568232,49.471064],[-2.568702,49.472333],[-2.567941,49.472858],[-2.56625,49.47355],[-2.566718,49.47435],[-2.56854,49.474789],[-2.56994,49.475422],[-2.569602,49.475671],[-2.569096,49.476554],[-2.568379,49.477355],[-2.568211,49.477935],[-2.567957,49.478046],[-2.567028,49.47893],[-2.566775,49.479041],[-2.56631,49.479455],[-2.56648,49.479731],[-2.565634,49.480008],[-2.56572,49.480505],[-2.565001,49.480892],[-2.565512,49.481747],[-2.565387,49.482299],[-2.565432,49.483292],[-2.565095,49.483955],[-2.565054,49.484314],[-2.564421,49.484977],[-2.564211,49.485695],[-2.564,49.485943],[-2.563746,49.486082],[-2.563579,49.486799],[-2.563326,49.487158],[-2.563327,49.487351],[-2.563752,49.488041],[-2.56371,49.488262],[-2.564348,49.489034],[-2.564518,49.489116],[-2.565534,49.488839],[-2.566931,49.488727],[-2.567228,49.488809],[-2.567313,49.488975],[-2.567567,49.489002],[-2.567695,49.489084],[-2.56888,49.48889],[-2.568966,49.489359],[-2.569391,49.489606],[-2.569687,49.489358],[-2.570491,49.489357],[-2.569817,49.490268],[-2.569817,49.490406],[-2.570326,49.490737],[-2.5719,49.492804],[-2.571986,49.493025],[-2.571139,49.493302],[-2.570336,49.493855],[-2.569408,49.494988],[-2.569282,49.495457],[-2.569326,49.495871],[-2.569624,49.496367],[-2.569793,49.49645],[-2.57026,49.496477],[-2.570513,49.496283],[-2.571954,49.496336],[-2.572208,49.496474],[-2.572252,49.496805],[-2.571955,49.496557],[-2.5717,49.496502],[-2.57115,49.496779],[-2.571151,49.496862],[-2.570981,49.496779],[-2.570642,49.496807],[-2.570472,49.496725],[-2.569879,49.496863],[-2.569457,49.497085],[-2.568948,49.497003],[-2.568397,49.497114],[-2.568058,49.496949],[-2.567971,49.496342],[-2.567802,49.496231],[-2.56725,49.496122],[-2.566784,49.496122],[-2.565473,49.496621],[-2.565261,49.496787],[-2.564118,49.496926],[-2.564201,49.496291],[-2.563903,49.495988],[-2.563096,49.495437],[-2.562884,49.495051],[-2.562671,49.494913],[-2.561485,49.494887],[-2.560638,49.494944],[-2.559706,49.49511],[-2.55886,49.495415],[-2.557507,49.496272],[-2.556831,49.497046],[-2.556663,49.497432],[-2.556876,49.497901],[-2.556622,49.497901],[-2.556325,49.498067],[-2.555988,49.498454],[-2.555988,49.498647],[-2.555437,49.498675],[-2.554928,49.498455],[-2.554462,49.498373],[-2.552767,49.498403]]]}},{"type":"Feature","properties":{"NAME":"La Houguette Primary School"},"geometry":{"type":"MultiPolygon","coordinates":[[[[-2.580094,49.447288],[-2.580474,49.446791],[-2.581276,49.446155],[-2.581528,49.445768],[-2.58195,49.445409],[-2.581781,49.445244],[-2.580636,49.444776],[-2.579661,49.444198],[-2.581647,49.443257],[-2.581599,49.441518],[-2.581427,49.440829],[-2.584135,49.440659],[-2.584304,49.440576],[-2.58392,49.439583],[-2.583962,49.439473],[-2.584342,49.439252],[-2.58417,49.438479],[-2.584168,49.437845],[-2.58442,49.43732],[-2.585306,49.436546],[-2.585729,49.436628],[-2.589538,49.436622],[-2.591399,49.436509],[-2.59216,49.436343],[-2.592711,49.436562],[-2.594404,49.436615],[-2.595378,49.436917],[-2.597621,49.437052],[-2.59944,49.436662],[-2.601806,49.435693],[-2.60286,49.434918],[-2.60379,49.434503],[-2.604337,49.433702],[-2.604929,49.433728],[-2.605903,49.43392],[-2.606369,49.433947],[-2.607174,49.434166],[-2.607343,49.434083],[-2.607595,49.433641],[-2.607932,49.433365],[-2.608185,49.433006],[-2.608733,49.432618],[-2.609156,49.432535],[-2.609282,49.432231],[-2.609195,49.431707],[-2.612402,49.429604],[-2.613289,49.429106],[-2.61388,49.42894],[-2.613753,49.428747],[-2.613456,49.428609],[-2.613876,49.427753],[-2.61451,49.427697],[-2.614721,49.427614],[-2.614125,49.426511],[-2.614714,49.425875],[-2.614586,49.425461],[-2.614797,49.425406],[-2.615261,49.425101],[-2.615302,49.424687],[-2.615554,49.42419],[-2.615508,49.423362],[-2.615039,49.422563],[-2.614911,49.422149],[-2.615035,49.421487],[-2.614779,49.420908],[-2.614734,49.420273],[-2.615452,49.420106],[-2.615705,49.419913],[-2.61562,49.41972],[-2.615916,49.419719],[-2.616127,49.419636],[-2.616128,49.419829],[-2.616255,49.419884],[-2.616551,49.419773],[-2.616721,49.419938],[-2.617017,49.419966],[-2.617186,49.4198],[-2.617355,49.419799],[-2.617778,49.419937],[-2.617989,49.419853],[-2.617947,49.419716],[-2.618201,49.419798],[-2.618539,49.419715],[-2.618538,49.419494],[-2.618665,49.419494],[-2.618749,49.419411],[-2.618961,49.419465],[-2.619173,49.419658],[-2.619849,49.419381],[-2.619723,49.419602],[-2.61985,49.419657],[-2.620103,49.419601],[-2.620273,49.419767],[-2.620443,49.419794],[-2.620274,49.41996],[-2.620655,49.42007],[-2.620657,49.420428],[-2.620868,49.420456],[-2.620869,49.420538],[-2.621081,49.420648],[-2.621419,49.420675],[-2.62159,49.420979],[-2.621802,49.421061],[-2.622013,49.421005],[-2.622139,49.420812],[-2.622477,49.420811],[-2.62269,49.420977],[-2.623028,49.421059],[-2.623197,49.421031],[-2.623281,49.420893],[-2.623112,49.420755],[-2.623196,49.420645],[-2.623068,49.420534],[-2.623111,49.420479],[-2.623534,49.420616],[-2.623872,49.42045],[-2.623957,49.42056],[-2.624592,49.42067],[-2.624719,49.420807],[-2.625143,49.420917],[-2.625734,49.420778],[-2.625776,49.420695],[-2.625649,49.42064],[-2.625861,49.420667],[-2.626031,49.420833],[-2.626243,49.420887],[-2.626243,49.420998],[-2.626708,49.420997],[-2.626455,49.42108],[-2.626498,49.421246],[-2.627217,49.421272],[-2.626752,49.421411],[-2.626795,49.421549],[-2.627134,49.421631],[-2.627304,49.421879],[-2.627516,49.421879],[-2.62777,49.422016],[-2.627432,49.422072],[-2.62739,49.422182],[-2.627644,49.422237],[-2.627518,49.422403],[-2.627773,49.42254],[-2.627899,49.422513],[-2.628027,49.422788],[-2.628239,49.422816],[-2.628366,49.42276],[-2.628323,49.42265],[-2.628661,49.422677],[-2.62862,49.422842],[-2.629255,49.422979],[-2.629676,49.422565],[-2.630015,49.422647],[-2.630268,49.422508],[-2.630395,49.422536],[-2.630564,49.422452],[-2.630352,49.42226],[-2.630351,49.422149],[-2.630987,49.422369],[-2.630987,49.422479],[-2.631157,49.422562],[-2.631115,49.4227],[-2.631285,49.422865],[-2.631454,49.422865],[-2.631496,49.422727],[-2.631707,49.422671],[-2.631792,49.422754],[-2.631708,49.422837],[-2.632132,49.423029],[-2.63209,49.423112],[-2.632429,49.423249],[-2.632557,49.42347],[-2.633023,49.423579],[-2.63315,49.423745],[-2.633362,49.423744],[-2.633617,49.423965],[-2.633786,49.423909],[-2.633699,49.42355],[-2.633826,49.42344],[-2.633911,49.423467],[-2.634248,49.423329],[-2.634249,49.423467],[-2.634376,49.423522],[-2.634545,49.423411],[-2.635138,49.423548],[-2.635306,49.423409],[-2.635221,49.423161],[-2.635517,49.423106],[-2.635728,49.42316],[-2.635855,49.423105],[-2.635643,49.42294],[-2.636024,49.423022],[-2.63615,49.422966],[-2.63615,49.422884],[-2.636404,49.422855],[-2.636913,49.42313],[-2.637336,49.42324],[-2.637463,49.423185],[-2.63742,49.423102],[-2.637547,49.423157],[-2.637843,49.423018],[-2.637799,49.42277],[-2.638096,49.422797],[-2.638477,49.423017],[-2.638478,49.423155],[-2.638816,49.423154],[-2.638986,49.42332],[-2.639579,49.423429],[-2.639368,49.423485],[-2.639496,49.42376],[-2.639243,49.423954],[-2.63971,49.424257],[-2.639711,49.424505],[-2.639838,49.42456],[-2.639881,49.424725],[-2.64022,49.424835],[-2.640643,49.424807],[-2.64077,49.424751],[-2.640769,49.424613],[-2.640854,49.424613],[-2.640812,49.424834],[-2.641151,49.424944],[-2.641447,49.424888],[-2.641617,49.424943],[-2.64187,49.424832],[-2.642294,49.424997],[-2.642505,49.424969],[-2.643056,49.42505],[-2.642929,49.425106],[-2.64293,49.425271],[-2.643524,49.425767],[-2.643567,49.425905],[-2.643779,49.425987],[-2.64378,49.426098],[-2.644331,49.426455],[-2.644839,49.426454],[-2.645346,49.426315],[-2.645514,49.426177],[-2.645514,49.425984],[-2.645683,49.426039],[-2.645852,49.4259],[-2.646021,49.4259],[-2.64602,49.425679],[-2.6464,49.425623],[-2.646273,49.425485],[-2.646315,49.42543],[-2.646779,49.425264],[-2.646907,49.425346],[-2.646908,49.425622],[-2.646612,49.425678],[-2.64657,49.425761],[-2.646825,49.425926],[-2.64653,49.426175],[-2.64653,49.426285],[-2.647081,49.426505],[-2.647208,49.426449],[-2.647716,49.426476],[-2.648264,49.426171],[-2.648518,49.426226],[-2.648645,49.426115],[-2.64911,49.426059],[-2.649237,49.426004],[-2.649362,49.425672],[-2.649319,49.425535],[-2.6497,49.425617],[-2.649911,49.425506],[-2.649909,49.425119],[-2.649824,49.425064],[-2.650373,49.424843],[-2.650289,49.424926],[-2.650459,49.425008],[-2.650712,49.42498],[-2.650795,49.424566],[-2.65071,49.424511],[-2.650922,49.42451],[-2.651006,49.424372],[-2.651217,49.424372],[-2.651386,49.424233],[-2.652022,49.424646],[-2.652235,49.424922],[-2.652362,49.424949],[-2.652742,49.424783],[-2.652785,49.42492],[-2.652912,49.424975],[-2.653419,49.424836],[-2.653462,49.424947],[-2.653632,49.425029],[-2.653758,49.424974],[-2.653928,49.425001],[-2.654266,49.424862],[-2.654179,49.424559],[-2.654306,49.424476],[-2.654603,49.424668],[-2.654857,49.424613],[-2.655194,49.424446],[-2.655278,49.424281],[-2.65515,49.424143],[-2.65553,49.423977],[-2.655869,49.424059],[-2.656038,49.424031],[-2.656376,49.423837],[-2.657052,49.423642],[-2.65722,49.423504],[-2.65739,49.423559],[-2.657433,49.423752],[-2.657349,49.42389],[-2.657476,49.423945],[-2.658152,49.423778],[-2.658322,49.42386],[-2.658576,49.423832],[-2.658492,49.423943],[-2.658746,49.424053],[-2.658451,49.424246],[-2.658367,49.424412],[-2.658536,49.424467],[-2.658874,49.424356],[-2.658917,49.424466],[-2.659171,49.424466],[-2.659172,49.424604],[-2.659299,49.424659],[-2.659552,49.424493],[-2.659764,49.424575],[-2.660144,49.424519],[-2.660186,49.424436],[-2.660058,49.424243],[-2.660396,49.424187],[-2.660395,49.423966],[-2.660819,49.424021],[-2.661201,49.424296],[-2.66137,49.424323],[-2.661707,49.424019],[-2.661919,49.424018],[-2.662129,49.42388],[-2.662129,49.423742],[-2.662297,49.423631],[-2.662551,49.423631],[-2.662722,49.423934],[-2.662723,49.424182],[-2.662936,49.424347],[-2.663398,49.423877],[-2.663738,49.424042],[-2.663864,49.423987],[-2.663864,49.423876],[-2.664712,49.424288],[-2.664628,49.424454],[-2.664333,49.42462],[-2.664334,49.424869],[-2.664588,49.424951],[-2.664589,49.425117],[-2.664716,49.425171],[-2.664885,49.425116],[-2.665013,49.425198],[-2.665139,49.425088],[-2.665015,49.425695],[-2.665142,49.42575],[-2.665354,49.425667],[-2.66552,49.42517],[-2.665605,49.425197],[-2.665565,49.425556],[-2.665692,49.425611],[-2.666199,49.425444],[-2.666156,49.425334],[-2.666367,49.425306],[-2.666747,49.425112],[-2.666661,49.424864],[-2.666958,49.425001],[-2.667296,49.424945],[-2.667593,49.425138],[-2.667974,49.425137],[-2.668356,49.425329],[-2.668525,49.425329],[-2.66861,49.425522],[-2.668484,49.42566],[-2.668697,49.425963],[-2.668613,49.426101],[-2.668741,49.426322],[-2.668743,49.426653],[-2.668955,49.42668],[-2.668996,49.426542],[-2.669165,49.426514],[-2.669293,49.426707],[-2.669547,49.426679],[-2.669887,49.426982],[-2.670014,49.426926],[-2.670013,49.426788],[-2.670182,49.426733],[-2.670732,49.426731],[-2.67086,49.426979],[-2.67082,49.427421],[-2.671159,49.427475],[-2.671076,49.427779],[-2.67133,49.427944],[-2.671499,49.427861],[-2.671456,49.427668],[-2.67154,49.427557],[-2.67192,49.427363],[-2.672175,49.427556],[-2.672386,49.427583],[-2.67243,49.427887],[-2.672727,49.427996],[-2.672855,49.428189],[-2.672475,49.428438],[-2.672984,49.428548],[-2.673112,49.428741],[-2.673028,49.428879],[-2.672731,49.428797],[-2.672605,49.428907],[-2.672986,49.4291],[-2.672946,49.429376],[-2.6732,49.429541],[-2.673201,49.429651],[-2.673583,49.429843],[-2.673709,49.429788],[-2.673666,49.429622],[-2.67392,49.429649],[-2.674131,49.429511],[-2.674428,49.429676],[-2.674556,49.429841],[-2.674557,49.43009],[-2.674473,49.430145],[-2.674517,49.430504],[-2.674686,49.430531],[-2.674729,49.430613],[-2.674689,49.431083],[-2.674859,49.431193],[-2.674775,49.431303],[-2.674605,49.431166],[-2.674478,49.431221],[-2.674522,49.431387],[-2.674268,49.43147],[-2.674142,49.431663],[-2.674271,49.432022],[-2.674356,49.432049],[-2.67423,49.432353],[-2.674656,49.432821],[-2.674786,49.433428],[-2.674913,49.433483],[-2.674914,49.433566],[-2.674745,49.433649],[-2.674704,49.433842],[-2.674916,49.434063],[-2.674494,49.434174],[-2.674537,49.434367],[-2.674411,49.43456],[-2.674624,49.434698],[-2.674624,49.434808],[-2.674455,49.434864],[-2.674541,49.435002],[-2.674329,49.435002],[-2.674245,49.435057],[-2.674288,49.435168],[-2.674118,49.435168],[-2.673908,49.435334],[-2.673909,49.435527],[-2.674164,49.435748],[-2.674037,49.435858],[-2.674081,49.436079],[-2.673954,49.436162],[-2.673529,49.435804],[-2.673107,49.435971],[-2.673319,49.436163],[-2.673363,49.436412],[-2.673533,49.436494],[-2.673493,49.436991],[-2.67328,49.43666],[-2.672984,49.436661],[-2.672856,49.436551],[-2.672518,49.436551],[-2.671926,49.436746],[-2.671885,49.436994],[-2.671715,49.436884],[-2.671589,49.43694],[-2.671589,49.437078],[-2.671717,49.43716],[-2.671633,49.437409],[-2.671422,49.437437],[-2.67138,49.437547],[-2.671253,49.437492],[-2.671084,49.43752],[-2.671082,49.437244],[-2.670955,49.43719],[-2.670912,49.436969],[-2.671291,49.436747],[-2.671333,49.436582],[-2.671205,49.436416],[-2.670611,49.436031],[-2.67006,49.435867],[-2.670016,49.435646],[-2.669635,49.435482],[-2.669423,49.43551],[-2.669296,49.435455],[-2.669,49.435593],[-2.669001,49.435731],[-2.668832,49.435787],[-2.668493,49.435622],[-2.668281,49.435622],[-2.668111,49.435457],[-2.667815,49.435403],[-2.667393,49.435597],[-2.667436,49.435762],[-2.667563,49.435845],[-2.667394,49.435956],[-2.667184,49.436287],[-2.666424,49.436454],[-2.666084,49.436262],[-2.665704,49.436318],[-2.665576,49.436153],[-2.665279,49.435988],[-2.665319,49.435629],[-2.66498,49.435409],[-2.664641,49.435382],[-2.664766,49.435051],[-2.664427,49.434858],[-2.664426,49.434665],[-2.663536,49.434419],[-2.662689,49.434338],[-2.662309,49.434394],[-2.662013,49.434505],[-2.661888,49.434781],[-2.661549,49.434726],[-2.661253,49.43481],[-2.66121,49.434617],[-2.661082,49.434534],[-2.660829,49.434535],[-2.660574,49.434425],[-2.660278,49.434453],[-2.660277,49.43426],[-2.65998,49.434122],[-2.658796,49.43418],[-2.657866,49.434458],[-2.657654,49.434403],[-2.657232,49.434597],[-2.654659,49.436286],[-2.653648,49.437254],[-2.65344,49.437834],[-2.653443,49.438524],[-2.653571,49.438799],[-2.653826,49.438965],[-2.654207,49.439074],[-2.653995,49.439019],[-2.653742,49.439047],[-2.653701,49.439379],[-2.653657,49.439103],[-2.653572,49.439075],[-2.653277,49.439214],[-2.651295,49.440708],[-2.650664,49.441455],[-2.650244,49.4422],[-2.649997,49.443608],[-2.649412,49.445265],[-2.649667,49.44543],[-2.649371,49.445486],[-2.649467,49.447804],[-2.649643,49.449183],[-2.649813,49.449514],[-2.649815,49.449818],[-2.649943,49.449983],[-2.65007,49.449983],[-2.650198,49.450203],[-2.649944,49.450287],[-2.649945,49.450535],[-2.65033,49.451307],[-2.65046,49.451886],[-2.651313,49.453264],[-2.652334,49.454311],[-2.652843,49.454668],[-2.653225,49.454778],[-2.653436,49.454612],[-2.654112,49.454307],[-2.654154,49.454417],[-2.654324,49.454417],[-2.654492,49.454196],[-2.654874,49.454333],[-2.654832,49.454471],[-2.655172,49.454774],[-2.655935,49.454883],[-2.655935,49.454993],[-2.656105,49.45502],[-2.656105,49.455103],[-2.656573,49.455516],[-2.657294,49.455818],[-2.657802,49.455817],[-2.658181,49.45554],[-2.658309,49.455595],[-2.658773,49.455429],[-2.659366,49.455372],[-2.659324,49.455483],[-2.659451,49.455593],[-2.65996,49.45573],[-2.660214,49.455729],[-2.659707,49.455924],[-2.659623,49.456007],[-2.659666,49.456144],[-2.659074,49.456256],[-2.658863,49.456367],[-2.658738,49.456864],[-2.658569,49.456837],[-2.658273,49.45692],[-2.657936,49.457224],[-2.657937,49.457417],[-2.657685,49.457859],[-2.657728,49.458025],[-2.657603,49.458384],[-2.657646,49.45866],[-2.657858,49.458715],[-2.657436,49.458881],[-2.657265,49.458661],[-2.656544,49.458248],[-2.656078,49.458166],[-2.655866,49.458222],[-2.655569,49.458112],[-2.655358,49.458113],[-2.655102,49.457837],[-2.655144,49.457699],[-2.654803,49.457258],[-2.654421,49.457121],[-2.653617,49.457123],[-2.653025,49.457234],[-2.652053,49.457595],[-2.650871,49.458205],[-2.650153,49.458675],[-2.649097,49.459064],[-2.647999,49.459618],[-2.646733,49.460531],[-2.646563,49.460476],[-2.646055,49.460505],[-2.64525,49.460341],[-2.644234,49.460398],[-2.64305,49.460704],[-2.642079,49.461285],[-2.641739,49.46101],[-2.641991,49.46054],[-2.641906,49.46032],[-2.641566,49.460072],[-2.641269,49.459962],[-2.640886,49.459632],[-2.640505,49.459495],[-2.640038,49.459192],[-2.638978,49.458835],[-2.6383,49.458699],[-2.637961,49.458699],[-2.637707,49.458589],[-2.637114,49.458563],[-2.636226,49.458758],[-2.635972,49.458924],[-2.635634,49.458952],[-2.634241,49.45992],[-2.63251,49.461],[-2.631583,49.46194],[-2.631246,49.462492],[-2.631122,49.463045],[-2.63142,49.463513],[-2.63159,49.463623],[-2.631887,49.463678],[-2.632013,49.463622],[-2.632098,49.463705],[-2.6321,49.464009],[-2.632312,49.464091],[-2.632016,49.464202],[-2.631511,49.464975],[-2.630919,49.46517],[-2.630835,49.46528],[-2.630539,49.465281],[-2.629821,49.465696],[-2.629441,49.466083],[-2.629147,49.466608],[-2.629149,49.466939],[-2.629617,49.467518],[-2.628982,49.467436],[-2.628811,49.467216],[-2.62843,49.467134],[-2.626779,49.467164],[-2.626524,49.467082],[-2.626312,49.466944],[-2.626351,49.466254],[-2.626266,49.466117],[-2.625927,49.465924],[-2.625121,49.465677],[-2.625627,49.465124],[-2.625624,49.4646],[-2.625157,49.464187],[-2.624097,49.463802],[-2.62435,49.463526],[-2.625702,49.462999],[-2.62642,49.462612],[-2.626291,49.462115],[-2.626287,49.461177],[-2.625861,49.460515],[-2.625521,49.46024],[-2.625307,49.459633],[-2.624712,49.458972],[-2.624117,49.458476],[-2.623903,49.458035],[-2.623774,49.457428],[-2.622331,49.456686],[-2.620421,49.455503],[-2.616908,49.455592],[-2.616316,49.455731],[-2.616104,49.455593],[-2.61538,49.454656],[-2.614787,49.454381],[-2.613852,49.453638],[-2.613259,49.453445],[-2.613131,49.453115],[-2.612961,49.453032],[-2.612453,49.453005],[-2.612241,49.452923],[-2.611477,49.452427],[-2.61135,49.45229],[-2.611476,49.452124],[-2.610755,49.451684],[-2.610287,49.451132],[-2.609778,49.450775],[-2.609437,49.450334],[-2.608504,49.449756],[-2.608207,49.449508],[-2.608078,49.449232],[-2.607739,49.449039],[-2.607105,49.449206],[-2.604904,49.449292],[-2.602576,49.449269],[-2.602449,49.449186],[-2.60101,49.449271],[-2.600415,49.448582],[-2.599905,49.448141],[-2.599694,49.448087],[-2.599018,49.448446],[-2.598299,49.448723],[-2.596227,49.449141],[-2.595593,49.449445],[-2.594874,49.449529],[-2.594071,49.449806],[-2.593604,49.449614],[-2.592798,49.449008],[-2.592669,49.448456],[-2.592329,49.44796],[-2.592412,49.447712],[-2.591988,49.447326],[-2.591647,49.446774],[-2.59135,49.446582],[-2.590969,49.446472],[-2.590502,49.446169],[-2.59046,49.446059],[-2.589781,49.445563],[-2.589693,49.444735],[-2.589566,49.44468],[-2.588721,49.444985],[-2.587242,49.445732],[-2.587413,49.446118],[-2.587286,49.446367],[-2.586653,49.446837],[-2.585935,49.447142],[-2.585682,49.447418],[-2.585682,49.447584],[-2.585429,49.447694],[-2.585429,49.447832],[-2.585049,49.447998],[-2.584035,49.448717],[-2.580562,49.447812],[-2.580096,49.447812],[-2.57963,49.447592],[-2.580094,49.447288]]],[[[-2.67058,49.462965],[-2.670369,49.462993],[-2.670579,49.462744],[-2.670452,49.462689],[-2.670241,49.462745],[-2.670154,49.462414],[-2.669562,49.46247],[-2.669519,49.462332],[-2.66918,49.462305],[-2.66901,49.462168],[-2.668798,49.462168],[-2.668418,49.462335],[-2.66829,49.462114],[-2.668036,49.46206],[-2.667528,49.462199],[-2.667191,49.462393],[-2.667191,49.462558],[-2.666895,49.462586],[-2.666642,49.462752],[-2.6666,49.462863],[-2.667024,49.463028],[-2.666687,49.463194],[-2.666687,49.463332],[-2.666561,49.463443],[-2.666349,49.463471],[-2.666137,49.463361],[-2.665842,49.463665],[-2.665673,49.463665],[-2.665799,49.463472],[-2.665545,49.463417],[-2.665501,49.463196],[-2.665204,49.463059],[-2.664993,49.463115],[-2.664908,49.463225],[-2.664739,49.463198],[-2.664401,49.463282],[-2.665076,49.462894],[-2.664949,49.462784],[-2.66499,49.462646],[-2.66537,49.462479],[-2.665412,49.462341],[-2.665326,49.462065],[-2.665113,49.461873],[-2.665196,49.461541],[-2.665069,49.461376],[-2.665237,49.461265],[-2.665193,49.460907],[-2.665319,49.460741],[-2.665276,49.460631],[-2.665361,49.460603],[-2.665359,49.460272],[-2.664425,49.459611],[-2.664212,49.459363],[-2.664126,49.459088],[-2.664167,49.458867],[-2.664378,49.458839],[-2.664547,49.458645],[-2.664418,49.458259],[-2.664587,49.458231],[-2.665093,49.457927],[-2.66505,49.457623],[-2.665134,49.45754],[-2.665346,49.457567],[-2.665388,49.45765],[-2.665643,49.457732],[-2.665727,49.457704],[-2.665686,49.457815],[-2.665813,49.45787],[-2.66594,49.457814],[-2.666109,49.457842],[-2.66611,49.458035],[-2.665772,49.458091],[-2.665645,49.458201],[-2.665688,49.458339],[-2.66607,49.458421],[-2.665731,49.458422],[-2.665647,49.45856],[-2.665519,49.45845],[-2.665266,49.458506],[-2.665056,49.458837],[-2.665227,49.459251],[-2.665397,49.459333],[-2.665481,49.459306],[-2.665609,49.459471],[-2.665483,49.459526],[-2.665483,49.459637],[-2.665823,49.459912],[-2.665993,49.459967],[-2.666627,49.459717],[-2.666628,49.459938],[-2.666882,49.460103],[-2.667901,49.460487],[-2.668281,49.460376],[-2.668324,49.460458],[-2.66879,49.460595],[-2.669043,49.460457],[-2.669087,49.460622],[-2.669341,49.460732],[-2.66951,49.460649],[-2.669553,49.460732],[-2.669722,49.460759],[-2.670144,49.460399],[-2.670356,49.460564],[-2.670568,49.460509],[-2.670822,49.460618],[-2.670907,49.460591],[-2.67095,49.460701],[-2.671416,49.460893],[-2.671628,49.46092],[-2.671755,49.460837],[-2.671755,49.46092],[-2.672095,49.461085],[-2.672264,49.461029],[-2.672263,49.460946],[-2.672433,49.460974],[-2.672265,49.46125],[-2.67197,49.461444],[-2.67197,49.461582],[-2.671718,49.461914],[-2.671507,49.462052],[-2.671593,49.462328],[-2.671382,49.462494],[-2.671341,49.462687],[-2.670708,49.46302],[-2.67058,49.462965]]]]}},{"type":"Feature","properties":{"NAME":"La Mare De Carteret Primary School"},"geometry":{"type":"Polygon","coordinates":[[[-2.574913,49.494401],[-2.574362,49.494319],[-2.573599,49.493988],[-2.573343,49.493575],[-2.5733,49.493299],[-2.572918,49.492996],[-2.572494,49.492941],[-2.57207,49.493025],[-2.571985,49.492804],[-2.570411,49.490737],[-2.569859,49.490351],[-2.570534,49.489439],[-2.570491,49.489329],[-2.569729,49.489302],[-2.569391,49.489579],[-2.569009,49.489331],[-2.569008,49.488972],[-2.568923,49.488862],[-2.568499,49.488863],[-2.567652,49.489029],[-2.567525,49.488947],[-2.567356,49.488947],[-2.567185,49.488726],[-2.566931,49.488671],[-2.565534,49.488784],[-2.564475,49.489061],[-2.563795,49.488262],[-2.563837,49.488041],[-2.563411,49.487351],[-2.563411,49.487158],[-2.563664,49.486799],[-2.563789,49.486164],[-2.564296,49.485722],[-2.564505,49.484977],[-2.565139,49.484314],[-2.56518,49.483955],[-2.565517,49.483292],[-2.565472,49.482299],[-2.565554,49.481636],[-2.565086,49.48092],[-2.565763,49.480532],[-2.565719,49.480008],[-2.566227,49.479897],[-2.566523,49.479759],[-2.566395,49.479455],[-2.567113,49.47893],[-2.568042,49.478046],[-2.568296,49.477935],[-2.568463,49.477355],[-2.569181,49.476554],[-2.569686,49.47567],[-2.569982,49.475449],[-2.569855,49.475311],[-2.56854,49.474734],[-2.567396,49.474432],[-2.566803,49.47435],[-2.566334,49.473605],[-2.566842,49.473329],[-2.567942,49.472913],[-2.568744,49.472388],[-2.568402,49.471257],[-2.567891,49.470402],[-2.567848,49.470043],[-2.567932,49.469823],[-2.566322,49.469355],[-2.56687,49.46861],[-2.567124,49.468527],[-2.567291,49.468002],[-2.567248,49.467726],[-2.567501,49.467422],[-2.567374,49.467367],[-2.566781,49.467396],[-2.566019,49.467286],[-2.567325,49.46527],[-2.567367,49.464994],[-2.568167,49.463613],[-2.568842,49.462812],[-2.56969,49.463225],[-2.572447,49.46496],[-2.573253,49.465235],[-2.576812,49.46592],[-2.577448,49.466195],[-2.577575,49.466443],[-2.578297,49.466911],[-2.579738,49.467488],[-2.580758,49.468508],[-2.581988,49.469279],[-2.582626,49.470078],[-2.582798,49.470658],[-2.583352,49.471733],[-2.584032,49.472615],[-2.585433,49.473579],[-2.586495,49.474433],[-2.587131,49.47468],[-2.587725,49.475038],[-2.588065,49.475369],[-2.588279,49.476003],[-2.588577,49.476472],[-2.589297,49.476664],[-2.590061,49.477077],[-2.590824,49.477351],[-2.590487,49.477849],[-2.590109,49.478732],[-2.589392,49.479561],[-2.589477,49.479699],[-2.589266,49.479727],[-2.588634,49.480721],[-2.588046,49.482074],[-2.588006,49.48282],[-2.588133,49.48293],[-2.587879,49.482903],[-2.587372,49.483345],[-2.586994,49.484063],[-2.586827,49.484808],[-2.586872,49.485608],[-2.587129,49.486353],[-2.587893,49.486849],[-2.587936,49.487097],[-2.588106,49.487317],[-2.588361,49.487345],[-2.588573,49.487565],[-2.58887,49.487647],[-2.589463,49.487564],[-2.589802,49.487618],[-2.590098,49.487563],[-2.590353,49.487673],[-2.590353,49.487756],[-2.590099,49.487894],[-2.5901,49.48806],[-2.589931,49.488087],[-2.589677,49.488281],[-2.589805,49.488474],[-2.589763,49.488557],[-2.589975,49.488612],[-2.590018,49.488777],[-2.589212,49.488392],[-2.588958,49.488503],[-2.588958,49.488613],[-2.588789,49.488558],[-2.588577,49.488614],[-2.588576,49.488393],[-2.588322,49.488311],[-2.588321,49.488035],[-2.588151,49.487952],[-2.587685,49.487953],[-2.587558,49.488008],[-2.587559,49.488146],[-2.587305,49.488174],[-2.587219,49.487953],[-2.587304,49.487871],[-2.587092,49.487843],[-2.587261,49.487733],[-2.587218,49.487567],[-2.587048,49.487402],[-2.586751,49.487319],[-2.585904,49.487293],[-2.585226,49.487404],[-2.584677,49.487819],[-2.584382,49.488234],[-2.583874,49.488262],[-2.583874,49.4884],[-2.58379,49.488428],[-2.583787,49.487738],[-2.58349,49.487407],[-2.582811,49.487049],[-2.582005,49.48683],[-2.581666,49.486858],[-2.581624,49.486775],[-2.581369,49.48672],[-2.580607,49.486832],[-2.579803,49.487081],[-2.579,49.487634],[-2.578832,49.488021],[-2.578876,49.488407],[-2.579428,49.488765],[-2.579936,49.488792],[-2.58019,49.488736],[-2.580318,49.489095],[-2.5807,49.489177],[-2.580828,49.489398],[-2.580488,49.489288],[-2.580234,49.489288],[-2.580107,49.489178],[-2.579217,49.489124],[-2.578498,49.489566],[-2.578499,49.489677],[-2.578414,49.489649],[-2.578202,49.48976],[-2.578203,49.489843],[-2.577948,49.48976],[-2.577355,49.489789],[-2.576975,49.489927],[-2.576381,49.489707],[-2.575872,49.489681],[-2.575238,49.48993],[-2.5749,49.490261],[-2.574606,49.491172],[-2.57465,49.491669],[-2.574864,49.492165],[-2.575119,49.492469],[-2.575543,49.492744],[-2.576221,49.492826],[-2.576434,49.493019],[-2.575588,49.493599],[-2.575335,49.493848],[-2.575167,49.494207],[-2.574913,49.494401]]]}},{"type":"Feature","properties":{"NAME":"St Martin's Primary School"},"geometry":{"type":"Polygon","coordinates":[[[-2.569921,49.456022],[-2.569625,49.456105],[-2.569456,49.455968],[-2.569117,49.455858],[-2.568861,49.455168],[-2.568437,49.455113],[-2.567378,49.454756],[-2.565984,49.455945],[-2.56535,49.456139],[-2.564292,49.456333],[-2.5637,49.456555],[-2.563108,49.456611],[-2.563402,49.45581],[-2.564161,49.454871],[-2.564075,49.454512],[-2.564201,49.454098],[-2.563947,49.454015],[-2.5631,49.454072],[-2.563141,49.453465],[-2.563014,49.45341],[-2.561702,49.45377],[-2.561406,49.45366],[-2.560433,49.453799],[-2.559164,49.454297],[-2.559207,49.454408],[-2.559885,49.454683],[-2.560182,49.454958],[-2.560481,49.455703],[-2.55993,49.455676],[-2.559844,49.455345],[-2.558444,49.454188],[-2.558781,49.45358],[-2.558354,49.452146],[-2.558391,49.450518],[-2.557543,49.449774],[-2.556567,49.449085],[-2.556355,49.448837],[-2.556141,49.448175],[-2.556265,49.447099],[-2.555839,49.445995],[-2.554908,49.446107],[-2.553978,49.446494],[-2.553258,49.446385],[-2.553173,49.446054],[-2.553046,49.445999],[-2.551565,49.446276],[-2.550465,49.44625],[-2.550169,49.446388],[-2.549999,49.446278],[-2.549576,49.446306],[-2.549154,49.446665],[-2.548646,49.446859],[-2.548477,49.446997],[-2.54797,49.447136],[-2.547208,49.447192],[-2.546701,49.447358],[-2.545771,49.448021],[-2.545431,49.447415],[-2.544668,49.446781],[-2.544413,49.446422],[-2.544454,49.446119],[-2.544325,49.445263],[-2.544789,49.444794],[-2.544915,49.444325],[-2.544406,49.443884],[-2.544405,49.443276],[-2.543431,49.44314],[-2.540807,49.443032],[-2.540844,49.441266],[-2.533184,49.441163],[-2.533269,49.440998],[-2.53348,49.440915],[-2.533437,49.440694],[-2.533606,49.440584],[-2.533521,49.440446],[-2.533606,49.440418],[-2.533563,49.440225],[-2.533859,49.440004],[-2.533858,49.439755],[-2.533985,49.4397],[-2.533985,49.439507],[-2.534069,49.439479],[-2.534026,49.439341],[-2.534196,49.439424],[-2.534407,49.439286],[-2.534322,49.439065],[-2.534153,49.438982],[-2.534406,49.438899],[-2.534448,49.438817],[-2.534236,49.438624],[-2.534108,49.43821],[-2.53415,49.437989],[-2.533981,49.437906],[-2.53398,49.437658],[-2.533768,49.437437],[-2.533895,49.437355],[-2.533767,49.437051],[-2.533513,49.437024],[-2.533386,49.436748],[-2.533639,49.436637],[-2.533639,49.436527],[-2.533892,49.436334],[-2.533892,49.436223],[-2.533723,49.436141],[-2.533722,49.435975],[-2.533934,49.435892],[-2.534019,49.43603],[-2.534273,49.436085],[-2.53478,49.436001],[-2.53512,49.43636],[-2.535416,49.43647],[-2.535585,49.436415],[-2.536261,49.436],[-2.536683,49.435586],[-2.537189,49.434674],[-2.536807,49.434426],[-2.536807,49.434233],[-2.536299,49.434013],[-2.536298,49.43393],[-2.535705,49.433545],[-2.53507,49.433435],[-2.534732,49.43349],[-2.534477,49.433297],[-2.534477,49.433187],[-2.534096,49.433215],[-2.533546,49.432967],[-2.533671,49.432112],[-2.533459,49.432084],[-2.533501,49.431863],[-2.533416,49.431781],[-2.5335,49.431643],[-2.533119,49.431505],[-2.533203,49.431284],[-2.532907,49.431091],[-2.532991,49.431008],[-2.53299,49.430705],[-2.533159,49.430539],[-2.533116,49.430318],[-2.532693,49.430015],[-2.532396,49.429905],[-2.532227,49.429961],[-2.531973,49.429906],[-2.531846,49.430016],[-2.531465,49.429906],[-2.531254,49.429989],[-2.531338,49.429824],[-2.53155,49.429741],[-2.531592,49.42963],[-2.53193,49.429519],[-2.531887,49.429437],[-2.532056,49.429354],[-2.532056,49.429271],[-2.532605,49.428939],[-2.532521,49.428829],[-2.532605,49.428663],[-2.532181,49.428443],[-2.532012,49.428498],[-2.531462,49.428499],[-2.531377,49.428444],[-2.531631,49.428278],[-2.531419,49.428168],[-2.530952,49.427671],[-2.530656,49.427644],[-2.530782,49.42734],[-2.530655,49.427285],[-2.530529,49.427368],[-2.530317,49.42712],[-2.529978,49.42712],[-2.529809,49.427038],[-2.52985,49.426514],[-2.529723,49.426431],[-2.529765,49.426293],[-2.529637,49.426127],[-2.529891,49.425962],[-2.529848,49.425796],[-2.530271,49.42563],[-2.530271,49.42552],[-2.530144,49.425465],[-2.530017,49.42552],[-2.530059,49.425327],[-2.529847,49.425106],[-2.529296,49.425024],[-2.529212,49.424941],[-2.529296,49.424858],[-2.529084,49.424776],[-2.529169,49.424693],[-2.528914,49.424362],[-2.529168,49.424224],[-2.529167,49.424086],[-2.528913,49.424031],[-2.528787,49.424114],[-2.528448,49.424086],[-2.528195,49.424197],[-2.527941,49.424115],[-2.52794,49.423701],[-2.528278,49.423728],[-2.528489,49.423617],[-2.528786,49.423617],[-2.528828,49.423479],[-2.528743,49.423424],[-2.528912,49.423231],[-2.528911,49.423148],[-2.528361,49.422762],[-2.528276,49.42279],[-2.528064,49.422514],[-2.528063,49.422293],[-2.528232,49.422238],[-2.528063,49.422072],[-2.528105,49.421852],[-2.527978,49.421769],[-2.528147,49.421658],[-2.528104,49.42152],[-2.528442,49.421575],[-2.528486,49.422072],[-2.528655,49.422127],[-2.528824,49.422044],[-2.528909,49.422292],[-2.529164,49.42243],[-2.529333,49.422651],[-2.529291,49.422789],[-2.529461,49.423009],[-2.52963,49.423037],[-2.529884,49.422926],[-2.530477,49.423091],[-2.53073,49.423063],[-2.5309,49.423146],[-2.531238,49.423035],[-2.531237,49.422621],[-2.531448,49.422483],[-2.531194,49.422235],[-2.531151,49.421904],[-2.531066,49.421876],[-2.531362,49.421793],[-2.531361,49.421379],[-2.531276,49.421269],[-2.531445,49.421214],[-2.531402,49.421048],[-2.531571,49.420965],[-2.531655,49.420661],[-2.531909,49.420772],[-2.532121,49.420689],[-2.532544,49.420688],[-2.532882,49.420771],[-2.532883,49.420881],[-2.533094,49.420964],[-2.53339,49.42066],[-2.533686,49.420715],[-2.533813,49.420659],[-2.533728,49.420549],[-2.533474,49.420466],[-2.533643,49.420411],[-2.533642,49.420135],[-2.533769,49.42019],[-2.533981,49.42008],[-2.534108,49.420135],[-2.53415,49.420245],[-2.534362,49.420272],[-2.534659,49.420631],[-2.534955,49.420686],[-2.53525,49.420465],[-2.535165,49.420299],[-2.535334,49.420051],[-2.535503,49.420078],[-2.535672,49.419967],[-2.536053,49.42005],[-2.53618,49.419995],[-2.535968,49.419857],[-2.536095,49.419801],[-2.536052,49.419608],[-2.536221,49.419608],[-2.536263,49.419525],[-2.536856,49.419525],[-2.536982,49.419469],[-2.53694,49.419304],[-2.537194,49.419359],[-2.537405,49.419276],[-2.537192,49.418835],[-2.53753,49.418669],[-2.537488,49.418503],[-2.538334,49.418447],[-2.539434,49.418611],[-2.539646,49.418942],[-2.539392,49.419025],[-2.539266,49.419274],[-2.539097,49.419219],[-2.538843,49.419329],[-2.538632,49.41933],[-2.538505,49.419385],[-2.538505,49.419468],[-2.538928,49.41955],[-2.53876,49.419661],[-2.538887,49.419881],[-2.538633,49.419992],[-2.538676,49.420102],[-2.538845,49.420157],[-2.53931,49.419936],[-2.539733,49.419991],[-2.540029,49.419797],[-2.540283,49.420045],[-2.540284,49.420377],[-2.540538,49.420404],[-2.540074,49.420791],[-2.540032,49.420984],[-2.540117,49.421039],[-2.53999,49.421094],[-2.540117,49.421205],[-2.540455,49.421204],[-2.540456,49.421453],[-2.540329,49.421591],[-2.539991,49.421674],[-2.539822,49.42184],[-2.539907,49.421978],[-2.539866,49.422336],[-2.539993,49.422474],[-2.539867,49.422585],[-2.539655,49.422613],[-2.540037,49.42286],[-2.540037,49.422971],[-2.540291,49.423053],[-2.540291,49.423136],[-2.539741,49.423247],[-2.539487,49.423082],[-2.53898,49.423276],[-2.539192,49.423468],[-2.539065,49.423524],[-2.539193,49.423689],[-2.538982,49.423965],[-2.539025,49.424186],[-2.538645,49.4246],[-2.538434,49.424683],[-2.538518,49.424821],[-2.538307,49.42496],[-2.538477,49.425097],[-2.538308,49.425291],[-2.538393,49.425484],[-2.53814,49.425705],[-2.537886,49.425788],[-2.537929,49.425898],[-2.538141,49.426008],[-2.538522,49.426063],[-2.538944,49.42587],[-2.539071,49.425952],[-2.539452,49.425759],[-2.539452,49.425841],[-2.539621,49.425869],[-2.539706,49.425979],[-2.53996,49.425979],[-2.540087,49.426062],[-2.540214,49.426006],[-2.540256,49.425868],[-2.540467,49.42584],[-2.540509,49.425647],[-2.540636,49.425675],[-2.540765,49.425624],[-2.540805,49.425702],[-2.541017,49.425674],[-2.54106,49.426033],[-2.540975,49.426116],[-2.541103,49.426171],[-2.541694,49.425729],[-2.541947,49.425618],[-2.542159,49.425701],[-2.542455,49.425562],[-2.542413,49.4257],[-2.542582,49.425866],[-2.542709,49.425866],[-2.54254,49.426004],[-2.542457,49.426252],[-2.542584,49.426307],[-2.542753,49.426197],[-2.542753,49.426417],[-2.542965,49.42639],[-2.543133,49.426058],[-2.543218,49.426086],[-2.543429,49.426003],[-2.543429,49.426141],[-2.543218,49.426306],[-2.543261,49.426417],[-2.543472,49.426417],[-2.543557,49.426306],[-2.543853,49.426361],[-2.544065,49.426526],[-2.544192,49.426526],[-2.544277,49.426747],[-2.544573,49.426884],[-2.544785,49.426746],[-2.544784,49.426663],[-2.544996,49.42658],[-2.545039,49.426801],[-2.545377,49.426773],[-2.545716,49.426883],[-2.545801,49.427021],[-2.546012,49.427048],[-2.546013,49.427297],[-2.54614,49.427407],[-2.546733,49.427462],[-2.546902,49.427379],[-2.546901,49.427268],[-2.547113,49.427323],[-2.547282,49.427268],[-2.547282,49.427102],[-2.547535,49.427074],[-2.547577,49.426964],[-2.547916,49.426881],[-2.547957,49.426412],[-2.548338,49.426549],[-2.548718,49.426411],[-2.548802,49.426217],[-2.548675,49.426052],[-2.548759,49.425914],[-2.54859,49.425859],[-2.548631,49.425528],[-2.5488,49.425445],[-2.548927,49.425224],[-2.549138,49.425196],[-2.549053,49.425031],[-2.549475,49.424699],[-2.549517,49.424451],[-2.54977,49.424395],[-2.549812,49.424229],[-2.550066,49.424119],[-2.550022,49.423677],[-2.550234,49.423787],[-2.550488,49.423704],[-2.550911,49.423731],[-2.550827,49.424007],[-2.550954,49.424063],[-2.551334,49.423869],[-2.551335,49.424117],[-2.551674,49.42431],[-2.551928,49.424255],[-2.551928,49.424393],[-2.552309,49.424558],[-2.552732,49.424419],[-2.552647,49.424226],[-2.5529,49.424088],[-2.552815,49.423784],[-2.552984,49.423646],[-2.552644,49.42326],[-2.552642,49.422681],[-2.552897,49.422846],[-2.553024,49.422791],[-2.553023,49.42268],[-2.553404,49.422707],[-2.553404,49.422873],[-2.553574,49.422956],[-2.553701,49.4229],[-2.553658,49.422762],[-2.553912,49.422679],[-2.553953,49.422403],[-2.554376,49.422348],[-2.55446,49.422154],[-2.554545,49.42243],[-2.554927,49.422706],[-2.55497,49.423009],[-2.555267,49.423202],[-2.555478,49.423147],[-2.555435,49.422843],[-2.555901,49.423146],[-2.556112,49.423063],[-2.556112,49.42298],[-2.556324,49.423145],[-2.556493,49.423007],[-2.556578,49.423145],[-2.556832,49.423255],[-2.556917,49.423448],[-2.557171,49.423558],[-2.557382,49.423393],[-2.55751,49.423448],[-2.557763,49.423365],[-2.558143,49.423143],[-2.5581,49.422867],[-2.557888,49.422757],[-2.557803,49.422481],[-2.557972,49.422481],[-2.558014,49.422398],[-2.558184,49.422453],[-2.55831,49.422343],[-2.558098,49.422233],[-2.558098,49.422095],[-2.557971,49.42204],[-2.557716,49.421626],[-2.557335,49.421544],[-2.557419,49.421323],[-2.557249,49.421213],[-2.557123,49.42124],[-2.55691,49.420827],[-2.55674,49.420744],[-2.556739,49.420413],[-2.556612,49.420358],[-2.556822,49.419833],[-2.557034,49.419833],[-2.557119,49.419971],[-2.557373,49.419998],[-2.557626,49.419805],[-2.557626,49.419639],[-2.558176,49.419887],[-2.558303,49.419859],[-2.55826,49.419611],[-2.558429,49.419445],[-2.558343,49.419086],[-2.558767,49.419555],[-2.559191,49.419665],[-2.559361,49.419886],[-2.559572,49.419885],[-2.559697,49.419361],[-2.559824,49.41925],[-2.560078,49.419278],[-2.560205,49.419222],[-2.560077,49.418864],[-2.560203,49.418725],[-2.559991,49.418533],[-2.560329,49.418477],[-2.560371,49.418311],[-2.56016,49.418284],[-2.560159,49.418174],[-2.560498,49.418284],[-2.560836,49.41809],[-2.560623,49.417731],[-2.560834,49.417566],[-2.560665,49.417455],[-2.560792,49.417428],[-2.561342,49.417537],[-2.561511,49.417675],[-2.561681,49.417647],[-2.561849,49.417537],[-2.561764,49.417344],[-2.56206,49.417288],[-2.562187,49.417371],[-2.562314,49.417315],[-2.562186,49.416957],[-2.562271,49.416902],[-2.562228,49.416736],[-2.56227,49.416653],[-2.562481,49.416653],[-2.562863,49.416873],[-2.563118,49.417259],[-2.563583,49.417314],[-2.563794,49.417258],[-2.563711,49.417645],[-2.563457,49.417756],[-2.563034,49.417673],[-2.562907,49.417729],[-2.563374,49.418032],[-2.563374,49.418114],[-2.563713,49.418224],[-2.56384,49.418362],[-2.563756,49.418445],[-2.563544,49.418445],[-2.563502,49.418528],[-2.563883,49.418583],[-2.564349,49.418969],[-2.564561,49.418968],[-2.5649,49.419244],[-2.565069,49.419188],[-2.565069,49.419106],[-2.564942,49.419051],[-2.564984,49.41894],[-2.565449,49.418995],[-2.565618,49.418884],[-2.565661,49.419243],[-2.565916,49.419436],[-2.566127,49.419463],[-2.566085,49.419573],[-2.565832,49.419629],[-2.565832,49.419767],[-2.566087,49.41996],[-2.566425,49.419959],[-2.566468,49.420097],[-2.566892,49.420345],[-2.56685,49.420456],[-2.566214,49.420125],[-2.566087,49.420181],[-2.566215,49.420484],[-2.566851,49.420759],[-2.566936,49.420952],[-2.566809,49.421118],[-2.566175,49.421339],[-2.566176,49.421422],[-2.566345,49.421477],[-2.56643,49.421698],[-2.566304,49.421891],[-2.566135,49.421947],[-2.566178,49.422167],[-2.565883,49.422499],[-2.56601,49.422609],[-2.566306,49.422581],[-2.566349,49.422802],[-2.566603,49.422829],[-2.566603,49.422912],[-2.566392,49.422995],[-2.566477,49.42316],[-2.566308,49.423271],[-2.566351,49.423354],[-2.566605,49.423326],[-2.566646,49.423188],[-2.566858,49.42305],[-2.566943,49.423353],[-2.567155,49.423435],[-2.567578,49.423352],[-2.567577,49.423104],[-2.567916,49.423186],[-2.568127,49.423131],[-2.568254,49.423268],[-2.56855,49.423296],[-2.56872,49.423461],[-2.569185,49.423433],[-2.569397,49.423598],[-2.569525,49.423929],[-2.569695,49.424012],[-2.569906,49.423956],[-2.569991,49.424039],[-2.56978,49.42415],[-2.56978,49.42426],[-2.570035,49.424646],[-2.570628,49.424866],[-2.57122,49.424699],[-2.571177,49.424424],[-2.571388,49.424285],[-2.571769,49.42434],[-2.572106,49.424036],[-2.572402,49.423925],[-2.572656,49.42398],[-2.572783,49.423925],[-2.573207,49.424173],[-2.573375,49.424034],[-2.57346,49.424062],[-2.573461,49.424283],[-2.573588,49.42442],[-2.573842,49.424392],[-2.574054,49.424558],[-2.574265,49.424502],[-2.574604,49.424695],[-2.575154,49.424722],[-2.575197,49.424942],[-2.575409,49.42508],[-2.575705,49.424997],[-2.57562,49.424749],[-2.575746,49.424528],[-2.575661,49.42439],[-2.575957,49.424362],[-2.576084,49.424417],[-2.576507,49.424251],[-2.576761,49.424361],[-2.577057,49.42425],[-2.577014,49.424112],[-2.577141,49.424112],[-2.577142,49.42436],[-2.577269,49.424498],[-2.577523,49.424581],[-2.577734,49.42447],[-2.577903,49.424442],[-2.577988,49.424497],[-2.577989,49.424773],[-2.578201,49.424883],[-2.578456,49.425214],[-2.57871,49.425241],[-2.578836,49.425186],[-2.578835,49.424827],[-2.578581,49.424662],[-2.578496,49.424496],[-2.578835,49.424717],[-2.578878,49.424827],[-2.579174,49.424965],[-2.579301,49.424909],[-2.579215,49.424495],[-2.579384,49.424495],[-2.579513,49.425102],[-2.579598,49.42513],[-2.579809,49.425046],[-2.579766,49.424826],[-2.579893,49.424936],[-2.580189,49.424963],[-2.580275,49.425184],[-2.580402,49.425211],[-2.580613,49.4251],[-2.580868,49.425348],[-2.580994,49.425238],[-2.581207,49.425652],[-2.581672,49.425651],[-2.581506,49.426341],[-2.581083,49.426507],[-2.580703,49.426811],[-2.580919,49.42808],[-2.581089,49.428301],[-2.581218,49.428825],[-2.580548,49.431034],[-2.580549,49.431227],[-2.580975,49.432275],[-2.580383,49.432386],[-2.580641,49.433572],[-2.578611,49.433906],[-2.578868,49.434651],[-2.579122,49.434706],[-2.579714,49.434622],[-2.580012,49.435284],[-2.579293,49.435313],[-2.577179,49.435812],[-2.576248,49.435924],[-2.576168,49.437304],[-2.576041,49.437359],[-2.575279,49.437195],[-2.575152,49.43725],[-2.574986,49.438106],[-2.573886,49.438107],[-2.573885,49.438025],[-2.573758,49.43797],[-2.57287,49.437916],[-2.572066,49.438165],[-2.571559,49.438248],[-2.570798,49.438608],[-2.570927,49.43905],[-2.571436,49.439573],[-2.570971,49.439739],[-2.569998,49.439906],[-2.569576,49.4401],[-2.569576,49.440321],[-2.569918,49.441369],[-2.569665,49.441618],[-2.569665,49.441756],[-2.570006,49.442555],[-2.570218,49.442693],[-2.571615,49.442691],[-2.57166,49.443519],[-2.571534,49.443768],[-2.571577,49.444016],[-2.571958,49.444153],[-2.572086,49.444346],[-2.572764,49.444787],[-2.573992,49.444813],[-2.574077,49.444868],[-2.573951,49.445255],[-2.573911,49.44611],[-2.574038,49.446165],[-2.577039,49.444919],[-2.577505,49.444836],[-2.577381,49.445747],[-2.578143,49.445856],[-2.579201,49.445827],[-2.578992,49.446793],[-2.578782,49.447207],[-2.579206,49.447345],[-2.579799,49.447426],[-2.579461,49.447648],[-2.579251,49.448172],[-2.578407,49.449084],[-2.577224,49.449693],[-2.576422,49.450246],[-2.57604,49.450108],[-2.575743,49.449888],[-2.575149,49.449199],[-2.574893,49.448647],[-2.574426,49.448317],[-2.573833,49.448125],[-2.573072,49.448346],[-2.572357,49.4497],[-2.571809,49.450528],[-2.571602,49.451908],[-2.571603,49.452377],[-2.571731,49.452626],[-2.57169,49.452984],[-2.571521,49.453123],[-2.570808,49.45511],[-2.570385,49.455194],[-2.569921,49.456022]]]}},{"type":"Feature","properties":{"NAME":"Vale Primary School"},"geometry":{"type":"Polygon","coordinates":[[[-2.505201,49.506065],[-2.505201,49.505927],[-2.505328,49.505817],[-2.505201,49.505761],[-2.505074,49.505817],[-2.50482,49.505789],[-2.504734,49.505569],[-2.504904,49.505541],[-2.505115,49.505348],[-2.505285,49.505375],[-2.505412,49.50532],[-2.505539,49.505071],[-2.505496,49.504768],[-2.505326,49.504437],[-2.504519,49.503582],[-2.504349,49.503499],[-2.504138,49.503527],[-2.503841,49.503389],[-2.503925,49.503251],[-2.504052,49.503251],[-2.504137,49.503361],[-2.504519,49.503444],[-2.504646,49.503389],[-2.504688,49.503251],[-2.504646,49.503416],[-2.50507,49.503692],[-2.50524,49.504161],[-2.505452,49.504244],[-2.505876,49.504243],[-2.50613,49.504077],[-2.506172,49.503829],[-2.506002,49.50347],[-2.506001,49.503194],[-2.50634,49.503001],[-2.506297,49.502918],[-2.506128,49.502918],[-2.506212,49.502725],[-2.506169,49.502449],[-2.505915,49.502311],[-2.505745,49.502312],[-2.505491,49.502146],[-2.505237,49.502146],[-2.50494,49.502312],[-2.504856,49.502505],[-2.504856,49.502423],[-2.504729,49.502368],[-2.504348,49.502561],[-2.504178,49.502534],[-2.503755,49.502672],[-2.503755,49.502755],[-2.503924,49.50281],[-2.503967,49.502975],[-2.504094,49.50303],[-2.503713,49.502948],[-2.503797,49.502865],[-2.503585,49.5027],[-2.503839,49.502589],[-2.503712,49.502451],[-2.503839,49.50223],[-2.50405,49.502037],[-2.504389,49.501899],[-2.504515,49.501264],[-2.504302,49.50085],[-2.503708,49.500382],[-2.502775,49.499968],[-2.502606,49.500051],[-2.502521,49.500024],[-2.50269,49.499775],[-2.503029,49.499692],[-2.503029,49.499499],[-2.50324,49.499444],[-2.50324,49.499168],[-2.503027,49.498726],[-2.502264,49.498175],[-2.502221,49.497899],[-2.501967,49.497789],[-2.502051,49.497596],[-2.501754,49.497403],[-2.501754,49.497182],[-2.501881,49.497127],[-2.502007,49.496851],[-2.502346,49.496878],[-2.5026,49.49674],[-2.502472,49.495829],[-2.502004,49.494919],[-2.501961,49.494615],[-2.502807,49.493759],[-2.503271,49.492766],[-2.503396,49.491441],[-2.503607,49.491054],[-2.503776,49.490944],[-2.503521,49.490089],[-2.503563,49.490033],[-2.50369,49.490061],[-2.504283,49.48995],[-2.504114,49.490199],[-2.504157,49.490447],[-2.504581,49.490667],[-2.505047,49.490777],[-2.505936,49.490666],[-2.507588,49.490748],[-2.508012,49.490582],[-2.508816,49.490112],[-2.508561,49.48956],[-2.508221,49.489285],[-2.507669,49.48854],[-2.507245,49.488375],[-2.507076,49.488375],[-2.507076,49.488292],[-2.506906,49.48821],[-2.506652,49.48821],[-2.507287,49.488099],[-2.508049,49.487795],[-2.508853,49.487242],[-2.509064,49.486966],[-2.508978,49.486414],[-2.508003,49.485835],[-2.507918,49.485698],[-2.507917,49.48509],[-2.508128,49.484594],[-2.508931,49.483986],[-2.509905,49.483516],[-2.509946,49.483212],[-2.510242,49.482964],[-2.512063,49.482466],[-2.51185,49.481831],[-2.511977,49.481803],[-2.512488,49.483155],[-2.5127,49.483348],[-2.513758,49.483237],[-2.514012,49.483099],[-2.513969,49.482823],[-2.513546,49.482851],[-2.513376,49.482437],[-2.513799,49.482381],[-2.514096,49.482519],[-2.514224,49.483181],[-2.516385,49.483566],[-2.516682,49.483565],[-2.516724,49.483648],[-2.517105,49.483731],[-2.517317,49.483703],[-2.517529,49.483482],[-2.518673,49.483702],[-2.518884,49.483646],[-2.518842,49.483564],[-2.518672,49.483536],[-2.518714,49.483453],[-2.519392,49.483563],[-2.519519,49.483508],[-2.519772,49.483011],[-2.51973,49.482873],[-2.519475,49.482735],[-2.518374,49.482598],[-2.517866,49.482681],[-2.517655,49.483233],[-2.516553,49.483014],[-2.516596,49.482903],[-2.516723,49.482903],[-2.516935,49.483041],[-2.517189,49.483013],[-2.517484,49.482571],[-2.517314,49.482351],[-2.512992,49.481168],[-2.51278,49.481223],[-2.512611,49.481499],[-2.512484,49.481555],[-2.512991,49.480754],[-2.512737,49.480533],[-2.512228,49.480506],[-2.51155,49.480093],[-2.510365,49.480563],[-2.509941,49.480646],[-2.507865,49.480096],[-2.507823,49.47993],[-2.508412,49.478302],[-2.511036,49.476975],[-2.511797,49.476754],[-2.512687,49.476753],[-2.515737,49.477219],[-2.516499,49.477136],[-2.517557,49.476804],[-2.518827,49.47661],[-2.519674,49.47625],[-2.519969,49.475946],[-2.519884,49.475643],[-2.520138,49.475532],[-2.520138,49.475449],[-2.520519,49.475559],[-2.520392,49.475698],[-2.520647,49.476001],[-2.521071,49.476138],[-2.521367,49.476138],[-2.521494,49.476028],[-2.521621,49.476138],[-2.522172,49.47611],[-2.524034,49.475749],[-2.524543,49.475777],[-2.524797,49.475887],[-2.525305,49.475886],[-2.52776,49.475084],[-2.528521,49.474641],[-2.528901,49.474227],[-2.530424,49.473701],[-2.532876,49.47196],[-2.53351,49.471325],[-2.533891,49.471104],[-2.53389,49.470855],[-2.534398,49.470938],[-2.534822,49.47091],[-2.5355,49.471102],[-2.535754,49.471102],[-2.535754,49.471295],[-2.535924,49.471405],[-2.536517,49.471322],[-2.536813,49.471156],[-2.537828,49.471017],[-2.538084,49.471403],[-2.538846,49.47143],[-2.539142,49.471512],[-2.539439,49.471678],[-2.539652,49.471981],[-2.539821,49.472063],[-2.540498,49.471814],[-2.542064,49.471509],[-2.543334,49.471453],[-2.544012,49.471535],[-2.544057,49.472666],[-2.543932,49.473246],[-2.543678,49.473356],[-2.542916,49.47333],[-2.542366,49.473634],[-2.541349,49.473276],[-2.541137,49.473304],[-2.53932,49.474713],[-2.538052,49.475874],[-2.536869,49.477117],[-2.535899,49.47847],[-2.535475,49.47836],[-2.535306,49.478388],[-2.534714,49.479133],[-2.534545,49.479078],[-2.534418,49.479134],[-2.534378,49.479989],[-2.53459,49.480072],[-2.534676,49.480734],[-2.534549,49.480844],[-2.53455,49.481093],[-2.534211,49.481148],[-2.534169,49.481452],[-2.533915,49.481507],[-2.533579,49.482391],[-2.533875,49.482501],[-2.533793,49.483273],[-2.533963,49.483715],[-2.534133,49.483797],[-2.534302,49.48377],[-2.534217,49.483797],[-2.534346,49.484266],[-2.534473,49.484321],[-2.534981,49.484211],[-2.535447,49.48421],[-2.536256,49.486058],[-2.535833,49.486141],[-2.535791,49.486279],[-2.535664,49.486335],[-2.535749,49.486555],[-2.535283,49.486666],[-2.535411,49.487108],[-2.535157,49.487163],[-2.535115,49.487273],[-2.536862,49.491383],[-2.537116,49.491438],[-2.538471,49.491188],[-2.538727,49.491685],[-2.538981,49.49174],[-2.539236,49.491905],[-2.540168,49.492015],[-2.540295,49.492125],[-2.540846,49.492317],[-2.541313,49.492372],[-2.541864,49.492537],[-2.541864,49.492758],[-2.542119,49.493089],[-2.543052,49.493502],[-2.54352,49.49397],[-2.54352,49.494301],[-2.543183,49.494936],[-2.542549,49.495489],[-2.542381,49.495931],[-2.542425,49.496538],[-2.54268,49.497007],[-2.542596,49.497421],[-2.542724,49.497669],[-2.542386,49.497973],[-2.542089,49.497973],[-2.541497,49.498305],[-2.541075,49.498719],[-2.540695,49.499327],[-2.540828,49.501645],[-2.540789,49.503024],[-2.541044,49.503272],[-2.541298,49.503383],[-2.542146,49.503492],[-2.542485,49.503464],[-2.542867,49.503629],[-2.543206,49.503905],[-2.543377,49.504236],[-2.543971,49.504566],[-2.545665,49.504344],[-2.546089,49.504233],[-2.547106,49.504287],[-2.547742,49.504479],[-2.547827,49.504645],[-2.548082,49.50481],[-2.548548,49.504975],[-2.548507,49.505251],[-2.548634,49.505334],[-2.548423,49.505555],[-2.548465,49.505665],[-2.548211,49.505803],[-2.548297,49.505914],[-2.548085,49.506052],[-2.548128,49.50619],[-2.547916,49.506162],[-2.547789,49.506218],[-2.546518,49.506302],[-2.545375,49.506662],[-2.544569,49.506552],[-2.54423,49.506553],[-2.543976,49.506636],[-2.543511,49.50694],[-2.543342,49.507189],[-2.543385,49.507326],[-2.543047,49.507824],[-2.542835,49.507962],[-2.541903,49.507742],[-2.541478,49.507522],[-2.540503,49.507357],[-2.539698,49.507358],[-2.538851,49.507469],[-2.537792,49.507912],[-2.537793,49.50816],[-2.537539,49.508133],[-2.537412,49.508188],[-2.537412,49.508299],[-2.537582,49.508381],[-2.537497,49.508575],[-2.536776,49.508327],[-2.536437,49.508051],[-2.536436,49.507913],[-2.53614,49.507886],[-2.536139,49.507776],[-2.535927,49.507721],[-2.535927,49.507528],[-2.536054,49.507417],[-2.535756,49.507031],[-2.535502,49.506948],[-2.535459,49.506783],[-2.534908,49.506618],[-2.534187,49.506646],[-2.53351,49.50684],[-2.532706,49.50731],[-2.532706,49.507393],[-2.532071,49.507807],[-2.531605,49.507753],[-2.531478,49.507808],[-2.531436,49.507946],[-2.531267,49.507946],[-2.531054,49.507781],[-2.531096,49.507643],[-2.531266,49.507725],[-2.531393,49.50767],[-2.531477,49.507394],[-2.531816,49.507173],[-2.531688,49.507063],[-2.531476,49.507063],[-2.531476,49.50698],[-2.531815,49.507007],[-2.531985,49.506924],[-2.532027,49.506786],[-2.531899,49.506731],[-2.53228,49.50651],[-2.532449,49.506234],[-2.532915,49.506096],[-2.532999,49.505847],[-2.533295,49.505681],[-2.533718,49.505239],[-2.534013,49.504742],[-2.53397,49.504246],[-2.532951,49.503557],[-2.530406,49.502483],[-2.529177,49.502181],[-2.528456,49.502099],[-2.527566,49.501851],[-2.526634,49.501769],[-2.525023,49.501771],[-2.524897,49.501854],[-2.524388,49.501827],[-2.523626,49.501993],[-2.523245,49.502269],[-2.523119,49.502738],[-2.52312,49.503263],[-2.522739,49.503539],[-2.522527,49.503539],[-2.522061,49.503319],[-2.521299,49.503513],[-2.520494,49.50401],[-2.520283,49.504286],[-2.520284,49.50459],[-2.520497,49.505059],[-2.520751,49.505141],[-2.520794,49.50539],[-2.520921,49.505472],[-2.520794,49.505555],[-2.520837,49.505831],[-2.520795,49.505748],[-2.520625,49.505749],[-2.520626,49.506025],[-2.520414,49.50608],[-2.520414,49.506163],[-2.52016,49.506053],[-2.520033,49.50608],[-2.519694,49.506329],[-2.51961,49.506522],[-2.518763,49.506937],[-2.518299,49.507627],[-2.518299,49.507903],[-2.518639,49.508206],[-2.518682,49.508427],[-2.518809,49.508482],[-2.519021,49.508454],[-2.518979,49.508592],[-2.519191,49.508703],[-2.519106,49.508758],[-2.519191,49.508841],[-2.519149,49.509117],[-2.518895,49.509255],[-2.518683,49.509255],[-2.518174,49.509007],[-2.518132,49.508924],[-2.517793,49.508869],[-2.517792,49.508731],[-2.51758,49.508649],[-2.517453,49.508677],[-2.517071,49.508263],[-2.516859,49.508263],[-2.516859,49.508125],[-2.516689,49.508042],[-2.517197,49.507573],[-2.517154,49.507269],[-2.516687,49.506828],[-2.516686,49.506663],[-2.516559,49.506525],[-2.51622,49.50636],[-2.516135,49.506387],[-2.51605,49.506167],[-2.516261,49.505863],[-2.515964,49.505504],[-2.515328,49.505312],[-2.514565,49.505202],[-2.513632,49.505203],[-2.513378,49.505093],[-2.512657,49.504983],[-2.512488,49.505011],[-2.51253,49.504873],[-2.512445,49.504817],[-2.511258,49.504542],[-2.510283,49.504488],[-2.509817,49.504571],[-2.509182,49.50482],[-2.509056,49.504986],[-2.509056,49.505344],[-2.508972,49.5054],[-2.50859,49.505345],[-2.507616,49.505566],[-2.507701,49.505649],[-2.507362,49.50576],[-2.507235,49.506091],[-2.507363,49.506146],[-2.507278,49.506229],[-2.507533,49.506422],[-2.507278,49.506422],[-2.506812,49.506202],[-2.506854,49.506009],[-2.506642,49.505843],[-2.506218,49.505926],[-2.506007,49.506064],[-2.506007,49.506147],[-2.505879,49.506064],[-2.505922,49.505982],[-2.505752,49.505899],[-2.505583,49.505954],[-2.505625,49.506092],[-2.505201,49.506065]]]}},{"type":"Feature","properties":{"NAME":"Vauvert Primary School"},"geometry":{"type":"Polygon","coordinates":[[[-2.566735,49.466099],[-2.562457,49.465442],[-2.560974,49.465085],[-2.560973,49.464975],[-2.560761,49.464892],[-2.559914,49.464838],[-2.559448,49.464728],[-2.559448,49.46448],[-2.559321,49.464425],[-2.558051,49.464482],[-2.556565,49.463242],[-2.554785,49.462499],[-2.553768,49.462196],[-2.552921,49.462142],[-2.552031,49.461757],[-2.550887,49.461593],[-2.55076,49.461427],[-2.546058,49.460522],[-2.545465,49.460219],[-2.544575,49.459972],[-2.541863,49.458981],[-2.539575,49.458266],[-2.539277,49.457742],[-2.539108,49.457659],[-2.538981,49.457715],[-2.538813,49.458156],[-2.538433,49.458654],[-2.537291,49.458876],[-2.535555,49.458905],[-2.53475,49.458768],[-2.533861,49.458741],[-2.532888,49.459073],[-2.529628,49.458966],[-2.528824,49.458994],[-2.528824,49.459215],[-2.52976,49.461256],[-2.529634,49.461505],[-2.529762,49.461753],[-2.529592,49.461753],[-2.528018,49.458112],[-2.527466,49.457671],[-2.526617,49.456375],[-2.526447,49.456237],[-2.526743,49.456182],[-2.526701,49.45632],[-2.527253,49.457064],[-2.52827,49.457284],[-2.529118,49.457973],[-2.529287,49.45789],[-2.529244,49.45778],[-2.529456,49.457724],[-2.528776,49.456373],[-2.528988,49.456538],[-2.529411,49.456455],[-2.529921,49.45742],[-2.530091,49.457503],[-2.530514,49.45742],[-2.530939,49.458165],[-2.531277,49.458192],[-2.531404,49.458136],[-2.531445,49.457419],[-2.53263,49.457473],[-2.532632,49.45819],[-2.534241,49.458272],[-2.534579,49.458078],[-2.534832,49.457719],[-2.535253,49.45656],[-2.534787,49.456422],[-2.534491,49.456478],[-2.534069,49.45714],[-2.534069,49.457278],[-2.533731,49.45761],[-2.534448,49.456367],[-2.533728,49.45623],[-2.533559,49.456285],[-2.5336,49.455706],[-2.533812,49.455706],[-2.533728,49.456064],[-2.533855,49.45612],[-2.535379,49.456228],[-2.535548,49.456118],[-2.535758,49.455538],[-2.535799,49.454848],[-2.535672,49.454683],[-2.535502,49.454628],[-2.534148,49.454601],[-2.534063,49.454684],[-2.534023,49.455429],[-2.533769,49.45543],[-2.533641,49.455347],[-2.533768,49.455209],[-2.533767,49.454602],[-2.53347,49.454409],[-2.533089,49.454382],[-2.5333,49.454188],[-2.534401,49.454353],[-2.534824,49.454352],[-2.535205,49.454269],[-2.535328,49.452807],[-2.535201,49.452752],[-2.534016,49.452725],[-2.533381,49.452864],[-2.533384,49.453968],[-2.533382,49.452919],[-2.533255,49.452864],[-2.531731,49.453141],[-2.53135,49.453142],[-2.531097,49.453252],[-2.531055,49.453501],[-2.531649,49.454356],[-2.531819,49.454355],[-2.532495,49.454024],[-2.532622,49.454024],[-2.531777,49.454438],[-2.531904,49.454631],[-2.53165,49.454466],[-2.531225,49.453887],[-2.531098,49.453832],[-2.530886,49.453887],[-2.530887,49.45397],[-2.530759,49.453887],[-2.529109,49.454193],[-2.528813,49.454138],[-2.528557,49.453531],[-2.528388,49.453476],[-2.527965,49.453504],[-2.527965,49.453393],[-2.528091,49.453366],[-2.528388,49.453393],[-2.533804,49.452449],[-2.535455,49.452475],[-2.535666,49.452337],[-2.535704,49.450599],[-2.535619,49.450461],[-2.53528,49.450295],[-2.534645,49.450268],[-2.53456,49.449993],[-2.534094,49.44969],[-2.533882,49.449662],[-2.533374,49.449745],[-2.533289,49.449525],[-2.532654,49.449443],[-2.532526,49.44925],[-2.532187,49.449057],[-2.531934,49.449112],[-2.531848,49.448919],[-2.53151,49.448864],[-2.531594,49.448754],[-2.531086,49.448534],[-2.53117,49.448451],[-2.530873,49.44823],[-2.530492,49.448148],[-2.530323,49.448231],[-2.530196,49.448203],[-2.530238,49.447982],[-2.530365,49.4479],[-2.530279,49.447679],[-2.530491,49.447568],[-2.530532,49.447237],[-2.530701,49.447127],[-2.530701,49.446961],[-2.530446,49.44663],[-2.530023,49.446493],[-2.529811,49.446355],[-2.529683,49.446134],[-2.529387,49.445969],[-2.529556,49.445803],[-2.529852,49.445941],[-2.530318,49.445968],[-2.530656,49.445912],[-2.53125,49.446271],[-2.531546,49.446132],[-2.531418,49.445856],[-2.531714,49.445801],[-2.531968,49.445663],[-2.532306,49.445662],[-2.532772,49.4458],[-2.533068,49.445634],[-2.533025,49.445524],[-2.533195,49.445468],[-2.53311,49.44533],[-2.533279,49.445247],[-2.533151,49.445082],[-2.533236,49.444972],[-2.533151,49.444889],[-2.533278,49.444861],[-2.53349,49.444971],[-2.533617,49.444916],[-2.533574,49.444695],[-2.5337,49.44453],[-2.533699,49.444143],[-2.533445,49.444061],[-2.533233,49.443868],[-2.533317,49.443675],[-2.533147,49.443399],[-2.533147,49.443206],[-2.533485,49.443178],[-2.533527,49.44304],[-2.533358,49.442819],[-2.533188,49.442764],[-2.533357,49.442598],[-2.533357,49.442377],[-2.53306,49.442185],[-2.532932,49.441964],[-2.533017,49.441881],[-2.533271,49.441853],[-2.533058,49.441522],[-2.533058,49.441219],[-2.540802,49.441293],[-2.540764,49.44306],[-2.543431,49.443195],[-2.544405,49.443304],[-2.54432,49.443359],[-2.544321,49.443884],[-2.54483,49.444325],[-2.544663,49.444849],[-2.54424,49.445264],[-2.544412,49.446257],[-2.544328,49.446422],[-2.544668,49.446864],[-2.545219,49.447277],[-2.545686,49.447966],[-2.545814,49.448021],[-2.546785,49.447386],[-2.547208,49.447247],[-2.54797,49.447191],[-2.548477,49.447052],[-2.549281,49.446665],[-2.549534,49.446361],[-2.549999,49.446306],[-2.550211,49.446416],[-2.550422,49.446305],[-2.551565,49.446331],[-2.553088,49.446054],[-2.553216,49.446412],[-2.553978,49.446549],[-2.554908,49.446162],[-2.555797,49.446023],[-2.556181,49.447099],[-2.556057,49.448175],[-2.55627,49.448837],[-2.556483,49.449085],[-2.557458,49.449774],[-2.558307,49.450518],[-2.558312,49.452312],[-2.558696,49.453581],[-2.55836,49.454188],[-2.559802,49.4554],[-2.559845,49.455676],[-2.559973,49.455731],[-2.560396,49.455731],[-2.560523,49.455676],[-2.560522,49.455565],[-2.560182,49.454876],[-2.559842,49.454573],[-2.559207,49.454325],[-2.559545,49.454159],[-2.560433,49.453854],[-2.561406,49.453715],[-2.561703,49.453825],[-2.563056,49.453437],[-2.563058,49.454099],[-2.564159,49.454098],[-2.56399,49.454512],[-2.564076,49.454871],[-2.563317,49.45581],[-2.563023,49.456611],[-2.562347,49.457163],[-2.562221,49.457191],[-2.561924,49.457109],[-2.561797,49.457164],[-2.561714,49.457771],[-2.561292,49.458158],[-2.561632,49.458654],[-2.561421,49.458875],[-2.561422,49.459013],[-2.562314,49.460309],[-2.562484,49.460392],[-2.563076,49.460253],[-2.563371,49.459784],[-2.5646,49.460003],[-2.564938,49.459947],[-2.564518,49.460858],[-2.565111,49.461134],[-2.565367,49.46174],[-2.566342,49.46207],[-2.567824,49.462399],[-2.568757,49.462785],[-2.568082,49.463613],[-2.566735,49.466099]]]}}]}