{
  "type": "FeatureCollection",
  "features": [
    {
      "type": "Feature",
      "properties": {
        "CATCHMENT_NAME": "Allerton Grange School catchment",
        "SCHOOL_URN": 108058,
        "SCHOOL_NAME": "Allerton Grange School"
      },
      "geometry": {
        "type": "Polygon",
        "coordinates": [
          [
            [-1.5352916158790333, 53.829364059637506],
            [-1.5359004770193003, 53.82972330531587],
            [-1.5374503053763433, 53.83214004897033],
            [-1.5378931134783556, 53.83246663595066],
            [-1.5378931134783556, 53.832793222930995],
            [-1.5436496188045155, 53.8411538496275],
            [-1.5437603208300186, 53.84161107139997],
            [-1.4906233485885423, 53.90333601068279],
            [-1.4893502752952568, 53.904544382510025],
            [-1.4691471556409454, 53.89353840127282],
            [-1.4456783262342934, 53.87185302577875],
            [-1.4457890282597965, 53.87159175619448],
            [-1.4699774208322187, 53.8537274483703],
            [-1.5352916158790333, 53.829364059637506]
          ]
        ]
      }
    },
    {
      "type": "Feature",
      "properties": {
        "CATCHMENT_NAME": "Benton Park School catchment",
        "SCHOOL_URN": 151762,
        "SCHOOL_NAME": "Benton Park School"
      },
      "geometry": {
        "type": "Polygon",
        "coordinates": [
          [
            [-1.6781522150079462, 53.83320557626829],
            [-1.6988061866788002, 53.83382177273042],
            [-1.6998509401096216, 53.83377437300256],
            [-1.7043915992512684, 53.83398767177792],
            [-1.7043915992512684, 53.83431946987291],
            [-1.7040701366571696, 53.83484086687932],
            [-1.7029450175778234, 53.83612065953143],
            [-1.7047130618453672, 53.83692645490498],
            [-1.7029450175778234, 53.83981783830419],
            [-1.7028646519292987, 53.84038663503846],
            [-1.7034272114689717, 53.84223522442484],
            [-1.7029450175778234, 53.842756621431256],
            [-1.7021413610925762, 53.84323061870982],
            [-1.7019806297955267, 53.84379941544409],
            [-1.7009358763647053, 53.84488960918477],
            [-1.7008555107161807, 53.845174007551904],
            [-1.7102582915935731, 53.85384815774953],
            [-1.711463776321444, 53.854985751218074],
            [-1.711463776321444, 53.8551753501295],
            [-1.6746964921213832, 53.88562967527691],
            [-1.6430324266026424, 53.88776266303043],
            [-1.6428315124813306, 53.88769156343864],
            [-1.6428315124813306, 53.88712276670437],
            [-1.645001384991498, 53.86636168590349],
            [-1.6781522150079462, 53.83320557626829]
          ]
        ]
      }
    },
    {
      "type": "Feature",
      "properties": {
        "CATCHMENT_NAME": "Lawnswood School catchment",
        "SCHOOL_URN": 108055,
        "SCHOOL_NAME": "Lawnswood School"
      },
      "geometry": {
        "type": "Polygon",
        "coordinates": [
          [
            [-1.5938721261351747, 53.81454215595491],
            [-1.6151338434324867, 53.81671069350432],
            [-1.6232272954901055, 53.82406823161838],
            [-1.6232272954901055, 53.82442965454328],
            [-1.6173650112970195, 53.84074531801025],
            [-1.5818850674119989, 53.85068444844503],
            [-1.5816663254644956, 53.85081352806107],
            [-1.5801788802214738, 53.85933278271945],
            [-1.5800913834424726, 53.859590941951524],
            [-1.579785144715968, 53.85966838972114],
            [-1.577466480072434, 53.85768056363419],
            [-1.5752790605974019, 53.85618324008817],
            [-1.5748415767023956, 53.8555636579312],
            [-1.5748415767023956, 53.85509897131347],
            [-1.5700730022468254, 53.85311114522651],
            [-1.5684543118353018, 53.85179453314294],
            [-1.5677543376032914, 53.85076189621465],
            [-1.5657419116862619, 53.84993578667202],
            [-1.5653044277912556, 53.84957436374712],
            [-1.565479421349258, 53.848903149743734],
            [-1.5652169310122541, 53.84849009497242],
            [-1.564516956780244, 53.848180303893926],
            [-1.563641988990231, 53.847405826197715],
            [-1.5634669954322284, 53.846734612194325],
            [-1.5644294600012427, 53.84559871157321],
            [-1.565479421349258, 53.84503076126265],
            [-1.5659169052442645, 53.84446281095209],
            [-1.5667918730342774, 53.843998124334355],
            [-1.567448098876787, 53.84340435810059],
            [-1.5688480473408075, 53.84355925363984],
            [-1.5693292796253147, 53.84332691033097],
            [-1.5698105119098216, 53.84283640779003],
            [-1.5729166475643672, 53.84193285047778],
            [-1.5758915380504108, 53.826907983171175],
            [-1.5935658874086702, 53.81461960372453],
            [-1.5938721261351747, 53.81454215595491]
          ]
        ]
      }
    },
    {
      "type": "Feature",
      "properties": {
        "CATCHMENT_NAME": "Roundhay School catchment",
        "SCHOOL_URN": 108076,
        "SCHOOL_NAME": "Roundhay School"
      },
      "geometry": {
        "type": "Polygon",
        "coordinates": [
          [
            [-1.5075848438311303, 53.81352055658485],
            [-1.5341538905344452, 53.81719197300552],
            [-1.538194478599829, 53.82225303769757],
            [-1.5371479953598735, 53.82856650144901],
            [-1.4771205539568701, 53.85095527915452],
            [-1.4758415188858134, 53.851504276002466],
            [-1.4753764152236108, 53.85160721291146],
            [-1.471771861841542, 53.85297970503134],
            [-1.4715393100104408, 53.85297970503134],
            [-1.471510241031553, 53.85282529966785],
            [-1.4731381038492617, 53.851041059912006],
            [-1.5075848438311303, 53.81352055658485]
          ]
        ]
      }
    },
    {
      "type": "Feature",
      "properties": {
        "CATCHMENT_NAME": "Allerton High School Zone 1 catchment",
        "SCHOOL_URN": 108057,
        "SCHOOL_NAME": "Allerton High School"
      },
      "geometry": {
        "type": "Polygon",
        "coordinates": [
          [
            [-1.5465292, 53.8452636],
            [-1.547341, 53.8452864],
            [-1.5488872, 53.847065],
            [-1.5492737, 53.8471562],
            [-1.5492737, 53.8474298],
            [-1.5497376, 53.8475666],
            [-1.5497376, 53.8478403],
            [-1.5502788, 53.8482963],
            [-1.5506653, 53.8489804],
            [-1.550588, 53.8509414],
            [-1.5495443, 53.8509642],
            [-1.5491578, 53.8507362],
            [-1.5478435, 53.8507362],
            [-1.5464519, 53.8510099],
            [-1.5367107, 53.8509642],
            [-1.536672, 53.8518079],
            [-1.5371359, 53.8518992],
            [-1.5371746, 53.8527429],
            [-1.5394939, 53.8528341],
            [-1.5395712, 53.852606],
            [-1.541504, 53.8525604],
            [-1.5418905, 53.8528797],
            [-1.5423931, 53.8529025],
            [-1.5425477, 53.8540882],
            [-1.5431275, 53.8542934],
            [-1.5449057, 53.8542934],
            [-1.544983, 53.8545215],
            [-1.5462199, 53.8545215],
            [-1.5467611, 53.8542934],
            [-1.54823, 53.8542934],
            [-1.5486166, 53.8545671],
            [-1.5511678, 53.8545671],
            [-1.5519796, 53.8541338],
            [-1.5522502, 53.8513291],
            [-1.552946, 53.8513291],
            [-1.5530233, 53.8516939],
            [-1.5542603, 53.8516939],
            [-1.5543376, 53.8511011],
            [-1.5585124, 53.8508274],
            [-1.5592855, 53.850645],
            [-1.5620687, 53.850417],
            [-1.5663208, 53.8505538],
            [-1.5671325, 53.8517623],
            [-1.5686788, 53.8529025],
            [-1.5735493, 53.8549091],
            [-1.573704, 53.8557756],
            [-1.5740132, 53.8561405],
            [-1.5763325, 53.8576454],
            [-1.5784972, 53.8595609],
            [-1.5772603, 53.8668121],
            [-1.5761006, 53.8681803],
            [-1.5761006, 53.8690012],
            [-1.5765258, 53.869024],
            [-1.5767191, 53.8692292],
            [-1.5767191, 53.8698677],
            [-1.568988, 53.9129192],
            [-1.5042401, 53.9130332],
            [-1.5000653, 53.9149486],
            [-1.498983, 53.9150855],
            [-1.4987897, 53.9147434],
            [-1.4938418, 53.9110494],
            [-1.4928368, 53.9106845],
            [-1.4926821, 53.9101829],
            [-1.491909, 53.909818],
            [-1.4918317, 53.9095444],
            [-1.4903628, 53.9084499],
            [-1.4899763, 53.9084043],
            [-1.4899763, 53.9081762],
            [-1.4895124, 53.9078114],
            [-1.4854149, 53.904847],
            [-1.4851057, 53.9045734],
            [-1.4851057, 53.9040718],
            [-1.4914452, 53.8966837],
            [-1.4922956, 53.8965925],
            [-1.4923729, 53.8956348],
            [-1.5031191, 53.8831389],
            [-1.5035057, 53.8830477],
            [-1.5035057, 53.8827284],
            [-1.5049746, 53.8810866],
            [-1.5051292, 53.8805394],
            [-1.5055158, 53.8804481],
            [-1.5091494, 53.8762068],
            [-1.5091494, 53.8759788],
            [-1.5116233, 53.8733793],
            [-1.5185813, 53.8652159],
            [-1.5189292, 53.8651931],
            [-1.5189678, 53.8649423],
            [-1.5192771, 53.8648511],
            [-1.5192771, 53.8644406],
            [-1.5212099, 53.8621604],
            [-1.5222149, 53.8610202],
            [-1.5229107, 53.8609746],
            [-1.5229107, 53.8603362],
            [-1.5232199, 53.8601081],
            [-1.5232199, 53.8598345],
            [-1.5240704, 53.8588768],
            [-1.5246889, 53.8588312],
            [-1.5247662, 53.8579647],
            [-1.5261578, 53.8564597],
            [-1.5273174, 53.8562773],
            [-1.5273174, 53.8551371],
            [-1.527588, 53.8548407],
            [-1.5280132, 53.8548179],
            [-1.5280905, 53.854225],
            [-1.528941, 53.8541794],
            [-1.5290183, 53.8530849],
            [-1.5297914, 53.8528113],
            [-1.5297914, 53.8521728],
            [-1.5304872, 53.8515799],
            [-1.5304872, 53.8513519],
            [-1.5307964, 53.8512151],
            [-1.5307964, 53.850987],
            [-1.532188, 53.8493453],
            [-1.5324973, 53.8477035],
            [-1.5332317, 53.8476807],
            [-1.5334636, 53.8481367],
            [-1.5363241, 53.8482735],
            [-1.539262, 53.8481367],
            [-1.5420452, 53.847179],
            [-1.5465292, 53.8452636]
          ]
        ]
      }
    },
    {
      "type": "Feature",
      "properties": {
        "CATCHMENT_NAME": "Allerton High School Zone 2 catchment",
        "SCHOOL_URN": 108057,
        "SCHOOL_NAME": "Allerton High School"
      },
      "geometry": {
        "type": "Polygon",
        "coordinates": [
          [
            [-1.5399578, 53.8412959],
            [-1.5413494, 53.8414327],
            [-1.5573527, 53.841752],
            [-1.5579712, 53.8417976],
            [-1.5580485, 53.8420256],
            [-1.5630737, 53.8421168],
            [-1.563151, 53.8418888],
            [-1.5635376, 53.8418888],
            [-1.5711914, 53.8420712],
            [-1.5714233, 53.8422992],
            [-1.5718872, 53.8423448],
            [-1.5728535, 53.8432797],
            [-1.5728535, 53.843599],
            [-1.573472, 53.8438726],
            [-1.5749409, 53.8452864],
            [-1.5750956, 53.8456512],
            [-1.5761779, 53.8467001],
            [-1.5764872, 53.8467914],
            [-1.5764872, 53.8470194],
            [-1.577183, 53.8475666],
            [-1.5775695, 53.8482051],
            [-1.5782653, 53.8488436],
            [-1.5787292, 53.8489804],
            [-1.5787292, 53.849254],
            [-1.5797342, 53.8500293],
            [-1.5801208, 53.8506222],
            [-1.5786519, 53.8587856],
            [-1.5775309, 53.8587172],
            [-1.5764872, 53.8578735],
            [-1.5761779, 53.8573718],
            [-1.574709, 53.8565509],
            [-1.5742451, 53.8558668],
            [-1.5739359, 53.8557756],
            [-1.5737813, 53.8549547],
            [-1.5704183, 53.8537006],
            [-1.5681376, 53.852492],
            [-1.5672872, 53.8516711],
            [-1.5664754, 53.8504626],
            [-1.5616821, 53.850417],
            [-1.5551107, 53.8510555],
            [-1.5545695, 53.8510555],
            [-1.5542603, 53.850873],
            [-1.5532552, 53.850873],
            [-1.5473796, 53.8454004],
            [-1.5459107, 53.845446],
            [-1.5409628, 53.8475438],
            [-1.5401897, 53.8476351],
            [-1.53903, 53.8480911],
            [-1.5339275, 53.8479999],
            [-1.5338115, 53.8476579],
            [-1.5340435, 53.8472474],
            [-1.5342754, 53.8472018],
            [-1.5345073, 53.8467001],
            [-1.5351258, 53.8461985],
            [-1.5351258, 53.8458792],
            [-1.5354351, 53.845788],
            [-1.5361309, 53.8447847],
            [-1.5367494, 53.8442831],
            [-1.536904, 53.8437814],
            [-1.5372905, 53.8436446],
            [-1.5387594, 53.8419572],
            [-1.53903, 53.8419344],
            [-1.5393779, 53.8415011],
            [-1.5399578, 53.8412959]
          ]
        ]
      }
    }
  ]
}
