{
  "type": "FeatureCollection",
  "features": [
    {
      "type": "Feature",
      "properties": {
        "CATCHMENT_NAME": "Broadstone Middle School catchment",
        "SCHOOL_URN": 141184,
        "SCHOOL_NAME": "Broadstone Middle School"
      },
      "geometry": {
        "type": "Polygon",
        "coordinates": [
          [
            [-1.9988906646055828, 50.75630896716325],
            [-1.998966113859145, 50.7563286177202],
            [-1.998966113859145, 50.75636791883411],
            [-1.9987353279070728, 50.75854070898861],
            [-1.9985844293999484, 50.76039347578703],
            [-1.998380272596192, 50.762223784806075],
            [-1.9980873519647158, 50.765334187249486],
            [-1.9978654423954156, 50.767220640716964],
            [-1.9977500494193794, 50.76886567305617],
            [-1.9976701619744313, 50.769483261988974],
            [-1.9976124654864131, 50.76950852699077],
            [-1.997443814213745, 50.769514141435614],
            [-1.9971863991133567, 50.76937939475937],
            [-1.9968402201852482, 50.76940185253874],
            [-1.9966626925298079, 50.76939062364905],
            [-1.9964674121088237, 50.769413081428425],
            [-1.9957750542526067, 50.76944115365265],
            [-1.9947986521476855, 50.76955905699437],
            [-1.9945057315162091, 50.76963204477733],
            [-1.9942660691813647, 50.76949168365624],
            [-1.9941240470570125, 50.769514141435614],
            [-1.9932186560142673, 50.7697948636778],
            [-1.991434503077093, 50.77029454926889],
            [-1.991372368397689, 50.7702833203792],
            [-1.9912303462733367, 50.7701934892617],
            [-1.9905468647998918, 50.77050789817295],
            [-1.9894905752500225, 50.77091775264654],
            [-1.9893574295084422, 50.77095705376044],
            [-1.9889313631353858, 50.77103004154341],
            [-1.9887094535660854, 50.77115917377482],
            [-1.9886295661211373, 50.771125487105756],
            [-1.9881679942169928, 50.771153559329974],
            [-1.9878883881596743, 50.77092617431381],
            [-1.987790747949182, 50.77065668096131],
            [-1.987608782102356, 50.77054158484201],
            [-1.9872803559397916, 50.77047982594873],
            [-1.9869963116910871, 50.77038438038639],
            [-1.9868631659495068, 50.77031139260342],
            [-1.9867388965906987, 50.77031139260342],
            [-1.9865524925524864, 50.77031700704826],
            [-1.9863483357487304, 50.770361922607016],
            [-1.986135302562202, 50.77046859705904],
            [-1.9859400221412178, 50.77051351261779],
            [-1.985371933643809, 50.77072686152185],
            [-1.9849636200362963, 50.77078300597029],
            [-1.9844665426010637, 50.77094582487076],
            [-1.9843067677111677, 50.771001969319194],
            [-1.9841736219695874, 50.77108618599185],
            [-1.9841203636729554, 50.77108618599185],
            [-1.9840892963332533, 50.7710665354349],
            [-1.9840892963332533, 50.77098231876224],
            [-1.983907330486427, 50.77086722264295],
            [-1.9837386792137588, 50.77089529486717],
            [-1.9832948600751583, 50.7708616081981],
            [-1.9826113786017132, 50.770962668205286],
            [-1.9822296941425168, 50.770973897094976],
            [-1.9820255373387605, 50.771001969319194],
            [-1.9818391333005483, 50.77104688487794],
            [-1.98162610011402, 50.7711704026645],
            [-1.9815550890518439, 50.77119286044388],
            [-1.9815107071379838, 50.77117601710935],
            [-1.981550650860458, 50.77029174204647],
            [-1.9819412117024264, 50.76509838056605],
            [-1.9819500880851983, 50.764357273846684],
            [-1.9819989081904446, 50.76434885217942],
            [-1.9821808740372708, 50.76423375606012],
            [-1.9819855936162865, 50.764115852718405],
            [-1.9819855936162865, 50.76407093715965],
            [-1.9823850308410271, 50.762998578194505],
            [-1.9835034550703006, 50.75941094793939],
            [-1.9840360380366213, 50.757810831158935],
            [-1.9840892963332533, 50.75769854226206],
            [-1.9843289586680977, 50.75751326558222],
            [-1.9841070490987973, 50.757339217792065],
            [-1.9840981727160254, 50.75727184445394],
            [-1.9841425546298854, 50.75721008556066],
            [-1.9843689023905717, 50.75705007388262],
            [-1.9844754189838358, 50.75701077276871],
            [-1.9845819355771, 50.75701077276871],
            [-1.9848082833377862, 50.757109025553476],
            [-1.9848704180171903, 50.75717078444676],
            [-1.9848881707827344, 50.75724377222972],
            [-1.9850301929070866, 50.75733360334722],
            [-1.9866456945715927, 50.75894494901736],
            [-1.986845413183963, 50.759076888471185],
            [-1.9880703540065006, 50.758897226236186],
            [-1.989055632494194, 50.75900390068822],
            [-1.989077823451124, 50.75903478013486],
            [-1.9888559138818236, 50.759652369067666],
            [-1.9888470374990517, 50.76001169353766],
            [-1.9890911380252818, 50.760154861881176],
            [-1.989295294829038, 50.76000888631524],
            [-1.9896148446088306, 50.75987975408383],
            [-1.9901563039579233, 50.75979553741118],
            [-1.9902361914028714, 50.759801151856024],
            [-1.9903782135272237, 50.759761850742116],
            [-1.9908309090485963, 50.759711320738525],
            [-1.9909152346849304, 50.75973658574032],
            [-1.9909596165987904, 50.75987694686141],
            [-1.9911415824456167, 50.75999204298071],
            [-1.9912924809527408, 50.75989659741837],
            [-1.9915587724359012, 50.759851681859615],
            [-1.9917540528568853, 50.759963970756495],
            [-1.9918250639190616, 50.759963970756495],
            [-1.9922955122059782, 50.760104331877585],
            [-1.9924774780528043, 50.75998923575829],
            [-1.992965679105265, 50.759298659042514],
            [-1.9936314078131658, 50.758585624547365],
            [-1.9940308450379065, 50.75823191452221],
            [-1.9942882601382947, 50.75803540895268],
            [-1.9951359546930219, 50.757510458359796],
            [-1.9955176391522185, 50.757308338345425],
            [-1.995925952759731, 50.75712306166558],
            [-1.996680445295352, 50.75683111053371],
            [-1.9976124654864131, 50.75656161718121],
            [-1.9988906646055828, 50.75630896716325]
          ]
        ]
      }
    },
    {
      "type": "Feature",
      "properties": {
        "CATCHMENT_NAME": "Highcliffe School catchment",
        "SCHOOL_URN": 136763,
        "SCHOOL_NAME": "Highcliffe School"
      },
      "geometry": {
        "type": "Polygon",
        "coordinates": [
          [
            [-1.729445646256015, 50.73211870358048],
            [-1.7302116661177187, 50.73228027033857],
            [-1.7317437058411262, 50.73486533846804],
            [-1.7331736095829733, 50.735963992423066],
            [-1.7332757455645338, 50.736674886158674],
            [-1.7290881703205534, 50.7397123412108],
            [-1.7350631252418423, 50.741618828956284],
            [-1.7378207967439758, 50.7420065891757],
            [-1.738076136697877, 50.742426662746745],
            [-1.737259048845393, 50.743137556482345],
            [-1.7404763322645487, 50.74452703060194],
            [-1.7412934201170327, 50.74510867093107],
            [-1.7443574995638476, 50.74607807147962],
            [-1.7446128395177487, 50.74643351834742],
            [-1.7444085675546277, 50.74753217230245],
            [-1.7425701198865389, 50.749341719993076],
            [-1.7437957516652647, 50.750052613728684],
            [-1.7437957516652647, 50.75283156196786],
            [-1.7446128395177487, 50.75373633581318],
            [-1.7448171114808697, 50.75612752383294],
            [-1.7421615759602969, 50.75690304427178],
            [-1.7420594399787364, 50.758260205039754],
            [-1.7416508960524943, 50.75858333855594],
            [-1.7419573039971759, 50.76032825954333],
            [-1.7404252642737683, 50.76110377998217],
            [-1.7401188563290868, 50.762719447563086],
            [-1.739301768476603, 50.763171834485746],
            [-1.739301768476603, 50.763430341298694],
            [-1.7399145843659658, 50.76433511514401],
            [-1.7399145843659658, 50.76511063558285],
            [-1.7415487600709338, 50.76698480997671],
            [-1.7448171114808697, 50.7724134530486],
            [-1.7461959472319364, 50.77276889991641],
            [-1.7484940068170476, 50.77474001436512],
            [-1.7481365308815857, 50.7752247146394],
            [-1.7461448792411562, 50.775967921726625],
            [-1.74900468672485, 50.77907000348199],
            [-1.7484940068170476, 50.7836584994118],
            [-1.7474215790106624, 50.78498334682815],
            [-1.74282545984044, 50.787116028034966],
            [-1.737463320808514, 50.79025042314195],
            [-1.7381272046886573, 50.79079975011946],
            [-1.7423147799326375, 50.79138139044859],
            [-1.7447660434900893, 50.79222153759067],
            [-1.7453788593794524, 50.792156910887435],
            [-1.746502355176618, 50.79254467110685],
            [-1.746553423167398, 50.792964744677896],
            [-1.7450724514347709, 50.79390183187483],
            [-1.7421105079695165, 50.794871232423375],
            [-1.7367994369283708, 50.795711379565454],
            [-1.729241374292894, 50.7996536084629],
            [-1.7264837027907607, 50.800364502198505],
            [-1.7232153513808248, 50.799912115275845],
            [-1.7184149602474816, 50.79984748857261],
            [-1.7090184499439158, 50.7952589926428],
            [-1.706362914423343, 50.793126311435984],
            [-1.6999794155758121, 50.79025042314195],
            [-1.6971196080921183, 50.78695446127687],
            [-1.6960982482765132, 50.78624356754127],
            [-1.6950768884609082, 50.78385237952151],
            [-1.6923702849495552, 50.782786038918104],
            [-1.6905829052722465, 50.78339999259885],
            [-1.690889313216928, 50.78520954028948],
            [-1.690685041253807, 50.78579118061861],
            [-1.688438049659476, 50.78798848852866],
            [-1.6828205706736488, 50.79257698445847],
            [-1.6827184346920883, 50.7931586247876],
            [-1.6819524148303846, 50.79338481824893],
            [-1.6748028961211499, 50.79396645857806],
            [-1.657950459163668, 50.793320191545696],
            [-1.6575929832282064, 50.79302937138113],
            [-1.6581036631360089, 50.79173683731639],
            [-1.6578483231821075, 50.79144601715183],
            [-1.6510052124175543, 50.79060587000975],
            [-1.6508520084452136, 50.790056543032236],
            [-1.6561630794863593, 50.78540342039919],
            [-1.6558056035508977, 50.78517722693786],
            [-1.6504945325097518, 50.784078572982835],
            [-1.6454898694132876, 50.78504797353139],
            [-1.6378296707962503, 50.78485409342168],
            [-1.6302716081607738, 50.78433707979578],
            [-1.6259308289444525, 50.785726553915374],
            [-1.6263393728706945, 50.787342221496296],
            [-1.6224582055713959, 50.78921639589016],
            [-1.6194451941153611, 50.79241541770038],
            [-1.6161768427054253, 50.79260929781009],
            [-1.6141341230742154, 50.79344944495217],
            [-1.6109679076458399, 50.793578698358644],
            [-1.6094358679224325, 50.793578698358644],
            [-1.6078016922174645, 50.793126311435984],
            [-1.6039205249181658, 50.79138139044859],
            [-1.6028480971117807, 50.79012116973548],
            [-1.6028480971117807, 50.78908714248369],
            [-1.595136830503963, 50.785371107047574],
            [-1.5939111987252372, 50.785500360454044],
            [-1.5920727510571482, 50.7852418536411],
            [-1.5912556632046644, 50.78556498715729],
            [-1.5902343033890594, 50.78556498715729],
            [-1.5875787678684865, 50.78472484001521],
            [-1.586046728145079, 50.78530648034434],
            [-1.577160897749316, 50.787116028034966],
            [-1.576803421813854, 50.787342221496296],
            [-1.5789482774266246, 50.788764008967505],
            [-1.5843104164585506, 50.793320191545696],
            [-1.5936047907805557, 50.794741979016905],
            [-1.6162279106962054, 50.797553240607705],
            [-1.6161768427054253, 50.798037940881976],
            [-1.595494306439425, 50.80097845587925],
            [-1.5999372216373065, 50.80346658395386],
            [-1.6192409221522401, 50.80779657307073],
            [-1.6198026700508228, 50.80815201993853],
            [-1.617555678456492, 50.82107736058588],
            [-1.6194962621061413, 50.82379168212183],
            [-1.6194962621061413, 50.8263767502513],
            [-1.6211304378111093, 50.83258091376203],
            [-1.61714713453025, 50.84175790562165],
            [-1.6157172307884031, 50.84440760045435],
            [-1.6120914034430054, 50.84650796830955],
            [-1.6114785875536424, 50.84657259501279],
            [-1.5884979917025308, 50.8386881372179],
            [-1.5811442010301753, 50.83642620260461],
            [-1.5805313851408123, 50.83636157590138],
            [-1.5737904103578195, 50.83959291106322],
            [-1.5731775944684565, 50.83959291106322],
            [-1.5630661322939674, 50.83713709634022],
            [-1.5505034065620265, 50.8355214287593],
            [-1.5275738787016953, 50.82941420530343],
            [-1.5243055272917594, 50.8139037965266],
            [-1.5284931025357396, 50.797100853685045],
            [-1.5365107770882385, 50.7940310852813],
            [-1.5464179672996066, 50.792738551216566],
            [-1.5550995257322489, 50.794160338687774],
            [-1.560921276681197, 50.795905259675166],
            [-1.5668451636117058, 50.7964869000043],
            [-1.5703177869847627, 50.79661615341077],
            [-1.5721562346528515, 50.79661615341077],
            [-1.5735350704039184, 50.79626070654297],
            [-1.5620958404691427, 50.78016865743702],
            [-1.561738364533681, 50.78000709067892],
            [-1.558878557049987, 50.78097649122747],
            [-1.5584700131237452, 50.780911864524235],
            [-1.554333505870545, 50.777131202384886],
            [-1.5530057381102587, 50.77428762744247],
            [-1.5539249619443032, 50.772219572938894],
            [-1.5568358374187772, 50.77147636585167],
            [-1.5873744959053655, 50.76527220234094],
            [-1.5876298358592666, 50.76465824866019],
            [-1.5867106120252221, 50.76065139305951],
            [-1.5840550765046493, 50.75612752383294],
            [-1.5847700283755728, 50.754511856252016],
            [-1.585638184218837, 50.75435028949393],
            [-1.587068087960684, 50.754608796306876],
            [-1.5881915837578493, 50.755190436636006],
            [-1.5928387709188518, 50.75031112054163],
            [-1.6036141169734843, 50.743945390272806],
            [-1.612806355313929, 50.742329722691885],
            [-1.6189345142075586, 50.73955077445271],
            [-1.6192919901430205, 50.7390014474752],
            [-1.6199048060323833, 50.73486533846804],
            [-1.623122089451539, 50.73308810412903],
            [-1.623939177304023, 50.7332173575355],
            [-1.626237236889134, 50.734219071435675],
            [-1.627258596704739, 50.736933392971615],
            [-1.626441508852255, 50.7397123412108],
            [-1.6245009252026057, 50.74320218318559],
            [-1.6240923812763637, 50.747144412083024],
            [-1.6296077242806304, 50.75586901701999],
            [-1.6368593789714256, 50.763301087892216],
            [-1.640434138326043, 50.77144405250005],
            [-1.6409958862246257, 50.77160561925814],
            [-1.6608102666473619, 50.767534136954225],
            [-1.6686747372275201, 50.76734025684451],
            [-1.67071745685873, 50.766500109702434],
            [-1.6756199839736339, 50.765530709153886],
            [-1.6805225110885376, 50.765983096076546],
            [-1.683280182590671, 50.76701712332833],
            [-1.6896126134474216, 50.76533682904417],
            [-1.6899700893828835, 50.76491675547314],
            [-1.6912978571431698, 50.75386558921965],
            [-1.6903786333091255, 50.75354245570347],
            [-1.6896126134474216, 50.752540741803294],
            [-1.6865485340006068, 50.75305775542919],
            [-1.68511863025876, 50.752540741803294],
            [-1.6821566867935056, 50.752411488396824],
            [-1.6815949388949227, 50.751926788122546],
            [-1.6815949388949227, 50.75024649383839],
            [-1.6827184346920883, 50.74669202516037],
            [-1.6838419304892538, 50.7446239706568],
            [-1.684710086332518, 50.743816136866336],
            [-1.6881316417147945, 50.74203890252732],
            [-1.6884891176502563, 50.74155420225305],
            [-1.6899190213921031, 50.741166442033624],
            [-1.6910935851800488, 50.74003547472698],
            [-1.6920128090140933, 50.73958308780433],
            [-1.6924213529403354, 50.73829055373959],
            [-1.6922170809772143, 50.73699801967486],
            [-1.6934937807467205, 50.737030333026475],
            [-1.694208732617644, 50.736577946103814],
            [-1.69543436439637, 50.73690107962],
            [-1.697272812064459, 50.73690107962],
            [-1.697681355990701, 50.73651331940058],
            [-1.698294171880064, 50.736577946103814],
            [-1.698702715806306, 50.73690107962],
            [-1.6998262116034712, 50.73696570632324],
            [-1.7060565064786615, 50.73690107962],
            [-1.7151466088375458, 50.735996305774684],
            [-1.7190277761368444, 50.73541466544555],
            [-1.7248495270857929, 50.733992877974345],
            [-1.729445646256015, 50.73211870358048]
          ]
        ]
      }
    },
    {
      "type": "Feature",
      "properties": {
        "CATCHMENT_NAME": "Oak Academy catchment",
        "SCHOOL_URN": 139037,
        "SCHOOL_NAME": "Oak Academy"
      },
      "geometry": {
        "type": "Polygon",
        "coordinates": [
          [
            [-1.9155672765466751, 50.75454596219045],
            [-1.917596099736138, 50.75496734483117],
            [-1.9193978158521536, 50.755302535568106],
            [-1.9250452117452113, 50.757715908874054],
            [-1.9278159180412688, 50.75898963367442],
            [-1.9373317044187128, 50.761331180393874],
            [-1.9373619853618391, 50.76137906478486],
            [-1.9365292594258656, 50.764606472737654],
            [-1.9330242402589948, 50.76994558233315],
            [-1.9329636783727422, 50.76995515921135],
            [-1.9322974976239633, 50.769773198525584],
            [-1.9317070192330001, 50.76982108291658],
            [-1.920094277544059, 50.76873889568018],
            [-1.9197914681127959, 50.76868143441099],
            [-1.9197233359907615, 50.7686383384591],
            [-1.9198293192917038, 50.76847553152973],
            [-1.9201169882514038, 50.768293570843966],
            [-1.9199428728284273, 50.76815470611009],
            [-1.9197611871696696, 50.7681163985973],
            [-1.9194886586815327, 50.7681163985973],
            [-1.9190041635915116, 50.76823132113567],
            [-1.918890610054788, 50.768312724600364],
            [-1.9188149076969723, 50.76859045406811],
            [-1.9187316351033747, 50.7686431268982],
            [-1.9185802303877433, 50.7686431268982],
            [-1.9178459175169302, 50.76820737894018],
            [-1.9176263806792644, 50.76803020669351],
            [-1.917474975963633, 50.76801105293712],
            [-1.9172175879470592, 50.76805893732811],
            [-1.916899638044233, 50.76820259050108],
            [-1.916770944035946, 50.768303147722165],
            [-1.9167255226212565, 50.76838933962595],
            [-1.916680101206567, 50.76894479856144],
            [-1.916445423897338, 50.76909324017351],
            [-1.9157943836201223, 50.76909324017351],
            [-1.915552136075112, 50.76890170260955],
            [-1.9152947480585383, 50.76896874075694],
            [-1.9148102529685174, 50.76897831763514],
            [-1.9146588482528857, 50.769035778904325],
            [-1.9143333281142778, 50.769260835541985],
            [-1.9140305186830147, 50.769634333791714],
            [-1.9137655604306594, 50.76979235228198],
            [-1.9131902225112596, 50.77001262048054],
            [-1.9124180584615385, 50.77015627365351],
            [-1.9113279445089912, 50.77014669677531],
            [-1.9111462588502333, 50.77017542740991],
            [-1.910957002955694, 50.77029513838739],
            [-1.910790457768499, 50.770620752246124],
            [-1.9105557804592703, 50.77070215571081],
            [-1.9102681114995703, 50.770721309467206],
            [-1.9097381949948598, 50.77053934878144],
            [-1.9095867902792283, 50.77053934878144],
            [-1.9091477166038966, 50.770625540685224],
            [-1.9086707917496573, 50.77082186668829],
            [-1.9085799489202784, 50.771319864354595],
            [-1.908458825147773, 50.771444363771174],
            [-1.9083301311394862, 50.77148745972306],
            [-1.9081333050091651, 50.77151619035766],
            [-1.9078153551063388, 50.77149703660126],
            [-1.907346000487881, 50.77136296030648],
            [-1.9071794553006862, 50.77137253718468],
            [-1.9071264636502152, 50.771329441232794],
            [-1.9086556512780941, 50.7696726413045],
            [-1.9094732367425045, 50.76884902977946],
            [-1.9086783619854388, 50.76852820435982],
            [-1.908458825147773, 50.768303147722165],
            [-1.9083982632615204, 50.768178648305586],
            [-1.9087919155221624, 50.76789134195964],
            [-1.9092158487259308, 50.767441228684326],
            [-1.9096397819296993, 50.76691450038342],
            [-1.9096397819296993, 50.76683788535784],
            [-1.9105936316381782, 50.76631115705694],
            [-1.9103740948005123, 50.766162715444864],
            [-1.9102983924426966, 50.76620102295766],
            [-1.9102075496133177, 50.76619144607946],
            [-1.9101242770197202, 50.76610046573658],
            [-1.910109136548157, 50.766014273832795],
            [-1.910199979377536, 50.76586104378162],
            [-1.910343813857386, 50.765789217195135],
            [-1.9105254995161438, 50.76575090968234],
            [-1.910828308947407, 50.765779640316936],
            [-1.9108661601263148, 50.76575569812144],
            [-1.9109115815410045, 50.765545006801084],
            [-1.9109645731914755, 50.76551148772739],
            [-1.9111008374355438, 50.765521064605586],
            [-1.911168969557578, 50.7654492380191],
            [-1.9111311183786701, 50.76540614206721],
            [-1.910972143427257, 50.76535346923712],
            [-1.910972143427257, 50.76527685421153],
            [-1.911062986256636, 50.76513320103856],
            [-1.9112371016796124, 50.76499433630468],
            [-1.911638324176036, 50.76479801030162],
            [-1.9117745884201043, 50.76463520337225],
            [-1.9116231837044728, 50.76448197332108],
            [-1.9116231837044728, 50.76443408893009],
            [-1.9119562740788623, 50.76357216989225],
            [-1.912031976436678, 50.763485977988466],
            [-1.9118048693632306, 50.76316994100793],
            [-1.9115777622897834, 50.76295924968757],
            [-1.9114793492246227, 50.762896999979276],
            [-1.9113279445089912, 50.762896999979276],
            [-1.911259812386957, 50.76286348090559],
            [-1.9110024243703834, 50.76211648440613],
            [-1.9108964410694413, 50.761685524887206],
            [-1.9108964410694413, 50.76150356420144],
            [-1.9110478457850728, 50.76136948790666],
            [-1.9112522421511755, 50.76127850756378],
            [-1.9114490682814964, 50.761335968832974],
            [-1.9116761753549438, 50.76111570063441],
            [-1.9119032824283912, 50.76115400814721],
            [-1.9119562740788623, 50.760995989656934],
            [-1.9120244062008964, 50.760952893705046],
            [-1.9122363728027807, 50.76087627867946],
            [-1.9123272156321596, 50.76088585555766],
            [-1.9124029179899753, 50.760952893705046],
            [-1.9124407691688832, 50.76092895150955],
            [-1.9124104882257569, 50.76081402897117],
            [-1.9125997441202964, 50.760742202384684],
            [-1.9127814297790542, 50.76070389487189],
            [-1.9129933963809385, 50.760742202384684],
            [-1.9132659248690753, 50.760742202384684],
            [-1.9137807009022225, 50.760608126089906],
            [-1.9138185520811304, 50.76055545325982],
            [-1.913773130666441, 50.76040222320865],
            [-1.9139093949105095, 50.76033518506126],
            [-1.9138034116095672, 50.76016280125369],
            [-1.9138564032600385, 50.760119705301804],
            [-1.9140380889187962, 50.760119705301804],
            [-1.9141667829270832, 50.76006703247171],
            [-1.9141213615123935, 50.759885071785945],
            [-1.914189493634428, 50.75985155271225],
            [-1.9149616576841488, 50.75972705329568],
            [-1.915029789806183, 50.75969353422198],
            [-1.9150146493346198, 50.7595881885618],
            [-1.915082781456654, 50.75954509260991],
            [-1.9152039052291594, 50.75955466948811],
            [-1.9152417564080673, 50.75953072729261],
            [-1.9150222195704014, 50.759391862558736],
            [-1.913901824674728, 50.759506785097116],
            [-1.913788271138004, 50.75947326602342],
            [-1.9136520068939358, 50.75922426719027],
            [-1.913682287837062, 50.759157229042884],
            [-1.9135914450076832, 50.75911892153009],
            [-1.91357630453612, 50.7590614602609],
            [-1.9144241709436567, 50.75823784873585],
            [-1.9130842392103173, 50.75773506263045],
            [-1.9130463880314095, 50.75768238980036],
            [-1.9133037760479832, 50.75735677594162],
            [-1.9134173295847068, 50.75732325686793],
            [-1.9135384533572122, 50.75737114125892],
            [-1.9135914450076832, 50.757337622185226],
            [-1.914060799626141, 50.75681089388432],
            [-1.9138791139673832, 50.75668639446775],
            [-1.9140305186830147, 50.756494856903785],
            [-1.9141516424555198, 50.7564182418782],
            [-1.9142879066995884, 50.756150089288646],
            [-1.9144090304720935, 50.75609262801946],
            [-1.9144847328299095, 50.75599685923748],
            [-1.914310617406933, 50.75594418640739],
            [-1.9142727662280252, 50.7558627829427],
            [-1.914310617406933, 50.75583884074721],
            [-1.914598286366633, 50.7558867251382],
            [-1.9146664184886673, 50.7558627829427],
            [-1.914817823204299, 50.75570955289153],
            [-1.9149086660336778, 50.75550843844937],
            [-1.9150600707493093, 50.75534563152],
            [-1.9152568968796304, 50.75525943961622],
            [-1.9154083015952619, 50.75513494019964],
            [-1.915499144424641, 50.75498171014847],
            [-1.9156202681971461, 50.75490509512288],
            [-1.9154007313594803, 50.75481411478],
            [-1.9153477397090093, 50.75475186507171],
            [-1.9154840039530778, 50.754579481264145],
            [-1.9155672765466751, 50.75454596219045]
          ]
        ]
      }
    },
    {
      "type": "Feature",
      "properties": {
        "CATCHMENT_NAME": "Poole High School catchment",
        "SCHOOL_URN": 150883,
        "SCHOOL_NAME": "Poole High School"
      },
      "geometry": {
        "type": "Polygon",
        "coordinates": [
          [
            [-1.9666694562994491, 50.678440246218095],
            [-1.9671226368408268, 50.678511967669195],
            [-1.9674625222468602, 50.678834714199134],
            [-1.9685388260326324, 50.67904987855242],
            [-1.9694168633315516, 50.679533998347324],
            [-1.9700399865759461, 50.68003604850501],
            [-1.9719660038768017, 50.68258216001895],
            [-1.9735521357716237, 50.683514538883216],
            [-1.974401849286707, 50.68430347484529],
            [-1.9753365341532987, 50.684859316091284],
            [-1.9765827806420875, 50.68518206262122],
            [-1.977942322266221, 50.68525378407232],
            [-1.9824741276799984, 50.685827555681094],
            [-1.984116907142493, 50.68650890946652],
            [-1.9856747152534788, 50.687459218693554],
            [-1.9873741422836455, 50.68907295134324],
            [-1.9883937985017455, 50.69100943052286],
            [-1.990603053640962, 50.69287418825139],
            [-1.9922458331034565, 50.69473894597991],
            [-1.9946816785133619, 50.69789468982818],
            [-1.9958712774344785, 50.70008219408664],
            [-1.9955597158122813, 50.700387010253806],
            [-1.9831538984920651, 50.703112425395496],
            [-1.9787920357813042, 50.70454685441744],
            [-1.9777723795632043, 50.70469029731963],
            [-1.976469485506743, 50.70469029731963],
            [-1.9763278665875625, 50.7047799491335],
            [-1.9870625806614484, 50.711539695899404],
            [-1.9918209763459147, 50.71211346750818],
            [-1.9922741568872926, 50.712256910410375],
            [-1.9931521941862118, 50.71281275165637],
            [-1.9938319649982785, 50.71363754834399],
            [-1.9940585552689674, 50.71439062358051],
            [-1.9926990136448341, 50.71611193840684],
            [-1.9914527671560454, 50.7170443172711],
            [-1.9907163487763064, 50.71808427831201],
            [-1.990886291479323, 50.71898079645072],
            [-1.991622709859062, 50.71976973241279],
            [-1.9936336985114258, 50.72104278816977],
            [-1.9958996012183146, 50.72193930630848],
            [-1.9962394866243478, 50.72193930630848],
            [-1.9971458477071033, 50.721544838327446],
            [-1.998108856357531, 50.7213655346997],
            [-1.9986753320342534, 50.721401395425254],
            [-1.9992418077109755, 50.721616559778546],
            [-2.0000065498745507, 50.72227998320119],
            [-2.002159157446095, 50.72493367689178],
            [-2.0043684125853116, 50.726654991718114],
            [-2.005558011506428, 50.72966729266419],
            [-2.0100898169202055, 50.73296647941466],
            [-2.010684616380764, 50.73330715630737],
            [-2.01122276827365, 50.73343266884679],
            [-2.0115343298958472, 50.73391678864169],
            [-2.012440690978603, 50.73402437081834],
            [-2.0131204617906695, 50.73423953517163],
            [-2.013516994764375, 50.73459814242712],
            [-2.0139135277380804, 50.73449056025047],
            [-2.0145932985501473, 50.734849167505956],
            [-2.0149331839561806, 50.734849167505956],
            [-2.0162927255803136, 50.734454699524925],
            [-2.017114115311561, 50.73511812294757],
            [-2.0169441726085444, 50.735871198184086],
            [-2.0166609347701834, 50.73608636253738],
            [-2.016604287202511, 50.73648083051842],
            [-2.0162927255803136, 50.736785646685576],
            [-2.014819888820836, 50.73671392523448],
            [-2.014480003414803, 50.73696495031332],
            [-2.0136586136835555, 50.73719804502939],
            [-2.0133187282775222, 50.742361989508375],
            [-2.0134320234128666, 50.74254129313612],
            [-2.0128089001684724, 50.748458312851625],
            [-2.0100614931363694, 50.749050014823176],
            [-2.0080221807001695, 50.74965964715751],
            [-2.005019859613542, 50.75102235472835],
            [-2.0034054039348836, 50.752044385406485],
            [-2.0024990428521283, 50.752797460643],
            [-2.001196148795667, 50.7541243074883],
            [-1.999893254739206, 50.75598906521682],
            [-1.999581693117009, 50.756186299207336],
            [-1.9978822660868423, 50.75575597050076],
            [-1.997542380680809, 50.7560787170307],
            [-1.99680596230107, 50.75615043848179],
            [-1.9965510482465452, 50.75598906521682],
            [-1.9964377531112008, 50.755487015059146],
            [-1.996012896353659, 50.75539736324527],
            [-1.9940868790528035, 50.75568424904966],
            [-1.9930672228347035, 50.75629388138398],
            [-1.9924440995903092, 50.756258020658436],
            [-1.9922458331034565, 50.75616836884456],
            [-1.992189185535784, 50.755415293608046],
            [-1.992642366077162, 50.753980864586104],
            [-1.9925007471579814, 50.75389121277223],
            [-1.9908013201278147, 50.75374776987004],
            [-1.9885920649885982, 50.754106377125524],
            [-1.988252179582565, 50.75407051639998],
            [-1.9840036120071485, 50.74998239368744],
            [-1.9837770217364594, 50.74998239368744],
            [-1.9830406033567207, 50.750412722394024],
            [-1.982077594706293, 50.75019755804073],
            [-1.9803781676761263, 50.75005411513854],
            [-1.9802365487569458, 50.74992860259912],
            [-1.9813695001103901, 50.747095605280784],
            [-1.9816810617325873, 50.74704181419246],
            [-1.9822758611931457, 50.746521833672006],
            [-1.9819926233547847, 50.74634253004427],
            [-1.9819359757871124, 50.74594806206323],
            [-1.9824741276799984, 50.74546394226832],
            [-1.9828140130860317, 50.74542808154278],
            [-1.9835504314657706, 50.74564324589607],
            [-1.9838619930879677, 50.74551773335665],
            [-1.9828423368698678, 50.745159126101164],
            [-1.9827856893021956, 50.745015683198964],
            [-1.9832955174112457, 50.744441911590194],
            [-1.982332508760818, 50.74408330433471],
            [-1.98238915632849, 50.74343781127483],
            [-1.9827007179506873, 50.743276438009865],
            [-1.9831538984920651, 50.74338402018651],
            [-1.9836070790334428, 50.743276438009865],
            [-1.9852498584959373, 50.74356332381425],
            [-1.9863544860655455, 50.74193166080179],
            [-1.9871475520129567, 50.739887599445524],
            [-1.9866943714715788, 50.73967243509223],
            [-1.9860995720110206, 50.73908073312069],
            [-1.984400144980854, 50.73929589747397],
            [-1.9821908898416374, 50.73915245457178],
            [-1.9762995428037264, 50.73818421498197],
            [-1.9752232390179543, 50.73818421498197],
            [-1.9719376800929656, 50.738542822237456],
            [-1.9702382530627989, 50.738614543688556],
            [-1.9699266914406017, 50.73838144897249],
            [-1.9697850725214212, 50.738004911354224],
            [-1.9688220638709935, 50.73793318990313],
            [-1.9685388260326324, 50.7375387219221],
            [-1.9678024076528935, 50.737502861196546],
            [-1.9675191698145325, 50.73725183611771],
            [-1.9662729233257434, 50.73692908958777],
            [-1.9660746568388907, 50.7366959948717],
            [-1.9663578946772517, 50.73630152689067],
            [-1.965876390352038, 50.73592498927241],
            [-1.9639503730511825, 50.735889128546866],
            [-1.9619110606149825, 50.73545879984028],
            [-1.9617127941281298, 50.735225705124215],
            [-1.9623359173725243, 50.73422160480886],
            [-1.9618827368311464, 50.73404230118111],
            [-1.9618260892634742, 50.73382713682782],
            [-1.9622226222371797, 50.7331457830424],
            [-1.96120296601908, 50.73253615070807],
            [-1.9613729087220966, 50.732249264903686],
            [-1.9611746422352436, 50.73212375236427],
            [-1.9606081665585215, 50.73241063816865],
            [-1.9603249287201605, 50.73241063816865],
            [-1.9593619200697328, 50.73205203091317],
            [-1.9590786822313715, 50.73162170220659],
            [-1.9583422638516328, 50.73162170220659],
            [-1.9574925503365495, 50.73180100583433],
            [-1.9566994843891383, 50.73223133454091],
            [-1.9561330087124162, 50.73226719526646],
            [-1.9539237535731995, 50.731406537853296],
            [-1.9537538108701828, 50.73154998075549],
            [-1.9533572778964774, 50.731585841481035],
            [-1.952989068706608, 50.73142446821607],
            [-1.952790802219755, 50.73115551277446],
            [-1.9510913751895886, 50.730689323342325],
            [-1.9474659308585665, 50.72986452665471],
            [-1.9446335524749554, 50.72936247649703],
            [-1.926449683252173, 50.72832251545612],
            [-1.9250901416280397, 50.72810735110283],
            [-1.9248069037896784, 50.72817907255393],
            [-1.9243537232483008, 50.72792804747509],
            [-1.9229941816241676, 50.7276411616707],
            [-1.9228525627049868, 50.727372206229084],
            [-1.9222011156767564, 50.72710325078747],
            [-1.9216912875677064, 50.727174972238565],
            [-1.921351402161673, 50.726995668610826],
            [-1.9207282789172786, 50.72710325078747],
            [-1.9201051556728843, 50.726995668610826],
            [-1.920020184321376, 50.72676257389476],
            [-1.920813250268787, 50.72647568809037],
            [-1.9203883935112454, 50.72591984684437],
            [-1.9195953275638342, 50.72642189700205],
            [-1.9191987945901288, 50.7263860362765],
            [-1.9189155567517677, 50.72663706135534],
            [-1.9185756713457343, 50.72667292208089],
            [-1.910531716736279, 50.72491574652901],
            [-1.9100785361949013, 50.72441369637133],
            [-1.9091155275444736, 50.72416267129249],
            [-1.9086056994354237, 50.72437783564578],
            [-1.9080958713263736, 50.72437783564578],
            [-1.9062831491608625, 50.723983367664744],
            [-1.9058016448356487, 50.72371441222313],
            [-1.9061981778093542, 50.72045108619822],
            [-1.9075010718658154, 50.716004356230194],
            [-1.9060848826740098, 50.714713370110445],
            [-1.9057449972679765, 50.714139598501674],
            [-1.905121874023582, 50.71385271269728],
            [-1.9043854556438433, 50.71295619455857],
            [-1.9037340086156127, 50.712507935489214],
            [-1.9033657994257434, 50.71241828367534],
            [-1.9025727334783322, 50.711270740457785],
            [-1.900703363745149, 50.70947770418036],
            [-1.900703363745149, 50.70919081837597],
            [-1.902034581585446, 50.70885014148326],
            [-1.9045270745630238, 50.70795362334455],
            [-1.913080857281529, 50.70418824716195],
            [-1.913845599445104, 50.70377584881814],
            [-1.914100513499629, 50.70347103265098],
            [-1.9149502270147123, 50.70332758974879],
            [-1.9150918459338928, 50.70309449503272],
            [-1.9157432929621234, 50.702717957414464],
            [-1.9173294248569455, 50.70218004653123],
            [-1.9177826053983233, 50.701606274922455],
            [-1.9189155567517677, 50.701175946215876],
            [-1.9191421470224566, 50.70081733896039],
            [-1.9212664308101648, 50.6998311690078],
            [-1.9212097832424926, 50.69965186538006],
            [-1.9214646972970175, 50.699418770663996],
            [-1.9237589237877424, 50.69832501853477],
            [-1.9235323335170535, 50.698109854181475],
            [-1.923673952436234, 50.6979484809165],
            [-1.9244670183836452, 50.69780503801431],
            [-1.9256282935209257, 50.69710575386611],
            [-1.9283473767691923, 50.69488238888211],
            [-1.9307832221790977, 50.69334037768352],
            [-1.9312930502881478, 50.69280246680029],
            [-1.9331624200213309, 50.691619062857185],
            [-1.9367312167846809, 50.688499179734464],
            [-1.9371843973260585, 50.68796126885123],
            [-1.9376942254351086, 50.68771024377239],
            [-1.9376942254351086, 50.687530940144654],
            [-1.9384023200310112, 50.68729784542859],
            [-1.9387705292208808, 50.68692130781033],
            [-1.940130070845014, 50.68613237184826],
            [-1.940866489224753, 50.685271714435096],
            [-1.9424242973357388, 50.6845724302869],
            [-1.9430474205801334, 50.68403451940367],
            [-1.9436138962568554, 50.68403451940367],
            [-1.9447468476103, 50.68374763359928],
            [-1.9466728649111553, 50.68295869763721],
            [-1.9500150714038165, 50.68034086467217],
            [-1.9666694562994491, 50.678440246218095]
          ]
        ]
      }
    },
    {
      "type": "Feature",
      "properties": {
        "CATCHMENT_NAME": "St Aldhelm's Academy catchment",
        "SCHOOL_URN": 136206,
        "SCHOOL_NAME": "St Aldhelm's Academy"
      },
      "geometry": {
        "type": "Polygon",
        "coordinates": [
          [
            [-1.9196206139633416, 50.7331189260863],
            [-1.9197087859001567, 50.7331189260863],
            [-1.919914520419392, 50.73320261967403],
            [-1.9200761689702197, 50.733193320386505],
            [-1.9201937315526398, 50.733258415399185],
            [-1.9207374584963328, 50.733379306137024],
            [-1.9208991070471604, 50.7333700068495],
            [-1.9210093219681794, 50.7332444664679],
            [-1.9210901462435932, 50.733221218249085],
            [-1.9214722246364586, 50.73336070756197],
            [-1.9218102170609164, 50.733416503287124],
            [-1.9219351273047378, 50.73351414580615],
            [-1.9219865609345466, 50.7336582847628],
            [-1.9259542980912256, 50.73452311850269],
            [-1.926020427043837, 50.73449057099636],
            [-1.9261012513192508, 50.734365030614754],
            [-1.9263951577753011, 50.734392928477334],
            [-1.9265200680191223, 50.73433248310842],
            [-1.9265861969717337, 50.734206942726814],
            [-1.9269535800417967, 50.73412324913909],
            [-1.927225443513643, 50.73454636672151],
            [-1.9272107481908407, 50.734592863159136],
            [-1.9270637949628155, 50.734657958171816],
            [-1.927100533269822, 50.73468120639063],
            [-1.927423830371477, 50.734699804965686],
            [-1.9275413929538971, 50.73478349855342],
            [-1.927761822795935, 50.73471840354074],
            [-1.9278352994099475, 50.73472770282826],
            [-1.9279234713467626, 50.734802097128465],
            [-1.9282394207870166, 50.73489044035996],
            [-1.9282247254642142, 50.735002031810275],
            [-1.9282614637712205, 50.735025280029085],
            [-1.9284818936132582, 50.73504387860414],
            [-1.9285553702272709, 50.735090375041764],
            [-1.9290844018481612, 50.735211265779604],
            [-1.9291284878165689, 50.735248462929704],
            [-1.9295987381462494, 50.73532285722991],
            [-1.936696579059864, 50.735713427305996],
            [-1.9385334944101784, 50.7358250187563],
            [-1.9391066119994764, 50.73589011376899],
            [-1.9407671834761606, 50.73619699025733],
            [-1.9423689736616347, 50.736568961758366],
            [-1.9431037398017605, 50.73678284537146],
            [-1.9433241696437984, 50.73681074323404],
            [-1.9433609079508045, 50.73688048789048],
            [-1.943316821982397, 50.736936283615634],
            [-1.9433976462578109, 50.736978130409504],
            [-1.9435299041630336, 50.73687583824672],
            [-1.943603380777046, 50.73686653895919],
            [-1.9447790066012474, 50.737322204047956],
            [-1.9448671785380625, 50.73728500689786],
            [-1.94497004579768, 50.737294306185376],
            [-1.9451831279783165, 50.73717806509131],
            [-1.9452198662853228, 50.737108320434864],
            [-1.945396210158953, 50.737108320434864],
            [-1.9458664604886333, 50.73700602827208],
            [-1.9463661014639189, 50.73698742969703],
            [-1.9464322304165302, 50.737029276490894],
            [-1.9464616210621353, 50.73722456152893],
            [-1.946909828407612, 50.73740589763569],
            [-1.9471890395408598, 50.73723851046022],
            [-1.9472772114776749, 50.73723851046022],
            [-1.94748294599691, 50.73733150333548],
            [-1.9477988954371641, 50.73714086794121],
            [-1.9479825869721956, 50.73696883112198],
            [-1.9482030168142332, 50.73687583824672],
            [-1.948283841089647, 50.73690838575306],
            [-1.9481662785072271, 50.73741984656698],
            [-1.9481148448774182, 50.737452394073316],
            [-1.9478503290669729, 50.73746169336084],
            [-1.9477474618073554, 50.737508189798476],
            [-1.9474902936583114, 50.73755003659234],
            [-1.9475711179337252, 50.73760118267373],
            [-1.9477474618073554, 50.73761978124878],
            [-1.9477988954371641, 50.737652328755125],
            [-1.9477988954371641, 50.73772672305533],
            [-1.9479752393107943, 50.737819715930584],
            [-1.9479164580195842, 50.737949905955944],
            [-1.9479458486651893, 50.73798710310605],
            [-1.947769504791559, 50.73823818386925],
            [-1.9480119776178006, 50.73831722781321],
            [-1.948048715924807, 50.73836837389461],
            [-1.9477254188231516, 50.73891703185863],
            [-1.947967891649393, 50.738996075802596],
            [-1.9480046299563993, 50.73903792259647],
            [-1.9479311533423869, 50.73913091547172],
            [-1.9478503290669729, 50.739154163690536],
            [-1.947512336642515, 50.73905187152775],
            [-1.947394774060095, 50.73920066012816],
            [-1.9472037348636624, 50.73920066012816],
            [-1.947166996556656, 50.73922390834698],
            [-1.9474021217214963, 50.73934479908481],
            [-1.9474021217214963, 50.73940059480997],
            [-1.9470347386514333, 50.73968887272327],
            [-1.946740832195383, 50.74003294636172],
            [-1.947049433974236, 50.74017243567461],
            [-1.9470347386514333, 50.74022823139976],
            [-1.9464175350937278, 50.7403491221376],
            [-1.9465791836445554, 50.74057230503822],
            [-1.9469465667146182, 50.74073039292616],
            [-1.947137605911051, 50.74088848081409],
            [-1.9472110825250635, 50.74100937155193],
            [-1.9471743442180574, 50.741051218345795],
            [-1.9466306172743642, 50.74119070765868],
            [-1.9465057070305427, 50.741325547327804],
            [-1.9457268549220095, 50.74177191312904],
            [-1.9454329484659592, 50.742013694604715],
            [-1.9450655653958964, 50.74245076111843],
            [-1.941141914207625, 50.7482814143971],
            [-1.940546753634123, 50.74957866500694],
            [-1.9403851050832954, 50.749597263582],
            [-1.9395621670063545, 50.749541467856844],
            [-1.9389449634486489, 50.749448474981584],
            [-1.9386804476382036, 50.749448474981584],
            [-1.9384012365049559, 50.74941127783148],
            [-1.9381367206945106, 50.749327584243744],
            [-1.9371668293895445, 50.74920669350591],
            [-1.9367994463194818, 50.74921599279344],
            [-1.9367480126896728, 50.749276438162354],
            [-1.9367039267212653, 50.749527518925554],
            [-1.936608407123049, 50.74956006643189],
            [-1.9343453274114617, 50.749002109180346],
            [-1.9314062628509587, 50.747653712489104],
            [-1.925910212122818, 50.745310292032606],
            [-1.9240879920953062, 50.74497551768168],
            [-1.9225890691694496, 50.744650042618275],
            [-1.913580836291508, 50.743004068726215],
            [-1.9132648868512538, 50.74287852834461],
            [-1.9128754607969873, 50.7425298050624],
            [-1.9125080777269243, 50.74241821361209],
            [-1.9122803002234854, 50.74228337394296],
            [-1.9123390815146954, 50.742208979642754],
            [-1.9128019841829746, 50.74198114709838],
            [-1.9133310158038652, 50.74161847488487],
            [-1.914837286391123, 50.74080478722637],
            [-1.914925458327938, 50.74060950218832],
            [-1.9149695442963457, 50.74032122427502],
            [-1.9152193647839884, 50.7398097634611],
            [-1.9157924823732866, 50.73941919338502],
            [-1.9165272485134122, 50.73824748315677],
            [-1.9171297567483154, 50.73792200809337],
            [-1.9174383585271682, 50.73750354015471],
            [-1.917952694825256, 50.736545713539556],
            [-1.9185698983829618, 50.73569017908718],
            [-1.9185552030601594, 50.7356250840745],
            [-1.9188785001618147, 50.73502992967285],
            [-1.9190254533898399, 50.734936936797595],
            [-1.9189813674214322, 50.734843943922336],
            [-1.9193928364599027, 50.73458356387161],
            [-1.9192532308932788, 50.73453241779022],
            [-1.91920179726347, 50.73446267313378],
            [-1.9194957037195204, 50.734090701632745],
            [-1.9195544850107304, 50.7332444664679],
            [-1.9195691803335329, 50.73315147359264],
            [-1.9196206139633416, 50.7331189260863]
          ]
        ]
      }
    },
    {
      "type": "Feature",
      "properties": {
        "CATCHMENT_NAME": "The Grange School catchment",
        "SCHOOL_URN": 141378,
        "SCHOOL_NAME": "The Grange School"
      },
      "geometry": {
        "type": "Polygon",
        "coordinates": [
          [
            [-1.7708783566149444, 50.73481186649237],
            [-1.7710781012809311, 50.734854001162866],
            [-1.771477590612905, 50.73542703268163],
            [-1.7716640189678259, 50.73632028769616],
            [-1.7717572331452864, 50.736429837839445],
            [-1.7721833550993917, 50.736632084257835],
            [-1.7724896302539048, 50.73611804127777],
            [-1.7730622316297338, 50.735974783398085],
            [-1.7741674854481944, 50.73684275761032],
            [-1.7743006485588522, 50.73797196677963],
            [-1.774633556335497, 50.738300617209504],
            [-1.7754059023773128, 50.738435448155094],
            [-1.7758320243314178, 50.738570279100685],
            [-1.7761649321080626, 50.73900005273975],
            [-1.776844063972418, 50.739227579960435],
            [-1.7779360014798127, 50.73921072609223],
            [-1.7782555929453916, 50.73969948827],
            [-1.7789746737429442, 50.73976690374279],
            [-1.7794940098745098, 50.739977577095274],
            [-1.779414112008115, 50.74043263153664],
            [-1.779041255298273, 50.74068543955962],
            [-1.7789347248097467, 50.740803416637014],
            [-1.7789347248097467, 50.740938247582605],
            [-1.7799467644507467, 50.74188206420173],
            [-1.7799733970728784, 50.74210116448831],
            [-1.7800799275614045, 50.742219141565705],
            [-1.7800532949392731, 50.742842734689056],
            [-1.7801598254277993, 50.743095542712034],
            [-1.7800799275614045, 50.74343262007601],
            [-1.780372886404852, 50.744056213199364],
            [-1.780692477870431, 50.744511267640725],
            [-1.7807191104925626, 50.7449157604775],
            [-1.7814115586679835, 50.74564047681004],
            [-1.7820507415991413, 50.745994408042215],
            [-1.7824369146200492, 50.746356766208486],
            [-1.7826233429749703, 50.746323058472086],
            [-1.7827431897745625, 50.74638204701078],
            [-1.7827431897745625, 50.74670227050656],
            [-1.7824235983089836, 50.747544963916496],
            [-1.7821839047097994, 50.74781462580767],
            [-1.7817178338224966, 50.74810956850115],
            [-1.7813982423569177, 50.748160130105745],
            [-1.7803862027159179, 50.74810956850115],
            [-1.7794806935634442, 50.74797473755556],
            [-1.7781490624568652, 50.74768822179618],
            [-1.7776963078806283, 50.74772192953258],
            [-1.777336767481852, 50.747898895148666],
            [-1.777283502237589, 50.74815170317165],
            [-1.7774432979703785, 50.74835394959003],
            [-1.7794673772523784, 50.74948315875935],
            [-1.7796271729851678, 50.74968540517773],
            [-1.7796271729851678, 50.74982023612332],
            [-1.7794940098745098, 50.7500224825417],
            [-1.7788947758765494, 50.75038484070797],
            [-1.7771769717490626, 50.75116854557922],
            [-1.7769905433941415, 50.7513876458658],
            [-1.7769639107720099, 50.75165730775698],
            [-1.7770704412605363, 50.751842700307165],
            [-1.77721692068226, 50.751935396582255],
            [-1.7777762057470232, 50.75208708139605],
            [-1.7806525289372335, 50.75200281205505],
            [-1.781504772845444, 50.752205058473436],
            [-1.7820374252880755, 50.75247472036462],
            [-1.7828763528852203, 50.75297190947648],
            [-1.7833024748393256, 50.75344381778604],
            [-1.7833557400835887, 50.75452246535076],
            [-1.7831959443507992, 50.7552640355515],
            [-1.7828230876409572, 50.755786505465665],
            [-1.7824768635532466, 50.75612358282964],
            [-1.781504772845444, 50.75668818741429],
            [-1.7806791615593651, 50.75687357996448],
            [-1.7785485517888389, 50.75697470317367],
            [-1.7777495731248916, 50.75710953411926],
            [-1.777456614281444, 50.75721065732845],
            [-1.7763779930851153, 50.7578763851223],
            [-1.77595187113101, 50.758314585695466],
            [-1.7757121775318259, 50.75868537079584],
            [-1.7752327903334575, 50.75908986363261],
            [-1.774247383314589, 50.75964604128316],
            [-1.7741941180703258, 50.75998311864714],
            [-1.7738478939826154, 50.760421319220306],
            [-1.7736348330055627, 50.760876373661674],
            [-1.7736614656276943, 50.761634797730615],
            [-1.7737946287383521, 50.76202243669918],
            [-1.774114220203931, 50.76252805274515],
            [-1.773688098249826, 50.76328647681409],
            [-1.773554935139168, 50.76374153125545],
            [-1.7738212613604838, 50.764162877960416],
            [-1.7744604442916416, 50.764786471083774],
            [-1.7751528924670628, 50.7657471415711],
            [-1.7755656981101022, 50.76602523039637],
            [-1.77620488104126, 50.76619376907836],
            [-1.776271462596589, 50.76632017308985],
            [-1.7760850342416679, 50.76670781205842],
            [-1.7757787590871548, 50.76693533927911],
            [-1.7755923307322337, 50.76690163154271],
            [-1.7747667194461547, 50.76745780919327],
            [-1.7745270258469705, 50.76742410145687],
            [-1.7733285578510496, 50.76814881778941],
            [-1.7691605524874576, 50.76972465446599],
            [-1.7701725921284577, 50.77117408713108],
            [-1.7701725921284577, 50.77164599544064],
            [-1.7703590204833786, 50.77247183498238],
            [-1.7682417270239181, 50.77325553985362],
            [-1.7681085639132603, 50.77325553985362],
            [-1.767682441959155, 50.77291846248965],
            [-1.7658447910320763, 50.77382857137238],
            [-1.7631815288189183, 50.775042049882686],
            [-1.7606247970942868, 50.77639035933858],
            [-1.7583876568352343, 50.77767125332168],
            [-1.7581479632360502, 50.77775552266267],
            [-1.757961534881129, 50.77797462294926],
            [-1.7570027604843923, 50.77831170031323],
            [-1.7565500059081554, 50.77844653125882],
            [-1.7549520485802608, 50.77856450833621],
            [-1.7538334784507343, 50.778716193150004],
            [-1.7522355211228398, 50.778817316359195],
            [-1.7498119525088662, 50.77942405561435],
            [-1.7494923610432873, 50.77949147108714],
            [-1.7490928717113134, 50.77949147108714],
            [-1.7487333313125373, 50.77929765160285],
            [-1.7483871072248267, 50.77896057423888],
            [-1.7472685370953005, 50.77783136506957],
            [-1.7461765995879057, 50.77646620174547],
            [-1.7458037428780637, 50.77624710145889],
            [-1.7458037428780637, 50.7761459782497],
            [-1.7468024662079977, 50.77554766592864],
            [-1.7479743015817872, 50.77512631922367],
            [-1.7482938930473662, 50.77512631922367],
            [-1.748360474602695, 50.77508418455318],
            [-1.7473750675838267, 50.77439317595703],
            [-1.7470554761182477, 50.77408980632946],
            [-1.7466826194084057, 50.7735673364153],
            [-1.746349711631761, 50.77330610145822],
            [-1.7459502222997874, 50.77312070890803],
            [-1.7452311415022348, 50.77313756277623],
            [-1.7448716011034584, 50.77307857423753],
            [-1.7447917032370637, 50.77282576621455],
            [-1.744019357195248, 50.77181453412263],
            [-1.743832928840327, 50.77130891807667],
            [-1.7436198678632742, 50.77115723326288],
            [-1.7435932352411427, 50.7709718407127],
            [-1.7432203785313005, 50.77049993240313],
            [-1.7428741544435902, 50.76984263154338],
            [-1.7428475218214585, 50.7696572389932],
            [-1.742128441023906, 50.76871342237407],
            [-1.74135609498209, 50.76739882065457],
            [-1.7412761971156954, 50.76714601263159],
            [-1.7406370141845375, 50.76648871177184],
            [-1.7401576269861692, 50.76576399543929],
            [-1.7397315050320639, 50.76535950260253],
            [-1.7397048724099322, 50.76460107853359],
            [-1.7391189547230375, 50.76365726191446],
            [-1.7389857916123796, 50.763269622945884],
            [-1.7390523731677086, 50.7630589495934],
            [-1.739917933386985, 50.76269659142713],
            [-1.7400510964976428, 50.76161794386241],
            [-1.7401842596083006, 50.76123030489384],
            [-1.7401576269861692, 50.760910081398066],
            [-1.740916656716919, 50.760716261913785],
            [-1.7417023190698007, 50.76033704987931],
            [-1.7414359928484848, 50.75856739371845],
            [-1.7418621148025901, 50.75819660861808],
            [-1.7417822169361954, 50.75733706133994],
            [-1.741995277913248, 50.756679760480196],
            [-1.7424080835562874, 50.75648594099591],
            [-1.7443788975940242, 50.756148863631935],
            [-1.7446585401264059, 50.75605616735684],
            [-1.7444987443936164, 50.7552977432879],
            [-1.744445479149353, 50.75406741090939],
            [-1.744338948660827, 50.75362921033623],
            [-1.744019357195248, 50.753258425235856],
            [-1.7436465004854058, 50.75300561721288],
            [-1.743566602619011, 50.75275280918989],
            [-1.7436731331075375, 50.75231460861673],
            [-1.7434867047526164, 50.751876408043564],
            [-1.7435932352411427, 50.75165730775698],
            [-1.7435399699968794, 50.75125281492021],
            [-1.7436465004854058, 50.75086517595164],
            [-1.7435399699968794, 50.7500561902781],
            [-1.7431537969759716, 50.74984551692562],
            [-1.7426744097776032, 50.74972753984823],
            [-1.7422882367566954, 50.74929776620916],
            [-1.7426344608444058, 50.748859565635996],
            [-1.743060582798511, 50.74853934214022],
            [-1.7432203785313005, 50.74826968024904],
            [-1.744338948660827, 50.74719103268432],
            [-1.7443655812829584, 50.74631463153799],
            [-1.7409432893390506, 50.745176995434576],
            [-1.7404372695185506, 50.74473879486141],
            [-1.7377740073053929, 50.743626439560295],
            [-1.7367619676643928, 50.743137677382535],
            [-1.7367486513533272, 50.74302812723924],
            [-1.7380669661488402, 50.74210959142241],
            [-1.7390523731677086, 50.742092737554216],
            [-1.7399578823201822, 50.7422275684998],
            [-1.740916656716919, 50.74266576907297],
            [-1.7426211445333402, 50.74167139084925],
            [-1.744085938750577, 50.741098359330486],
            [-1.7441658366169717, 50.7410140899895],
            [-1.7442191018612347, 50.74104779772589],
            [-1.745524100345682, 50.74059274328453],
            [-1.747734607982603, 50.739750049874594],
            [-1.749119504333445, 50.73907589514665],
            [-1.7522621537449714, 50.73779500116354],
            [-1.7535138869851554, 50.737390508326776],
            [-1.7574821476827607, 50.73631186076206],
            [-1.7584409220794974, 50.73612646821187],
            [-1.7597459205639447, 50.73602534500268],
            [-1.7604117361172342, 50.73589051405709],
            [-1.761929795578734, 50.735806244716095],
            [-1.7642202010820498, 50.735839952452494],
            [-1.765924688898471, 50.7357219753751],
            [-1.766803565428813, 50.73550287508852],
            [-1.7680286660468656, 50.735351190274734],
            [-1.7708783566149444, 50.73481186649237]
          ]
        ]
      }
    },
    {
      "type": "Feature",
      "properties": {
        "CATCHMENT_NAME": "Twynham School catchment",
        "SCHOOL_URN": 136649,
        "SCHOOL_NAME": "Twynham School"
      },
      "geometry": {
        "type": "Polygon",
        "coordinates": [
          [
            [-1.7797156400328937, 50.72935389397295],
            [-1.7803390475790661, 50.72935389397295],
            [-1.7829989197760683, 50.73003782048978],
            [-1.7836638878253188, 50.730116735087876],
            [-1.7848275819115071, 50.73003782048978],
            [-1.7860743970038517, 50.72953802803517],
            [-1.7866978045500241, 50.72938019883898],
            [-1.7876952566239, 50.72935389397295],
            [-1.7884017851762286, 50.729564332901205],
            [-1.7927656379994352, 50.73024825941803],
            [-1.7937630900733108, 50.730563917810414],
            [-1.7943657173679441, 50.73094533836788],
            [-1.794573519883335, 50.73126099676026],
            [-1.7946150803864132, 50.73155035028662],
            [-1.7944903988771785, 50.73173448434884],
            [-1.7940124530917798, 50.731984380576144],
            [-1.7926409564902006, 50.73182655137995],
            [-1.7917889661770985, 50.732365801133604],
            [-1.7916642846678639, 50.73294450818631],
            [-1.7920798896986456, 50.73378626389933],
            [-1.7933267047909902, 50.73452280014823],
            [-1.7937838703248499, 50.735048897468864],
            [-1.7937838703248499, 50.73549608019141],
            [-1.7932020232817558, 50.73644305536856],
            [-1.794054013594858, 50.73698230512221],
            [-1.7947605421471866, 50.73706121972031],
            [-1.795113806423351, 50.73725850621555],
            [-1.795404729944898, 50.737626774339994],
            [-1.7958618954787577, 50.738678968981276],
            [-1.79671388579186, 50.739218218734926],
            [-1.7981685033995956, 50.73884995061048],
            [-1.7990412739642367, 50.73887625547651],
            [-1.8001634075473472, 50.73916560900287],
            [-1.8014102226396917, 50.73919191386889],
            [-1.802823279744349, 50.739612791725406],
            [-1.803592149051295, 50.74025726094319],
            [-1.8037168305605296, 50.74052030960351],
            [-1.8046103813767098, 50.741085864223194],
            [-1.805441591438273, 50.74084912042891],
            [-1.8057740754628984, 50.74084912042891],
            [-1.8066052855244614, 50.741191083687326],
            [-1.8071871325675557, 50.74126999828542],
            [-1.8081845846414315, 50.74190131507019],
            [-1.8087248711814474, 50.741743485874],
            [-1.8108028963353553, 50.74176979074003],
            [-1.8112185013661368, 50.74200653453431],
            [-1.8119250299184655, 50.74208544913241],
            [-1.8154161121770307, 50.743058729175594],
            [-1.8156862554470388, 50.743308625402896],
            [-1.8156031344408825, 50.7438873324556],
            [-1.81497972689471, 50.74436082004417],
            [-1.815187529410101, 50.745018441694974],
            [-1.8151459689070226, 50.7457812828099],
            [-1.8153537714224135, 50.74599172173816],
            [-1.8153537714224135, 50.747228050441656],
            [-1.8150628479008664, 50.74793828182452],
            [-1.8151044084039445, 50.748332854815],
            [-1.815478452931648, 50.74906939106389],
            [-1.8163512234962893, 50.749753317580726],
            [-1.8166421470178364, 50.75017419543723],
            [-1.8168915100363052, 50.751147475480415],
            [-1.8167668285270708, 50.751699877667086],
            [-1.816849949533227, 50.751936621461375],
            [-1.8171824335578524, 50.752225974987724],
            [-1.8174317965763214, 50.75319925503091],
            [-1.817036971797079, 50.7536858950525],
            [-1.8158732777108906, 50.75394894371282],
            [-1.8148550453854757, 50.75456710806457],
            [-1.8158940579624296, 50.75519842484934],
            [-1.815977178968586, 50.75567191243791],
            [-1.8167668285270708, 50.75627692435665],
            [-1.8168915100363052, 50.75653997301696],
            [-1.8177435003494076, 50.75707922277062],
            [-1.8187825129263615, 50.757394881163],
            [-1.819405920472534, 50.75778945415348],
            [-1.8211930221048946, 50.75723705196681],
            [-1.8238944548049747, 50.75713183250269],
            [-1.8262634034804297, 50.75713183250269],
            [-1.828175186622025, 50.75734227143094],
            [-1.8325390394452314, 50.7574737957611],
            [-1.8337858545375763, 50.757973588215705],
            [-1.835365153654546, 50.758368161206185],
            [-1.8368197712622816, 50.75886795366079],
            [-1.8384406308823298, 50.75997275803414],
            [-1.8393549619500493, 50.760262111560486],
            [-1.8398536879869871, 50.76057776995287],
            [-1.8421395156562859, 50.76115647700557],
            [-1.8436980345217167, 50.76253748247225],
            [-1.8436980345217167, 50.763010970060826],
            [-1.8429499454663099, 50.76351076251543],
            [-1.8428252639570752, 50.76411577443417],
            [-1.8436980345217167, 50.76506274961132],
            [-1.8439889580432638, 50.765746676128146],
            [-1.8450695311232959, 50.76640429777895],
            [-1.845360454644843, 50.766772565903395],
            [-1.8454020151479211, 50.767219748625934],
            [-1.8452773336386865, 50.76750910215229],
            [-1.8446954865955925, 50.767956284874835],
            [-1.8455474769086946, 50.768495534628485],
            [-1.84700209451643, 50.76878488815484],
            [-1.8476878428172197, 50.769218918444366],
            [-1.8481034478480014, 50.76971871089897],
            [-1.848020326841845, 50.770139588755484],
            [-1.8477709638233761, 50.770455247147865],
            [-1.8479372058356887, 50.77090242987041],
            [-1.850638638535769, 50.77263855102852],
            [-1.850680199038847, 50.772822685090745],
            [-1.8514282880942539, 50.773296172679316],
            [-1.8511373645727067, 50.77837301182348],
            [-1.8509919028119333, 50.77851768858666],
            [-1.840061490502378, 50.78022750487874],
            [-1.8391263791831194, 50.78079305949842],
            [-1.8404563152816205, 50.7843179115467],
            [-1.8426174614416846, 50.789368445824834],
            [-1.8423888786747546, 50.78951312258801],
            [-1.838773114906955, 50.78990769557849],
            [-1.8379211245938527, 50.79044694533215],
            [-1.8375470800661493, 50.792051542160095],
            [-1.8367574305076644, 50.79347200492582],
            [-1.8354690549122414, 50.794629419031224],
            [-1.8318117306413637, 50.79686533264394],
            [-1.830273992027472, 50.79807535648141],
            [-1.829214199198979, 50.79908809382364],
            [-1.822398276694161, 50.79822003324459],
            [-1.8203618120433314, 50.7979832894503],
            [-1.819405920472534, 50.7979832894503],
            [-1.8184500289017362, 50.79782546025411],
            [-1.8176603793432513, 50.79758871645982],
            [-1.8173694558217042, 50.7974045823976],
            [-1.816829169281688, 50.79729936293347],
            [-1.81362901054467, 50.79579998556965],
            [-1.8117172274030748, 50.795510632043296],
            [-1.8080183426291188, 50.7974045823976],
            [-1.8076442981014154, 50.797483496995696],
            [-1.805400030935195, 50.795984119631875],
            [-1.8045272603705536, 50.795905205033776],
            [-1.8039246330759202, 50.79570791853854],
            [-1.8046727221313272, 50.79507660175377],
            [-1.8036544898059124, 50.794405827669955],
            [-1.8016595856581608, 50.79437952280392],
            [-1.8010777386150665, 50.79414277900963],
            [-1.800890716351215, 50.79391918764836],
            [-1.8010569583635274, 50.79360352925598],
            [-1.8015764646520045, 50.793379937894706],
            [-1.801950509179708, 50.79332732816265],
            [-1.8037168305605296, 50.792288285954385],
            [-1.8034674675420606, 50.791972627562],
            [-1.8026154772289584, 50.791433377808346],
            [-1.8016180251550826, 50.79169642646866],
            [-1.801202420124301, 50.79169642646866],
            [-1.8009738373573712, 50.79155174970549],
            [-1.8009738373573712, 50.79115717671501],
            [-1.8012232003758402, 50.790788908590564],
            [-1.8023453339589504, 50.7900786772077],
            [-1.801472563394309, 50.78871082417404],
            [-1.8012232003758402, 50.78776384899689],
            [-1.8008491558481368, 50.78715883707815],
            [-1.8002673088050425, 50.786632739757515],
            [-1.7986256689334552, 50.785620002415286],
            [-1.7979607008842047, 50.78559369754925],
            [-1.7975866563565013, 50.78567261214735],
            [-1.7969216883072507, 50.7860408802718],
            [-1.7965060832764692, 50.78614609973592],
            [-1.7962982807610786, 50.78614609973592],
            [-1.7959450164849142, 50.78594881324069],
            [-1.7956956534664452, 50.7856331548483],
            [-1.7957787744726015, 50.785212276991786],
            [-1.7973996340926497, 50.78416008235051],
            [-1.797524315601884, 50.78392333855622],
            [-1.796672325288782, 50.78338408880257],
            [-1.7958826757302968, 50.78319995474035],
            [-1.7954878509510543, 50.782950058513045],
            [-1.795155366926429, 50.782555485522565],
            [-1.7942618161102488, 50.781989930902874],
            [-1.7937630900733108, 50.78204254063494],
            [-1.7929734405148259, 50.78251602822351],
            [-1.7925162749809662, 50.782542333089545],
            [-1.792183790956341, 50.78246341849145],
            [-1.7918305266801766, 50.78205569306795],
            [-1.7914980426555513, 50.78084566923049],
            [-1.7909577561155352, 50.78005652324953],
            [-1.7899810842931987, 50.77943835889778],
            [-1.7888589507100883, 50.779017481041265],
            [-1.7882771036669942, 50.77891226157714],
            [-1.7878822788877518, 50.778636060483805],
            [-1.7878822788877518, 50.77837301182348],
            [-1.7885888074400804, 50.77779430477078],
            [-1.788755049452393, 50.776663195531405],
            [-1.7891914347347135, 50.7764132993041],
            [-1.789856402783964, 50.77630807983997],
            [-1.7907083930970664, 50.77576883008632],
            [-1.790334348569363, 50.77479555004314],
            [-1.7894823582562607, 50.77425630028948],
            [-1.788235543163916, 50.77436151975361],
            [-1.7878822788877518, 50.77411162352631],
            [-1.7878822788877518, 50.77390118459805],
            [-1.7881316419062205, 50.77350661160757],
            [-1.7891290939800963, 50.7728752948228],
            [-1.7894200175016435, 50.77213875857391],
            [-1.790084985550894, 50.77161266125327],
            [-1.7892329952377917, 50.771073411499614],
            [-1.7885680271885414, 50.77104710663359],
            [-1.787736817126978, 50.770521009312944],
            [-1.787445893605431, 50.77049470444691],
            [-1.7872173108385012, 50.770297417951674],
            [-1.787716036875439, 50.769061089248176],
            [-1.788796609955471, 50.76774584594658],
            [-1.7887134889493148, 50.76724605349197],
            [-1.7883394444216114, 50.76679887076943],
            [-1.786905607065415, 50.765812438293224],
            [-1.7859912759976955, 50.76539156043672],
            [-1.7852016264392105, 50.76586504802529],
            [-1.7843288558745691, 50.76589135289132],
            [-1.7840379323530222, 50.7657861334272],
            [-1.7829573592729901, 50.765049597178304],
            [-1.7821053689598878, 50.765588846931955],
            [-1.7820638084568097, 50.765983419922435],
            [-1.7812533786467857, 50.766838328068474],
            [-1.780297487075988, 50.76725920592499],
            [-1.7793000350021122, 50.76733812052308],
            [-1.7775544938728296, 50.76657527940815],
            [-1.7757258317373907, 50.766207011283704],
            [-1.7753517872096873, 50.766049182087514],
            [-1.7748322809212103, 50.76561515179799],
            [-1.7742919943811943, 50.764799700950995],
            [-1.7735023448227094, 50.76401055497004],
            [-1.7733776633134748, 50.763563372247496],
            [-1.773917949853491, 50.76243226300812],
            [-1.7735439053257875, 50.76185355595542],
            [-1.773419223816553, 50.7610118002424],
            [-1.7740841918658035, 50.759538727744605],
            [-1.775538809473539, 50.758591752567455],
            [-1.7762037775227895, 50.75777630172047],
            [-1.7772635703512825, 50.757105527636654],
            [-1.778177901419002, 50.75684247897633],
            [-1.780546850094457, 50.756710954646174],
            [-1.7812949391498638, 50.756579430316016],
            [-1.782396292481435, 50.755934961098234],
            [-1.7830197000276073, 50.755145815117274],
            [-1.7831443815368417, 50.75456710806457],
            [-1.7831028210337636, 50.75346230369123],
            [-1.7829365790214509, 50.75322555989694],
            [-1.7819599071991143, 50.75260739554519],
            [-1.7814611811621763, 50.75234434688487],
            [-1.7807962131129258, 50.752160212822645],
            [-1.777679175382064, 50.75221282255471],
            [-1.7770557678358918, 50.75202868849249],
            [-1.7767856245658837, 50.75175248739915],
            [-1.7767856245658837, 50.75135791440867],
            [-1.7769934270812746, 50.75109486574835],
            [-1.7784688249405491, 50.75042409166454],
            [-1.7794039362598075, 50.74983223217882],
            [-1.7794039362598075, 50.74970070784866],
            [-1.7772843506028215, 50.74843807427913],
            [-1.7770765480874309, 50.74806980615468],
            [-1.7772427900997434, 50.74775414776229],
            [-1.7777207358851423, 50.74755686126706],
            [-1.7782610224251583, 50.747530556401024],
            [-1.7797156400328937, 50.747846214793405],
            [-1.78137806015602, 50.748004043989596],
            [-1.7822300504691222, 50.747464794235945],
            [-1.7825209739906693, 50.74662303852292],
            [-1.7812325983952466, 50.745728673077835],
            [-1.780526069842918, 50.74499213682894],
            [-1.7804845093398396, 50.744544954106395],
            [-1.7798611017936674, 50.743440149733054],
            [-1.7799442227998237, 50.743045576742574],
            [-1.779777980787511, 50.7419933821013],
            [-1.7787389682105572, 50.741020102058116],
            [-1.7787805287136353, 50.740704443665734],
            [-1.7791961337444169, 50.74041509013938],
            [-1.7774298123635952, 50.73940235279715],
            [-1.776847965320501, 50.73940235279715],
            [-1.7761414367681723, 50.73919191386889],
            [-1.7751439846942965, 50.73856059708413],
            [-1.7744166758904287, 50.73838961545492],
            [-1.7741257523688816, 50.73807395706254],
            [-1.7740426313627253, 50.73699545755523],
            [-1.773149080546545, 50.73640359806951],
            [-1.77235943098806, 50.736850780792054],
            [-1.7721931889757474, 50.736850780792054],
            [-1.771549001178036, 50.73652196996665],
            [-1.771341198662645, 50.73554868992347],
            [-1.7706346701103164, 50.73447019041616],
            [-1.7712165171534107, 50.734101922291714],
            [-1.7703229663372302, 50.73353636767203],
            [-1.7700528230672223, 50.733470605506945],
            [-1.7693462945148937, 50.731050557832006],
            [-1.7699904823126051, 50.73016934481994],
            [-1.7713619789141841, 50.73006412535581],
            [-1.7727750360188415, 50.72951172316914],
            [-1.7730243990373105, 50.72953802803517],
            [-1.7737309275896391, 50.729958905891685],
            [-1.7745621376512024, 50.730116735087876],
            [-1.7753933477127655, 50.73009043022184],
            [-1.776058315762016, 50.73024825941803],
            [-1.7769726468297353, 50.730011515623744],
            [-1.7777207358851423, 50.72993260102565],
            [-1.7786766274559398, 50.729564332901205],
            [-1.7797156400328937, 50.72935389397295]
          ]
        ]
      }
    }
  ]
}
