{"type": "FeatureCollection", "features": [{"type": "Feature", "properties": {"db_school_name": "Oasis Academy Wintringham", "urn": "135209", "n_samples": 120, "margin_m": 105.6}, "geometry": {"type": "Polygon", "coordinates": [[[-0.10896284668845235, 53.54515394650626], [-0.10925033094867576, 53.54535324987576], [-0.10950538523051126, 53.54556986295645], [-0.10972356594657573, 53.545800322347645], [-0.10990277146691184, 53.546042408801334], [-0.10993134824609863, 53.546094275422156], [-0.10992937634377364, 53.54608891969822], [-0.10992274447723993, 53.546056361987254], [-0.10991272636802173, 53.54579185817149], [-0.10994628581752457, 53.545528043157546], [-0.11002309882871404, 53.54526745758514], [-0.11014242489068045, 53.54501261094735], [-0.11030311413934464, 53.54476595742629], [-0.11050361845775052, 53.54452987226292], [-0.11074200640799947, 53.544306628888826], [-0.11101598185017798, 53.54409837703915], [-0.11132290606825017, 53.54390712205813], [-0.1114560159142684, 53.543839003723754], [-0.11404411722848853, 53.54317924923729], [-0.1141134055357617, 53.54317423988233], [-0.11455747881445542, 53.54316825650981], [-0.11500039870549884, 53.5431882262136], [-0.11543790044927554, 53.5432339567176], [-0.11586577142439292, 53.543305007700475], [-0.11627989168834162, 53.54340069503265], [-0.11667627362833513, 53.54352009735997], [-0.11705110034145362, 53.54366206497039], [-0.1174007623753833, 53.543825230858715], [-0.1177218924765795, 53.544008023883116], [-0.11801139801172372, 53.54420868388718], [-0.11826649075051025, 53.544425278641754], [-0.11848471372294916, 53.54465572244451], [-0.11866396489237552, 53.5448977961976], [-0.11880251741573727, 53.54514916877114], [-0.11889903629539988, 53.54540741944659], [-0.11895259126131073, 53.545670061224335], [-0.11896266575845428, 53.54593456477126], [-0.11892916195196879, 53.5461983827775], [-0.11885240170055862, 53.5464589744884], [-0.11873312348760534, 53.54671383017497], [-0.11857247533837413, 53.54696049530738], [-0.11837200379039652, 53.547196594198404], [-0.11813363902221975, 53.547419852888936], [-0.11785967628288611, 53.547628121055226], [-0.11755275380026513, 53.54781939272604], [-0.11721582738052358, 53.547991825610204], [-0.11685214194307295, 53.54814375884834], [-0.1164652002650773, 53.54827372901673], [-0.11605872923674683, 53.54838048422957], [-0.11563664395280975, 53.548462996203114], [-0.11520300998661911, 53.54852047016516], [-0.1147620042110455, 53.54855235251445], [-0.114317874544426, 53.54855833615586], [-0.11387489901036406, 53.54853836345977], [-0.11343734450680887, 53.54849262681728], [-0.11300942568267881, 53.54842156678561], [-0.11259526431929624, 53.54832586784211], [-0.11219884960887531, 53.54820645178712], [-0.11182399971368381, 53.54806446886026], [-0.11147432497691011, 53.54790128665533], [-0.11115319314026273, 53.54771847694114], [-0.11086369690375353, 53.547517800515564], [-0.11060862414034447, 53.54730119023874], [-0.11039043105238408, 53.54707073240959], [-0.11021121852809314, 53.546828646664935], [-0.11018264093201151, 53.54677678010982], [-0.11018461289629429, 53.54678213582957], [-0.11019124506414864, 53.54681469352493], [-0.1102012649973471, 53.5470791972914], [-0.11016770566983002, 53.54734301231484], [-0.1100908894749851, 53.54760359786925], [-0.10997155543499589, 53.54785844428482], [-0.10988876830261857, 53.54798550913993], [-0.10533283432856962, 53.547165760407744], [-0.10989247999116747, 53.547986176900274], [-0.1098864282426808, 53.548006705719864], [-0.10981131358873367, 53.54816711544139], [-0.10719064617945298, 53.54849177671844], [-0.10981146368330492, 53.54816709684513], [-0.1099123514073177, 53.548237032728], [-0.11016742609069981, 53.5484536444759], [-0.11038562488937066, 53.54868410271228], [-0.11056484599917021, 53.54892618820029], [-0.11070336286622909, 53.54917756969697], [-0.110799840836008, 53.54943582639782], [-0.11085335003216083, 53.5496984712452], [-0.11085467526847864, 53.549733439355826], [-0.10846158162254114, 53.550676020379605], [-0.11085196488295404, 53.54973450696162], [-0.11108202038552786, 53.549803810003255], [-0.11145688297363485, 53.549945795328306], [-0.1118065743101202, 53.55010897767601], [-0.11212772685915204, 53.550291785746076], [-0.11241724777107534, 53.550492459237226], [-0.11267234866728625, 53.550709065790514], [-0.11289057249897443, 53.550939519589974], [-0.11306981722090335, 53.55118160144149], [-0.11320835605178309, 53.5514329801372], [-0.11330485412550355, 53.551691234899636], [-0.11334878218387882, 53.55190677828492], [-0.11137004242381342, 53.55247515899134], [-0.11334662967139705, 53.55190739660703], [-0.11351310150539104, 53.55200214881155], [-0.11380264053734257, 53.55220281905045], [-0.11405775866065385, 53.55241942273846], [-0.11427599866061927, 53.552649874087166], [-0.11445525833627991, 53.552891953926164], [-0.1145938107623053, 53.553143331066956], [-0.11462417507614958, 53.553224583929506], [-0.11462415811082008, 53.55322459351336], [-0.11475988727291242, 53.5532471284328], [-0.11517410150471212, 53.55334282025884], [-0.11557057250465771, 53.553462226836785], [-0.11594548251239088, 53.55360419841371], [-0.11629522127359582, 53.55376736794625], [-0.11661642079588141, 53.55395016425768], [-0.1169059877773511, 53.55415082715992], [-0.11716113339582757, 53.55436742439608], [-0.11737940017185933, 53.55459787023992], [-0.11755868564664762, 53.55483994557404], [-0.11769726264640495, 53.5550913192534], [-0.11771133736199645, 53.55512897291984], [-0.11618285850743498, 53.55635734591952], [-0.11428078656778178, 53.556706728554104], [-0.11417257798360685, 53.556757937045425], [-0.11280406900583066, 53.55728314335787], [-0.11043840391447825, 53.5571701943637], [-0.10826968815058793, 53.55798269882798], [-0.10695770727605311, 53.55782495324362], [-0.10687800421751932, 53.55778776165965], [-0.10655681865224272, 53.55760493941148], [-0.1062672780742969, 53.55740425177659], [-0.10601217078346707, 53.557187631723174], [-0.10579395331432413, 53.55695716564437], [-0.10561472678952462, 53.55671507325649], [-0.10547621670141807, 53.5564636862143], [-0.10537975631602738, 53.556205425649104], [-0.10532627385840779, 53.555942778846884], [-0.10532307969936675, 53.55585821004932], [-0.10532314207705862, 53.55585820489191], [-0.10525831007780706, 53.555684621615306], [-0.1052582966592201, 53.555684555716766], [-0.10526314707672425, 53.5556824127287], [-0.1050440562409942, 53.55561640824372], [-0.1049693728442136, 53.555588118918024], [-0.10441502897770032, 53.55518516853975], [-0.10456343347661184, 53.55216463503325], [-0.1045405281973234, 53.552105782148416], [-0.10229416223918426, 53.55119173028561], [-0.101999392223419, 53.55101774147588], [-0.09761771047558719, 53.55254001908347], [-0.09690034312535974, 53.55248680852076], [-0.09502686640163294, 53.55318585105648], [-0.09352194262713348, 53.55320076972339], [-0.09345023655883498, 53.55318756697291], [-0.09341209507630992, 53.55319303642258], [-0.09054256400295159, 53.55495903354423], [-0.09084859573988126, 53.55581136244323], [-0.09169827094331139, 53.55615701120369], [-0.09174125136902468, 53.557535888575664], [-0.0914805404240131, 53.55776929095353], [-0.09174352987521263, 53.55895708049999], [-0.0910221029831456, 53.55947119881573], [-0.09311319261620202, 53.56110301449749], [-0.09265240342108558, 53.56141967950457], [-0.09264998628928661, 53.561421606244956], [-0.0924735353598206, 53.56161578909351], [-0.0923525799265622, 53.56219631641951], [-0.09126230375597132, 53.56229834553487], [-0.08984228180332313, 53.562498469732795], [-0.08934418392742163, 53.56335748623818], [-0.08881564171301083, 53.563219524876786], [-0.0880943305023204, 53.563087722167246], [-0.08655749357301518, 53.56324945924554], [-0.08652253195659661, 53.56324295525104], [-0.08502206433754994, 53.56393801559221], [-0.08407445478607674, 53.563423276577375], [-0.08404945229587951, 53.563419889587784], [-0.08378976989059385, 53.56341959173825], [-0.08293875186304958, 53.56350210884912], [-0.08268933360892114, 53.5636824245418], [-0.0838678350367357, 53.564686145785394], [-0.08379550137384795, 53.56480451422289], [-0.08364656431758333, 53.564856842560275], [-0.08181525004817373, 53.56471747363468], [-0.08113104611598418, 53.56411413563152], [-0.07961626955010014, 53.563904694864185], [-0.07930765614559639, 53.563782230196104], [-0.08015631206648303, 53.56193695472762], [-0.07998631030737406, 53.5618115530558], [-0.08000341568134821, 53.56077620549513], [-0.0790127170913926, 53.5601726940338], [-0.07705555882019753, 53.56005180772066], [-0.07663878185397484, 53.55872210859883], [-0.07636657025791693, 53.55853729880793], [-0.07545582744828551, 53.55837049313046], [-0.07545821760976136, 53.5558883379689], [-0.07476320891313594, 53.555758848151214], [-0.07444787177864373, 53.55562962232141], [-0.07398017390785923, 53.5551683393356], [-0.07467184162449444, 53.553559025663304], [-0.07446722014331243, 53.55338525274811], [-0.07333826975258617, 53.55346913547768], [-0.07282139613293728, 53.55365217801934], [-0.07165359766493107, 53.553732198587596], [-0.07089069035887867, 53.55330764104666], [-0.0688426552397185, 53.55348404940506], [-0.0665454938862543, 53.55172571380179], [-0.0663542225979968, 53.55120876500298], [-0.06651688204374119, 53.55105667273827], [-0.06679111656028944, 53.55084852478274], [-0.0670982869959724, 53.55065738575339], [-0.06743543510799462, 53.55048509618325], [-0.06779931411103847, 53.55033331507864], [-0.06818641994038332, 53.550203503951195], [-0.06859302498685815, 53.550096912751286], [-0.0690152139791627, 53.55001456783813], [-0.06944892166865915, 53.54995726210187], [-0.06988997195448132, 53.54992554733294], [-0.07005628725361483, 53.54992336875591], [-0.07115501563943467, 53.55136821007183], [-0.07005636343549809, 53.549923468939724], [-0.07023730125083923, 53.549810866498014], [-0.07057443001228039, 53.549638567881296], [-0.07093829067697516, 53.549486777039796], [-0.07132537935671089, 53.549356955578936], [-0.07154970378935474, 53.549298141080435], [-0.07154974321262338, 53.549298168589445], [-0.07166814999487543, 53.54918743122504], [-0.07194234720162787, 53.548979271063345], [-0.07224948099607144, 53.54878811841936], [-0.07258659348813995, 53.548615813957234], [-0.07295043823539227, 53.54846401682667], [-0.07333751150283778, 53.548334188693694], [-0.07374408599471895, 53.54822757967246], [-0.0741662467338212, 53.54814521629372], [-0.07459992874343999, 53.54808789162544], [-0.07504095616987541, 53.54805615764036], [-0.07548508246972926, 53.54805031990381], [-0.07592803127600346, 53.548070434632955], [-0.07636553755066344, 53.548116308155414], [-0.07676341916491293, 53.548182512177895], [-0.07676321062634467, 53.54818481309105], [-0.07692968113788905, 53.54816280522911], [-0.07737070781412306, 53.548131062641865], [-0.07781483479218862, 53.548125216254995], [-0.07825778569855875, 53.548145322368924], [-0.07869529547498641, 53.54819118739425], [-0.07912315142257398, 53.54826236971446], [-0.07953723374317472, 53.54835818393549], [-0.0799335551888673, 53.54847770748148], [-0.08030829943859867, 53.54861978947325], [-0.08065785783335035, 53.54878306180423], [-0.08097886411669612, 53.548965952307675], [-0.08126822684669267, 53.54916669988839], [-0.08152315916723255, 53.54938337147386], [-0.08174120565215977, 53.54961388062164], [-0.08177941986544347, 53.54966555447945], [-0.08177911026961909, 53.54966594307269], [-0.08209903232314321, 53.54962363577321], [-0.08254007082069689, 53.549591874223694], [-0.08298421286472331, 53.549586008762994], [-0.08342718193666945, 53.54960609587515], [-0.08347402134555436, 53.549611003981575], [-0.08379864084468082, 53.55004197309942], [-0.08347497836060679, 53.549612274541325], [-0.08353417317550713, 53.54955689392439], [-0.08380831523641635, 53.54934870607341], [-0.08411539900832841, 53.54915752251447], [-0.08445246708257485, 53.54898518420937], [-0.0848162734441445, 53.548833350633814], [-0.08515762796565916, 53.548718813529796], [-0.08969760441431478, 53.54995432980637], [-0.08975966630694246, 53.54997911748175], [-0.09070046387246967, 53.54993681230411], [-0.09160046546640696, 53.54865707277209], [-0.09364953154990557, 53.54818550666496], [-0.09358863930546527, 53.545445778386124], [-0.09360952204201828, 53.54544170009495], [-0.09404315175807482, 53.54538430440467], [-0.09448413822355681, 53.54535249831193], [-0.09492823528928535, 53.54534658807634], [-0.09537116686965405, 53.54536663061302], [-0.09580866809248446, 53.54541243294465], [-0.09623652634130038, 53.54548355405834], [-0.09649270097560396, 53.54554279188849], [-0.09648974559561568, 53.54554041385937], [-0.09648255448204428, 53.5455050544215], [-0.09647262026903632, 53.54524055018882], [-0.09650626270839135, 53.54497673965006], [-0.09658315700392574, 53.5447161634017], [-0.09670256186207991, 53.54446133084686], [-0.09686332666015472, 53.54421469603189], [-0.09706390255389437, 53.543978634017606], [-0.09730235741642618, 53.54375541801245], [-0.09757639446380142, 53.543547197488], [-0.09788337438707627, 53.54335597748679], [-0.09822034077731454, 53.54318359932166], [-0.09841661351150026, 53.54310164037508], [-0.10010873778322164, 53.54360972215999], [-0.10341274159728003, 53.543967201134194], [-0.10355128010648894, 53.543921777988295], [-0.10478961510130635, 53.54369452486242], [-0.1090129990424951, 53.54453553509615], [-0.10902241716129052, 53.544784339792706], [-0.10898885267244872, 53.54504815453395], [-0.10895737183515439, 53.54515494412902], [-0.10896284668845235, 53.54515394650626]]]}}, {"type": "Feature", "properties": {"db_school_name": "Ormiston Maritime Academy", "urn": "137196", "n_samples": 159, "margin_m": 208.4}, "geometry": {"type": "Polygon", "coordinates": [[[-0.12013893123476538, 53.55547774078389], [-0.12051387454687097, 53.55561969827493], [-0.12086364765248495, 53.5557828546857], [-0.12118488222861276, 53.55596563896583], [-0.1214744846359035, 53.55616629104317], [-0.12172966571112562, 53.55638287876506], [-0.12194796763345214, 53.55661331649696], [-0.12212728760566512, 53.55685538519962], [-0.12226589812177756, 53.557106753791906], [-0.12236246362524109, 53.55736500159371], [-0.12241605339649952, 53.55762764163317], [-0.12242615054479772, 53.557892144593936], [-0.12239948085442583, 53.55810221412043], [-0.1224028201469329, 53.55810154053978], [-0.12268792001318012, 53.55829905647014], [-0.12294311992568115, 53.55851564169194], [-0.12316143920066726, 53.55874607728073], [-0.12334077487378048, 53.55898814421794], [-0.12347939928777961, 53.55923951143948], [-0.12353983431499063, 53.5594011142545], [-0.12213136983705158, 53.56082808202218], [-0.12354000192285615, 53.559400944437925], [-0.12368299750747866, 53.55937298807673], [-0.12411673208602396, 53.55931548431051], [-0.12455784382233721, 53.5592835684091], [-0.1250020853612747, 53.559277547689234], [-0.12544517922652382, 53.55929748012981], [-0.12588285898382712, 53.559343173813474], [-0.1263109102982658, 53.5594141887734], [-0.12672521149139285, 53.55950984122695], [-0.12712177320875492, 53.55962921015587], [-0.12749677681678206, 53.5597711461698], [-0.12784661116017082, 53.55993428256792], [-0.1281679073264137, 53.56011704849257], [-0.1284575710832285, 53.56031768404839], [-0.12871281267671783, 53.560534257241876], [-0.12893117370334822, 53.5607646825785], [-0.12911055079676523, 53.56100674113844], [-0.12924921590088123, 53.5612581019383], [-0.1293458329333893, 53.56151634437312], [-0.1293994706783805, 53.56177898152281], [-0.12940961178293506, 53.56204348409893], [-0.12937615776995243, 53.562307304801074], [-0.1293731232063311, 53.56231761145397], [-0.12937156561193966, 53.562317728007876], [-0.12939357905445414, 53.56234743242965], [-0.1295322500395848, 53.562598792899344], [-0.12962887166147666, 53.56285703509111], [-0.12968251265996644, 53.563119672087176], [-0.12968350837560774, 53.563145637832115], [-0.12962771718712626, 53.563411317659885], [-0.12869204933433628, 53.56424131424359], [-0.12854008360412553, 53.56431247164388], [-0.1254981885208124, 53.56618235932712], [-0.12531929151828797, 53.5662715633526], [-0.12239995066549883, 53.56565238018354], [-0.12127394773014365, 53.56564045583404], [-0.12035350108271034, 53.56601258466403], [-0.11914616490856274, 53.566360731889624], [-0.1168928829574106, 53.56673438567722], [-0.11629390056367833, 53.5671671730029], [-0.11603020931445872, 53.56730205702825], [-0.11566635233219395, 53.56745398473028], [-0.11555557964081893, 53.56749117339564], [-0.11555803394718603, 53.56749261691927], [-0.11533248473069622, 53.567703748847045], [-0.11505837484599979, 53.56791200867474], [-0.11475129078086228, 53.56810327116291], [-0.11441418989762248, 53.56827569410876], [-0.11405031879611265, 53.568427616748394], [-0.11387382660162132, 53.56848686415938], [-0.11102249528176328, 53.566190521656935], [-0.11004199610370975, 53.56570822561172], [-0.10991274434666048, 53.56575642069039], [-0.10987920140419402, 53.565794857956625], [-0.10763063674678165, 53.56631783517766], [-0.10761054165729016, 53.56630317945523], [-0.10687786767498994, 53.566033313688216], [-0.10677910329767655, 53.56602093804529], [-0.10569421798839192, 53.565275137182496], [-0.10603291112060559, 53.564909389166715], [-0.10601879009803483, 53.56489408430415], [-0.10570779872294518, 53.5635446468456], [-0.10535764657468046, 53.56342832445158], [-0.10534728826827255, 53.563374292637064], [-0.10438049491580696, 53.562583308398125], [-0.10366005393165358, 53.562325059094036], [-0.1035511621388665, 53.562470565013626], [-0.10213654008984498, 53.563015973351206], [-0.10109885700700755, 53.56262061554748], [-0.10088375701650813, 53.56229810138458], [-0.09901646488781148, 53.562263457537135], [-0.09844152029174352, 53.56300181566245], [-0.09843649184544377, 53.56311277005292], [-0.09852459357266415, 53.56357164476134], [-0.09804436016816934, 53.56428328113991], [-0.09569660650497938, 53.56395338910666], [-0.09543833005156352, 53.56382183377098], [-0.0933061551660349, 53.56359089738344], [-0.0930141527665761, 53.56363956805835], [-0.09263162223423031, 53.563913536847146], [-0.09289060941092564, 53.56486263223524], [-0.09331024925011033, 53.565009235179886], [-0.09404547600825525, 53.565517822647344], [-0.0952892968265292, 53.56563807224639], [-0.09490400945306895, 53.56663068673043], [-0.09496693880524473, 53.56671472346109], [-0.09496416202702515, 53.56672269015372], [-0.09449316473675802, 53.5668768345809], [-0.09395003544473877, 53.567774874426014], [-0.09447922170495207, 53.56809333536677], [-0.09358939467748847, 53.56869204598667], [-0.09303823239481523, 53.568536835377785], [-0.09167931942006693, 53.56899104973793], [-0.09162523948452102, 53.569046837141634], [-0.09162875210691172, 53.56922108355153], [-0.09319585934021792, 53.56946546691225], [-0.09364715932817361, 53.56945152663114], [-0.09387231676212192, 53.56939836036661], [-0.09480143349997142, 53.56955870737982], [-0.09491445937536472, 53.57037088527357], [-0.09529307721736832, 53.57098799201338], [-0.09345276209150646, 53.57182185597846], [-0.09330486587047469, 53.571850040274356], [-0.09287768863383318, 53.57132562853036], [-0.09215970180050963, 53.57061047101535], [-0.0920959670404593, 53.57057958614342], [-0.09180530710295436, 53.570494186898294], [-0.09171840454559343, 53.570505238153174], [-0.08982682528100468, 53.571123853702744], [-0.08875919420608856, 53.571031575947586], [-0.08830751054850391, 53.57124947946582], [-0.08472392544574037, 53.57094175730139], [-0.08298438445539999, 53.57312545717075], [-0.080839152611909, 53.57199867217974], [-0.08053981773905651, 53.57158995292319], [-0.08102948058304194, 53.570932183627555], [-0.08132962276521237, 53.56978816961288], [-0.0836345473353684, 53.56976296605311], [-0.08416015021929103, 53.56973624538023], [-0.08445983627856196, 53.56902755858949], [-0.08443066458211447, 53.568945327666256], [-0.0833926906916105, 53.56785749651716], [-0.0834154549189162, 53.567688584388], [-0.08321271658405749, 53.56748986503361], [-0.083079231459793, 53.5663877488907], [-0.08321627646559819, 53.56613168467635], [-0.08308177516981309, 53.56575825630493], [-0.08282261062629917, 53.565652291982936], [-0.08222075454530457, 53.56586978620522], [-0.08143675850097086, 53.565859695776695], [-0.08138202635487529, 53.565825727350045], [-0.08186973905608924, 53.56510626834211], [-0.08181525004817373, 53.56471747363468], [-0.08364656431758333, 53.564856842560275], [-0.08379550137384795, 53.56480451422289], [-0.0838678350367357, 53.564686145785394], [-0.08268933360892114, 53.5636824245418], [-0.08293875186304958, 53.56350210884912], [-0.08378976989059385, 53.56341959173825], [-0.08404945229587951, 53.563419889587784], [-0.08407445478607674, 53.563423276577375], [-0.08502206433754994, 53.56393801559221], [-0.08652253195659661, 53.56324295525104], [-0.08655749357301518, 53.56324945924554], [-0.0880943305023204, 53.563087722167246], [-0.08881564171301083, 53.563219524876786], [-0.08934418392742163, 53.56335748623818], [-0.08984228180332313, 53.562498469732795], [-0.09126230375597132, 53.56229834553487], [-0.0923525799265622, 53.56219631641951], [-0.0924735353598206, 53.56161578909351], [-0.09264998628928661, 53.561421606244956], [-0.09265240342108558, 53.56141967950457], [-0.09311319261620202, 53.56110301449749], [-0.0910221029831456, 53.55947119881573], [-0.09174352987521263, 53.55895708049999], [-0.0914805404240131, 53.55776929095353], [-0.09174125136902468, 53.557535888575664], [-0.09169827094331139, 53.55615701120369], [-0.09084859573988126, 53.55581136244323], [-0.09054256400295159, 53.55495903354423], [-0.09341209507630992, 53.55319303642258], [-0.09345023655883498, 53.55318756697291], [-0.09352194262713348, 53.55320076972339], [-0.09502686640163294, 53.55318585105648], [-0.09690034312535974, 53.55248680852076], [-0.09761771047558719, 53.55254001908347], [-0.101999392223419, 53.55101774147588], [-0.10229416223918426, 53.55119173028561], [-0.1045405281973234, 53.552105782148416], [-0.10456343347661184, 53.55216463503325], [-0.10441502897770032, 53.55518516853975], [-0.10496780805553525, 53.55558698149357], [-0.10506863420017001, 53.55576998290469], [-0.10516509175808099, 53.55602824371379], [-0.10521857331025448, 53.55629089057684], [-0.10522856300809455, 53.55655539411158], [-0.10519496383287087, 53.55681920700815], [-0.10511809856129484, 53.557079788560955], [-0.1049987066878036, 53.557334629138666], [-0.10483793733204681, 53.55758127435679], [-0.10463733819873543, 53.5578173487197], [-0.10453514502821783, 53.557913000217056], [-0.10016605738696881, 53.5576052108235], [-0.10453514681339761, 53.557913000342765], [-0.10461437791637776, 53.5580568018653], [-0.10471083756127975, 53.55831506296792], [-0.10473114358540535, 53.558414786385164], [-0.10455659774054235, 53.558630392854525], [-0.10473212388905295, 53.558413575465224], [-0.10502903308697199, 53.55831390977903], [-0.10543562682278099, 53.5582071932981], [-0.10583641931392032, 53.55812890070055], [-0.10583629914012709, 53.558128740234466], [-0.10584941479538304, 53.558123264217656], [-0.10623647881236094, 53.5579933296697], [-0.1066430665140953, 53.55788660902466], [-0.10695830479372379, 53.55782502508949], [-0.10826968815058793, 53.55798269882798], [-0.11043840391447825, 53.5571701943637], [-0.11280406900583066, 53.55728314335787], [-0.11417257798360685, 53.556757937045425], [-0.11428078656778178, 53.556706728554104], [-0.11618285850743498, 53.55635734591952], [-0.11770989072257736, 53.55513013556547], [-0.1180195110510187, 53.55512595658345], [-0.11846255766197421, 53.55514591451087], [-0.11890018652116324, 53.555191633350546], [-0.1193281837835844, 53.5552626728935], [-0.1197424282910602, 53.55535834912033], [-0.12013893123476538, 53.55547774078389]]]}}, {"type": "Feature", "properties": {"db_school_name": "Cleethorpes Academy", "urn": "136192", "n_samples": 176, "margin_m": 521.9}, "geometry": {"type": "Polygon", "coordinates": [[[-0.046951030746006914, 53.53889513979552], [-0.04698823418034905, 53.53896287666369], [-0.0430304444852745, 53.54051595641504], [-0.04698795064276601, 53.53896298793578], [-0.047210940834844985, 53.539090183980036], [-0.04750007547622949, 53.539291011565226], [-0.047754775383825825, 53.53950775341384], [-0.04797258736899417, 53.53973832240659], [-0.04815141335148799, 53.539980498239615], [-0.048210104481899746, 53.54008734927817], [-0.0482100049475575, 53.54008739556535], [-0.04839230464526456, 53.540156594969474], [-0.04874166888946711, 53.54031995910947], [-0.04906247224671105, 53.540502933745195], [-0.04935162522840062, 53.54070375697122], [-0.049606342997575485, 53.54092049498636], [-0.0498241721936014, 53.54115106070825], [-0.05000301457049385, 53.54139323386456], [-0.050141147220755994, 53.54164468236755], [-0.050209945720476795, 53.541829618198484], [-0.04611201073522491, 53.54280174210033], [-0.050214003218702584, 53.54182865557485], [-0.05043044267756076, 53.54205774097018], [-0.05054736284604694, 53.54221605774254], [-0.05054856232802154, 53.54221534463033], [-0.050627525474544084, 53.54223364023684], [-0.051023706231193906, 53.54235325849203], [-0.0513982977443715, 53.542495429887964], [-0.05174769282510661, 53.542658785457164], [-0.052068526788890915, 53.542841752231226], [-0.05235770985246431, 53.54304256838043], [-0.0526124568892255, 53.54325930017179], [-0.05283031425672123, 53.54348986058291], [-0.05300918343767315, 53.543732029392615], [-0.05314734126643225, 53.543983474555084], [-0.0532434565454267, 53.54424177465217], [-0.05329660289076129, 53.54450444220765], [-0.053306267682282825, 53.54476894763948], [-0.05327235703081152, 53.54503274361897], [-0.05319519671355798, 53.5452932896029], [-0.053075529067479726, 53.54554807630205], [-0.052914505869353395, 53.545794649850365], [-0.052713677269979255, 53.54603063544211], [-0.05258279514034508, 53.546152977640716], [-0.05258411655154298, 53.54615323129687], [-0.05255859008370736, 53.546351771557376], [-0.05248142278962255, 53.546612316965714], [-0.052361746952282046, 53.54686710282577], [-0.052200714427304715, 53.547113675279576], [-0.05199987545528086, 53.5473496595319], [-0.051761163754814675, 53.54757278272736], [-0.0514868779178459, 53.547780895846756], [-0.05117965928573045, 53.54797199441185], [-0.05084246651864184, 53.54814423779862], [-0.050540939090223995, 53.548269953995494], [-0.04792000153350151, 53.54785439368746], [-0.050542801494313117, 53.54827024926401], [-0.05056093849969955, 53.5482894430308], [-0.05073981419225629, 53.54853161511633], [-0.050877973421661254, 53.54878306272928], [-0.05097408497662512, 53.54904136442787], [-0.051027222508877174, 53.54930403272051], [-0.05103687348289694, 53.54956853801798], [-0.05100294414233809, 53.54983233299291], [-0.050925760444177494, 53.550092877111666], [-0.0508060649503474, 53.55034766110303], [-0.05064500970564922, 53.55059423112693], [-0.05044414516938503, 53.55083021241156], [-0.050205405306294554, 53.55105333213003], [-0.04993108897950907, 53.551261441296596], [-0.04984630283201297, 53.55131417410705], [-0.04558300935487299, 53.55066746348047], [-0.049846628630011845, 53.551314223521686], [-0.049918955588939766, 53.55150860641092], [-0.04997208928116034, 53.55177127503902], [-0.049981733845893106, 53.55203578026449], [-0.049947795588395585, 53.55229957476064], [-0.04987060055140469, 53.5525601179985], [-0.04975089140595182, 53.552814900715184], [-0.049589820328224336, 53.553061469083005], [-0.04954025265609244, 53.55311969717693], [-0.04528731314846678, 53.55279191630394], [-0.04238626314683491, 53.55400323699136], [-0.04237970125534463, 53.5540077054171], [-0.04234649032124666, 53.55408380667229], [-0.040772224586891344, 53.55495766822572], [-0.03978755319425112, 53.554760096271806], [-0.038215595750934896, 53.55406280893059], [-0.036018224437865315, 53.554977946302365], [-0.035702705040292916, 53.55522502649617], [-0.035352112176773254, 53.55578639686995], [-0.03415492643485772, 53.55609126500109], [-0.033867153094850076, 53.55646250373609], [-0.033477552411263115, 53.55675877317893], [-0.03344346824736629, 53.55675589457709], [-0.031157748261277415, 53.5570333398168], [-0.031130484017721196, 53.55706452407777], [-0.029821601370837367, 53.557650320974524], [-0.029743379177603838, 53.5577152300134], [-0.028921694124619035, 53.55763582330453], [-0.028374188224688537, 53.557365583165385], [-0.02844756241904337, 53.55592640197792], [-0.027889637367921334, 53.55550049955537], [-0.02648762070675662, 53.55637785891004], [-0.025461164021288597, 53.55642526633352], [-0.025202149041686328, 53.55661209322477], [-0.024505727686461604, 53.55672780608465], [-0.023139380785226742, 53.557556295115134], [-0.02311869532173592, 53.55753930341119], [-0.02304402470725811, 53.55747541202382], [-0.022982751542823292, 53.55741755822348], [-0.022819567023615386, 53.55726968838933], [-0.0227325613192347, 53.55719772708057], [-0.02273089548546996, 53.55719641366714], [-0.0226271434367949, 53.557114610981806], [-0.02250788137646107, 53.55702275283681], [-0.022408240968683567, 53.55694721141315], [-0.022330674409315677, 53.55689237827308], [-0.022271651535241205, 53.55685980627781], [-0.022271651535241205, 53.55685980627781], [-0.022238666798256868, 53.55684160349226], [-0.022219310028179114, 53.55683127811954], [-0.0222114543191242, 53.55682620398635], [-0.02220575969307908, 53.55682205554253], [-0.022199167415503575, 53.556816435939716], [-0.022192602771198826, 53.55680989984844], [-0.022155974679255355, 53.55676524521319], [-0.022144303275081906, 53.55675101947477], [-0.022257370694656532, 53.55671340546354], [-0.022272463812318056, 53.556568094381525], [-0.0222419457632745, 53.556487267482765], [-0.022197825729776837, 53.5564129040961], [-0.022144269565116646, 53.55634664624343], [-0.02207530768585039, 53.55627761665726], [-0.02200921817083564, 53.5562075377688], [-0.021934616105907308, 53.556142271450746], [-0.021863784519112514, 53.55608097790969], [-0.021781631774755207, 53.556015119237244], [-0.021694958464342582, 53.55596203200306], [-0.021507560035982302, 53.55585870850917], [-0.02142224645302922, 53.55580950012574], [-0.021331317438444426, 53.55575902573834], [-0.021322662621378344, 53.55575422146898], [-0.021168540537995814, 53.55567160242299], [-0.021084870032707204, 53.555624407689145], [-0.021017351388083423, 53.555586988283565], [-0.020973451035980004, 53.55556265828057], [-0.020876631234491815, 53.555506085514736], [-0.020770793259806953, 53.555442513420594], [-0.02068123053713903, 53.55538475701762], [-0.02058480276483212, 53.55531462512416], [-0.020515847898060963, 53.555259456848916], [-0.020480990806226403, 53.5552303748079], [-0.02035121036552327, 53.55512209568622], [-0.020261681966422983, 53.55505295865363], [-0.020142671289933124, 53.55496373640756], [-0.020030482798336233, 53.55488167479859], [-0.01988875707973261, 53.554775184070685], [-0.019870920874050232, 53.55476178296356], [-0.019769023824793293, 53.554686957256806], [-0.019644912021334626, 53.55458902007511], [-0.0195363643172387, 53.55450210093072], [-0.01946539396153431, 53.5544478066857], [-0.019371745783684297, 53.554373530685005], [-0.019289276108222227, 53.55431204310276], [-0.019178195903009013, 53.55423057441468], [-0.019093246985519462, 53.55417078966353], [-0.018980570111052638, 53.55409281831665], [-0.018882755157596038, 53.55402892794549], [-0.018799234995628532, 53.55397929797904], [-0.018711755644992844, 53.553931049748805], [-0.01861031345889199, 53.55387728438955], [-0.018484641929075462, 53.553808977091194], [-0.01847058047708993, 53.55380086408232], [-0.018387929995868385, 53.55375317729793], [-0.018188932200243858, 53.55363318674503], [-0.018084011986631558, 53.55356402646756], [-0.018000509002342305, 53.5535033744888], [-0.01791506664009789, 53.55344223184724], [-0.017839591784995654, 53.553386504224896], [-0.017758420797749624, 53.553332498090356], [-0.017679308961343582, 53.553279982336406], [-0.01760307758103313, 53.55322850311376], [-0.017514246609226614, 53.55316591961329], [-0.017424694835319304, 53.55310713571024], [-0.01733795435549766, 53.55305442138829], [-0.01722268336541524, 53.552986176526524], [-0.017126466852485676, 53.55292530421328], [-0.01703964138243122, 53.552879267565025], [-0.016951727711547484, 53.55283519952739], [-0.016841008531575673, 53.55277423942122], [-0.016746356210473913, 53.552722876795485], [-0.016658922745527494, 53.552673072101854], [-0.016575444018959936, 53.55261327347678], [-0.016498602417891372, 53.55255972475593], [-0.016398280769665916, 53.55250952640219], [-0.016295295188839834, 53.552453026991245], [-0.01621135368617427, 53.55239571954607], [-0.0161303835214325, 53.55234266846643], [-0.016023858666362398, 53.5523047277015], [-0.01591675131245441, 53.55227214400427], [-0.01583576335549232, 53.55221884070861], [-0.01577466611287965, 53.55214888576883], [-0.015624205620345711, 53.5519955708526], [-0.015456957069653, 53.551860055464694], [-0.01539441213873762, 53.55180138528743], [-0.015230326142507664, 53.55169735885794], [-0.015151808266985724, 53.551640023722484], [-0.015137272495973774, 53.55161943591225], [-0.015209867680099607, 53.55146521284101], [-0.01532630305023808, 53.55128722071106], [-0.015326704081421226, 53.55128720863849], [-0.015257207561027167, 53.55121358259056], [-0.015078524963721952, 53.5509713592691], [-0.015033953088232613, 53.550890105302635], [-0.01503444272616319, 53.55088991697994], [-0.014850608026649134, 53.55078498935188], [-0.014561553055876923, 53.55058408386697], [-0.014306959536171537, 53.5503672726247], [-0.014089279051830952, 53.55013664385904], [-0.013996619749773672, 53.55001102598797], [-0.020242480778574184, 53.54772886151517], [-0.013995847544577007, 53.55001130810703], [-0.013910182165941483, 53.54995176479149], [-0.01365559572621694, 53.549734952205135], [-0.013437921973143375, 53.54950432229205], [-0.01325925679101039, 53.54926209634584], [-0.013121320264418892, 53.5490106073068], [-0.013025440134417707, 53.54875227728768], [-0.012972539037113318, 53.54848959424245], [-0.012963125646697085, 53.54822508800202], [-0.012997289807095911, 53.54796130590895], [-0.013074701697921397, 53.547700788284814], [-0.013191845155038249, 53.54745192836089], [-0.013196721965330924, 53.54745102530755], [-0.012954794379425975, 53.5473378014888], [-0.012634098355689054, 53.54715473111207], [-0.012345078328580412, 53.546953820473014], [-0.012090517582088673, 53.54673700468721], [-0.011872867384890738, 53.54650637203235], [-0.011694223394457711, 53.546264143828395], [-0.011556305491373237, 53.54601265303732], [-0.01146044123742269, 53.545754321788785], [-0.01140755311593006, 53.545491638048524], [-0.011398149676258077, 53.54522713165416], [-0.01143232066664586, 53.5449633499497], [-0.011509736201078813, 53.544702833252934], [-0.011629649967056167, 53.544448090392734], [-0.011790906442124226, 53.54420157455088], [-0.01199195204860091, 53.5439656596417], [-0.012230850138032372, 53.54374261745649], [-0.012505299660200584, 53.54353459579246], [-0.01281265733621537, 53.54334359777674], [-0.013149963121640691, 53.543171462584375], [-0.013513968714173014, 53.54301984773507], [-0.013901168831315543, 53.5428902131396], [-0.014307834957001523, 53.54278380704865], [-0.01473005123261172, 53.54270165403908], [-0.015163752147380163, 53.54264454515344], [-0.015420812509908058, 53.54262617563359], [-0.01691180742169663, 53.54606261756678], [-0.015420634343580174, 53.54262576496277], [-0.015543468108085124, 53.54259362306552], [-0.015920301607602615, 53.542520295868144], [-0.01592124433094737, 53.54252125693009], [-0.015992970900748627, 53.54247667949196], [-0.016330257023707526, 53.54230453512317], [-0.016694243975660113, 53.542152910399054], [-0.017081426653526847, 53.542023265325504], [-0.01738919241258537, 53.541942725662174], [-0.021068949711667666, 53.54200991663417], [-0.021346916561376054, 53.542093929785786], [-0.021721403946742598, 53.5422361932505], [-0.02205753419483576, 53.54239348287814], [-0.021647522779855745, 53.54391991721083], [-0.02205682807124183, 53.54239611181113], [-0.022179480162063732, 53.5423640091475], [-0.022601677698181298, 53.54228182815606], [-0.023035364432933896, 53.542224690574976], [-0.02347636446747296, 53.54219314657576], [-0.023920431522257576, 53.54218749989464], [-0.02436328980061621, 53.54220780490929], [-0.024800675135817823, 53.54225386611534], [-0.02522837602657803, 53.542325240007465], [-0.0256422741669604, 53.542421239347114], [-0.02603838408151706, 53.542540939775996], [-0.026412891484913627, 53.54268318871175], [-0.026555050494678795, 53.542749701504306], [-0.02656334445167823, 53.5430428720239], [-0.026555038227107062, 53.54274926787478], [-0.026660806897123652, 53.54269526998192], [-0.026972550215470036, 53.54256536945914], [-0.031340407165948644, 53.542382393375746], [-0.03167747236271539, 53.5424842311008], [-0.0320519986301922, 53.542626462537626], [-0.032401318827003374, 53.542789873982024], [-0.03272206898926789, 53.54297289192758], [-0.03301116014021841, 53.54317375405171], [-0.0332658080378687, 53.543390526178634], [-0.033273069898012306, 53.54339821638124], [-0.03363985688656892, 53.54449045339812], [-0.03327546888960369, 53.54340536040075], [-0.033325159527201755, 53.54323783702145], [-0.03344493844826119, 53.54298307101066], [-0.033606063081402036, 53.54273652450109], [-0.03380698111827083, 53.54250057170261], [-0.0339351421195581, 53.542380832043605], [-0.03393504232746136, 53.542380815040545], [-0.03393100377999893, 53.542268886893375], [-0.03396503194247478, 53.54200509734999], [-0.034042303580886515, 53.54174456465363], [-0.03416207376843298, 53.54148979778742], [-0.034323188365174936, 53.54124325016454], [-0.03448197295634526, 53.541056766504205], [-0.034481503477483244, 53.5410566938552], [-0.03447985009863373, 53.54101088651545], [-0.03613888248675241, 53.54027994132706], [-0.03906993404219018, 53.53967937322487], [-0.04012299563092158, 53.539016547914954], [-0.040494008582541506, 53.53890206088747], [-0.042122953112993765, 53.53776472106193], [-0.04684333062174343, 53.53874927653374], [-0.046951030746006914, 53.53889513979552]]]}}, {"type": "Feature", "properties": {"db_school_name": "John Whitgift Academy", "urn": "137464", "n_samples": 188, "margin_m": 412.8}, "geometry": {"type": "Polygon", "coordinates": [[[-0.13398107129948153, 53.55896183282423], [-0.13425503031010255, 53.55875352804432], [-0.13456195881400806, 53.55856221386474], [-0.13489890089636158, 53.55838973250521], [-0.13526261175415377, 53.55823774481897], [-0.13564958894029647, 53.5581077143068], [-0.13605610608305982, 53.55800089303149], [-0.13647824875654005, 53.55791830956739], [-0.13691195215733987, 53.55786075910147], [-0.13735304022544031, 53.55782879578036], [-0.13779726583347832, 53.55782272737741], [-0.1382403516584838, 53.557842612330504], [-0.13867803134361945, 53.557888259179535], [-0.13910609055472445, 53.557959228408606], [-0.1395204075374414, 53.55805483667535], [-0.13991699278545205, 53.55817416338696], [-0.1402920274388374, 53.55831605955955], [-0.1406419000436163, 53.55847915887593], [-0.14096324131914956, 53.558661890835495], [-0.14125295659909992, 53.55886249587001], [-0.14150825563374736, 53.55907904227993], [-0.14153240411310367, 53.559104515242026], [-0.13655861140252323, 53.56151029661585], [-0.14152984424657838, 53.559105753552466], [-0.14170415200892778, 53.559204870728216], [-0.14199387448760536, 53.559405474011434], [-0.14207886597571198, 53.55947756218674], [-0.14207870676344786, 53.55947768374145], [-0.1422326163295386, 53.559513194680484], [-0.14262922297307876, 53.5596325125492], [-0.14300427969444227, 53.55977440036836], [-0.14335417482722287, 53.55993749190119], [-0.14367553887391948, 53.56012021672201], [-0.14396527694897515, 53.56032081533141], [-0.14422059858320987, 53.5605373560917], [-0.14443904460267623, 53.56076775382071], [-0.1446185108228754, 53.56100978986463], [-0.1447572683297113, 53.56126113345699], [-0.1448539801512501, 53.561519364158656], [-0.14490771415889978, 53.56178199516273], [-0.14491795207278174, 53.5620464972401], [-0.1448845944834841, 53.56231032309534], [-0.1448079618406595, 53.56257093189843], [-0.14468879139774946, 53.56282581375603], [-0.14452823014107216, 53.56307251388641], [-0.14432782377024475, 53.56330865626536], [-0.14408950183505154, 53.563531966515086], [-0.14381555917101654, 53.563740293815215], [-0.1435086338117584, 53.56393163162493], [-0.14317168159037166, 53.56410413701604], [-0.14280794767412894, 53.564256148430644], [-0.14242093530664354, 53.564386201691924], [-0.14201437205867473, 53.56449304411364], [-0.14187460880745445, 53.56452038879382], [-0.1418742817724192, 53.56452008722461], [-0.14170809975226084, 53.56462367807581], [-0.14137113475421328, 53.56479617826552], [-0.1412462033250949, 53.564848386075646], [-0.13718355615131655, 53.56319722927281], [-0.14124630413408185, 53.564848427043536], [-0.14123856660912013, 53.564864972020544], [-0.14124018004551428, 53.564865072898215], [-0.14124826593422815, 53.565074438829086], [-0.14121488269164137, 53.56533826331905], [-0.14113822161917336, 53.56559886940651], [-0.14101902024395752, 53.5658537472242], [-0.14085842585013644, 53.56610044202925], [-0.14065798445642147, 53.56633657784874], [-0.14051549692229912, 53.566470065459995], [-0.14051698383551361, 53.56647008146416], [-0.14068291404429392, 53.56664508779834], [-0.1408623827637964, 53.56688712928169], [-0.14100113629927966, 53.567138476971124], [-0.1410978377167599, 53.56739671038804], [-0.14115155498753454, 53.56765934269935], [-0.14116176999260616, 53.56792384466334], [-0.1411283835428959, 53.56818766898565], [-0.14105171636573435, 53.56844827485099], [-0.14093250604691446, 53.56870315239423], [-0.14077189995659528, 53.56894984687513], [-0.14063458461524325, 53.5691116037131], [-0.14063689333773113, 53.56911119046055], [-0.14070194293358618, 53.56913075734869], [-0.14107707636024244, 53.5692726516562], [-0.14142704149131802, 53.569435749183356], [-0.1416705752400851, 53.56957419773963], [-0.13955375491230454, 53.5723746857536], [-0.14167023978860727, 53.56957464156456], [-0.14197038997590314, 53.56958809916132], [-0.14240819501235857, 53.56963373333393], [-0.14283637896237228, 53.56970469013482], [-0.1432508188708252, 53.56980028634138], [-0.14348440882996744, 53.56987054232556], [-0.14384042000455677, 53.57453736183206], [-0.14382637646440607, 53.57454322955818], [-0.1434392724236438, 53.57467328513278], [-0.14303261232749384, 53.57478013002693], [-0.14261031309181685, 53.57486273509284], [-0.14217644235102989, 53.57492030466143], [-0.14173517925911744, 53.57495228421036], [-0.14129077421359118, 53.574958365708035], [-0.14084750789136463, 53.57493849058218], [-0.1404096499922326, 53.57489285028396], [-0.14025058023318096, 53.574866489728066], [-0.13928875111200703, 53.5730159991765], [-0.1402522903139998, 53.57486977965377], [-0.14024989677778715, 53.57487159918993], [-0.13994287369568426, 53.575062926687096], [-0.13960581758621207, 53.575235420849886], [-0.13924197461733492, 53.57538742022842], [-0.1388548490831887, 53.5755174607617], [-0.13850418690166055, 53.57560957503388], [-0.13729566981034766, 53.5750606948265], [-0.13850451812793232, 53.57560972546551], [-0.1385006495404823, 53.57564027390095], [-0.13842395165567725, 53.57590087752013], [-0.13830470354675228, 53.576155751828665], [-0.13814405294753684, 53.57640244211733], [-0.13794354641771614, 53.576638572456666], [-0.1377051144714308, 53.57686186858462], [-0.13768284337491055, 53.5768787967116], [-0.13340972643994728, 53.57541450482518], [-0.1376837423647571, 53.57687910474668], [-0.13748887508671617, 53.57710858757726], [-0.1372504380606938, 53.57733188273923], [-0.1369763712857812, 53.57754019286906], [-0.13666931399089208, 53.577731511591075], [-0.13633222327990688, 53.57790399616085], [-0.13596834565413535, 53.57805598522084], [-0.1355811857416142, 53.57818601480948], [-0.13517447253456535, 53.57829283246838], [-0.13475212346062257, 53.578375409312066], [-0.134318206634445, 53.57843294994327], [-0.13387690165409394, 53.57846490011841], [-0.1334324593207112, 53.57847095208887], [-0.13298916067049202, 53.57845104756678], [-0.13255127571469927, 53.578405378286526], [-0.13252317587117252, 53.57840072006169], [-0.13252233291807697, 53.57839911600629], [-0.13228346795082369, 53.578547924467536], [-0.1319463531020403, 53.57872039644574], [-0.13158245297732224, 53.57887237194815], [-0.1311952724215144, 53.57900238714374], [-0.13078854062577655, 53.579109189712746], [-0.13036617519688268, 53.57919175091504], [-0.12993224440710344, 53.57924927550406], [-0.12949092798907047, 53.57928120939074], [-0.12904647685414028, 53.57928724498336], [-0.1286031721233195, 53.579267324151836], [-0.1281652838664471, 53.579221638787665], [-0.12773702994822908, 53.57915062895422], [-0.12754380250283825, 53.579106039301614], [-0.12754380114215652, 53.579106035718816], [-0.12738098633207484, 53.57920745054894], [-0.12704384654183268, 53.579379908475026], [-0.12682123955841992, 53.57947286090871], [-0.12657841931104039, 53.57946963842418], [-0.126822147918925, 53.57947287296271], [-0.12706424602177976, 53.57958572045161], [-0.12738568576086756, 53.57976848915024], [-0.12767547789412056, 53.57996912708844], [-0.12793083143112874, 53.580185702249935], [-0.12814928688992305, 53.580416129121396], [-0.12832873999419092, 53.58065818876836], [-0.12846746195514608, 53.58090955019711], [-0.1285641161421283, 53.5811677927967], [-0.12861777098052796, 53.581430429645515], [-0.12862790895186443, 53.58169493145806], [-0.12859443160825085, 53.58195875094131], [-0.12851766055177047, 53.58221934732642], [-0.12839833436812995, 53.58247421083942], [-0.1282376015429469, 53.582720886874995], [-0.1280370094277609, 53.58295699964073], [-0.12779848936099936, 53.58318027504382], [-0.12752433808633235, 53.583388562599225], [-0.12721719564665762, 53.58357985614873], [-0.12688001996610992, 53.58375231319015], [-0.12651605836462104, 53.58390427263112], [-0.12612881627931546, 53.584034270795264], [-0.12572202349417086, 53.58414105552686], [-0.12529959820359685, 53.58422359825749], [-0.1248656092566511, 53.58428110391858], [-0.12442423694633543, 53.5843130186033], [-0.12397973272255465, 53.584319034904986], [-0.12388108851760181, 53.58431459849059], [-0.12286742483841558, 53.58102862587699], [-0.12388078359229472, 53.584313610095634], [-0.12369421048731233, 53.58436258199451], [-0.12327177919746939, 53.58444511750775], [-0.12283778539756937, 53.58450261576595], [-0.12239640942738682, 53.584534522933666], [-0.12195190277209515, 53.58454053167658], [-0.12150854708765488, 53.58452058412327], [-0.12109793929303286, 53.58447772480589], [-0.12109798716433606, 53.58447809676175], [-0.12108495894678781, 53.58448151605882], [-0.12066252160289975, 53.58456404230132], [-0.12022852326698263, 53.58462153104994], [-0.11978714432253382, 53.58465342856082], [-0.11934263628339122, 53.58465942759269], [-0.11889928081885309, 53.58463947036768], [-0.11846134848756831, 53.584593749127784], [-0.11803305757884676, 53.58452270428211], [-0.11761853345896364, 53.58442702016174], [-0.1172217688150643, 53.584307618424496], [-0.11684658518061439, 53.58416564917235], [-0.1164965961137586, 53.58400247986763], [-0.11617517238391685, 53.58381968215525], [-0.11588540950239977, 53.58361901671775], [-0.11563009790996562, 53.58340241630984], [-0.11541169610853383, 53.583171967135684], [-0.11523230699554463, 53.58292988874905], [-0.11509365762848801, 53.582678512670086], [-0.1149970826138443, 53.582420259924774], [-0.1149435112795625, 53.58215761772392], [-0.11493345875365331, 53.58189311550626], [-0.11496702103371774, 53.58162930057663], [-0.11504387409369818, 53.581368713573916], [-0.1151632770352929, 53.58111386400487], [-0.11532407925245503, 53.58086720607973], [-0.11552473153888979, 53.580631115081765], [-0.11576330103054124, 53.58040786449844], [-0.11603748983829093, 53.580199604134094], [-0.1163446571907306, 53.58000833941466], [-0.11668184487328084, 53.57983591208336], [-0.11704580571835803, 53.57968398247286], [-0.11743303487222262, 53.57955401352462], [-0.11783980353756009, 53.579447256708406], [-0.11803986886942627, 53.57940817294892], [-0.11803957439981733, 53.57940809408164], [-0.11796843030364802, 53.57931208969118], [-0.11782977594380015, 53.57906071660161], [-0.11773319190768956, 53.57880246584459], [-0.11767960761034121, 53.57853982461178], [-0.11766953830479887, 53.57827532233263], [-0.1177030801504395, 53.57801150631259], [-0.11777990931816264, 53.577750917201044], [-0.11789928513989789, 53.57749606452516], [-0.11806005727088689, 53.577249402525084], [-0.11826067679465627, 53.577013306523384], [-0.11849921116271109, 53.57679005005577], [-0.11877336282419146, 53.57658178298326], [-0.11908049136539368, 53.576390510796465], [-0.11926536872252258, 53.576295954823166], [-0.12242283919452202, 53.57800169034541], [-0.11926238992515398, 53.5762943455073], [-0.11927902611705403, 53.57627877418257], [-0.1195531706184965, 53.57607050524434], [-0.11986029192474633, 53.57587923097744], [-0.12019743226457597, 53.57570679321708], [-0.12056134492620388, 53.57555485239646], [-0.12091813985792096, 53.57543507244432], [-0.1209197839480442, 53.575436355215984], [-0.12101475712853527, 53.57537720327354], [-0.12262671831778836, 53.57521787467753], [-0.12101490706330838, 53.57537718845483], [-0.12083085405740228, 53.57532179514687], [-0.12079940024722945, 53.57530989199729], [-0.12300594411214373, 53.57247384269992], [-0.1208002396515154, 53.575308813200685], [-0.12047431143526205, 53.575233572624306], [-0.12007762399143791, 53.575114180854484], [-0.11970251124521908, 53.574972220968625], [-0.11935258607194696, 53.574809060338865], [-0.11903121862569155, 53.57462627052637], [-0.11874150387578634, 53.57442561213763], [-0.11871632602773495, 53.57440424925731], [-0.11871573365005876, 53.57440514892855], [-0.11870445821134074, 53.57440664272202], [-0.11826318486986402, 53.57443853556358], [-0.11781878396991521, 53.57444452985921], [-0.11737553614848141, 53.57442456787664], [-0.11693771092705253, 53.574378841903766], [-0.1165095255629278, 53.57430779239512], [-0.11609510440548197, 53.5742121037268], [-0.11569843914988043, 53.57409269760032], [-0.11532335037209962, 53.57395072415982], [-0.11497345071651319, 53.57378755090795], [-0.11465211009130699, 53.57360474952754], [-0.11436242320738522, 53.57340408073637], [-0.11410717977364608, 53.573187477321305], [-0.11388883763573587, 53.57295702551544], [-0.11370949911672949, 53.57271494489779], [-0.1135708907871784, 53.57246356700989], [-0.11347434685872791, 53.57220531289508], [-0.11342079636038527, 53.57194266977732], [-0.1134107542199777, 53.571678167104146], [-0.11344431633558545, 53.57141435218473], [-0.1135185643575119, 53.57116256354878], [-0.1135218749332833, 53.57116268622577], [-0.11350898667878295, 53.571099473908376], [-0.113498944059685, 53.57083497120408], [-0.1135325048314279, 53.57057115621402], [-0.11360934498302054, 53.57031056957768], [-0.11372872374099403, 53.57005572079834], [-0.11388949073268687, 53.56980906407861], [-0.11409009709146785, 53.569572974690246], [-0.11432861039593811, 53.56934972610527], [-0.11460273329835459, 53.56914146810886], [-0.11461577919409319, 53.569133342969444], [-0.1146193342968558, 53.569134204618685], [-0.11464306692090284, 53.56894759926098], [-0.114719897073758, 53.56868701175968], [-0.11483926436861876, 53.568432161709076], [-0.11500001854326819, 53.56818550332412], [-0.11520061085454453, 53.56794941189257], [-0.11543910901635726, 53.56772616090615], [-0.11571321582679571, 53.567517900173186], [-0.11602029130428337, 53.567326635123244], [-0.11625608044099912, 53.5672060238335], [-0.11950742745583273, 53.568851022924434], [-0.11625423633059162, 53.56720509075624], [-0.11629758788609944, 53.567164508810365], [-0.1168928829574106, 53.56673438567722], [-0.11914616490856274, 53.566360731889624], [-0.12035350108271034, 53.56601258466403], [-0.12127394773014365, 53.56564045583404], [-0.12239995066549883, 53.56565238018354], [-0.12531929151828797, 53.5662715633526], [-0.1254981885208124, 53.56618235932712], [-0.12854008360412553, 53.56431247164388], [-0.12869204933433628, 53.56424131424359], [-0.12962771718712626, 53.563411317659885], [-0.1296834895150427, 53.56314572764747], [-0.12969538954890814, 53.563120296944284], [-0.12985603684743838, 53.56287361747286], [-0.1300565211458119, 53.56263750000379], [-0.13029491119795797, 53.56241421827965], [-0.13056891084283656, 53.56220592240495], [-0.13087588113057627, 53.56201461814773], [-0.13121286574403837, 53.561842147632184], [-0.1315766194707515, 53.561690171607005], [-0.131578876307687, 53.56168941343573], [-0.13158275828266155, 53.56169128724047], [-0.13168961846393204, 53.561527181382964], [-0.13189008607291516, 53.56129106064771], [-0.13212845881082974, 53.561067775073425], [-0.13240244068336096, 53.560859474801674], [-0.13270939291175535, 53.560668165642944], [-0.1330463593527471, 53.56049568976856], [-0.13315681678191935, 53.560449536926264], [-0.13315233768007453, 53.5604481401385], [-0.13315230248594048, 53.560447224298315], [-0.13318573127496347, 53.56018340224888], [-0.13326243052530937, 53.55992280136831], [-0.13338166082073977, 53.559667931297305], [-0.1335422732184958, 53.55942124644379], [-0.13374272034075443, 53.55918512235062], [-0.13398107129948153, 53.55896183282423]]]}}, {"type": "Feature", "properties": {"db_school_name": "Oasis Academy Immingham", "urn": "135176", "n_samples": 150, "margin_m": 614.7}, "geometry": {"type": "Polygon", "coordinates": [[[-0.22765998486501265, 53.60933351050642], [-0.22810154919129547, 53.6093012164822], [-0.22854630970262937, 53.60929481524868], [-0.2289899839270518, 53.609314368448196], [-0.2294282998440258, 53.60935968781467], [-0.22985703699540924, 53.60943033698532], [-0.2302720671014367, 53.60952563569954], [-0.23066939379166665, 53.60964466634529], [-0.23104519106930066, 53.6097862827898], [-0.2313958401393174, 53.60994912140978], [-0.23171796424644528, 53.61013161421553], [-0.23200846118797805, 53.6103320039424], [-0.23226453318857906, 53.61054836096494], [-0.2324837138494126, 53.61077860187125], [-0.23266389191187611, 53.61102050951863], [-0.2328033316066569, 53.6112717543781], [-0.23290068939149497, 53.61152991696241], [-0.23295502691566097, 53.61179251112168], [-0.2329562914119225, 53.61182349892619], [-0.23241698590627655, 53.612209865448854], [-0.23295331030429917, 53.61182563466264], [-0.23318160996468812, 53.61180892891165], [-0.23327189144289112, 53.611807625950966], [-0.2332735852431426, 53.61180866121407], [-0.23328779793989846, 53.61169451638112], [-0.23336398301135952, 53.61143384934364], [-0.23348276508115956, 53.61117887798785], [-0.23364299951952744, 53.610932057697745], [-0.2338431425847617, 53.61069576532098], [-0.23408126631323029, 53.61047227628493], [-0.23435507710501094, 53.61026374269064], [-0.23466193782550762, 53.61007217259542], [-0.234998893209672, 53.60989941068323], [-0.23536269832391832, 53.60974712050845], [-0.23574984981156424, 53.60961676848431], [-0.23615661962110596, 53.609509609768935], [-0.23657909089290133, 53.6094266761854], [-0.23701319565930826, 53.609368766291375], [-0.23745475399601906, 53.609336437693855], [-0.23789951424850383, 53.609330001682814], [-0.23834319394728423, 53.60934952023542], [-0.23878152101914743, 53.6093948054192], [-0.23921027489862084, 53.60946542120042], [-0.23962532714498092, 53.609560687640005], [-0.2400226811747511, 53.60967968743665], [-0.24039851072805754, 53.609821274754594], [-0.24074919669929604, 53.60998408625105], [-0.24107136197808213, 53.61016655419748], [-0.24136190396547694, 53.61036692156864], [-0.24161802445259525, 53.610583258954414], [-0.2418372565739049, 53.610813483132034], [-0.24201748857544286, 53.61105537711997], [-0.24215698416863243, 53.61130661152083], [-0.24225439927303874, 53.6115647669482], [-0.24230879498602745, 53.61182735732118], [-0.24230904363761926, 53.611833417934854], [-0.24188348831378403, 53.613175233341096], [-0.24173168007382673, 53.613354500555324], [-0.2414935798474995, 53.613578004907], [-0.2412197820528349, 53.613786554836366], [-0.2409129233249588, 53.61397814165835], [-0.24057595885234345, 53.614150920046264], [-0.24038390854925412, 53.614231317145375], [-0.23788064250685395, 53.61462425401342], [-0.24038672071178288, 53.614230875687404], [-0.24051262817345384, 53.614236411672714], [-0.24095100825931418, 53.61428168929648], [-0.2413798152759002, 53.61435229767271], [-0.24179492027098684, 53.61444755693361], [-0.24219232615331635, 53.614566549847], [-0.2425682061638384, 53.61470813064344], [-0.24291894071117665, 53.61487093604302], [-0.24324115221724787, 53.61505339837591], [-0.24353173763799196, 53.61525376067101], [-0.24378789834626263, 53.615470093567104], [-0.24400716708915116, 53.615700313884695], [-0.24418743175993812, 53.6159422046795], [-0.2443269557553061, 53.61619343658496], [-0.24442439472113747, 53.61645159023867], [-0.24447880952480572, 53.61671417957689], [-0.244489675328049, 53.616978675772884], [-0.24445688667195764, 53.61724253158899], [-0.24438075852393254, 53.617503205907575], [-0.24426202327532437, 53.61775818820516], [-0.24410182371748188, 53.618005022733364], [-0.2439017020627234, 53.618241332174065], [-0.2436635851149386, 53.618464840540824], [-0.24338976573175122, 53.61867339510532], [-0.2430828807560807, 53.61886498713776], [-0.24274588562910698, 53.61903777126126], [-0.2423820259288723, 53.61919008323294], [-0.24199480610857885, 53.619320455980606], [-0.24158795573581168, 53.619427633740194], [-0.2411653935582876, 53.619510584157226], [-0.24073118974278596, 53.619568508235616], [-0.24028952665177547, 53.61960084803782], [-0.2398446585364442, 53.61960729206173], [-0.23940087053540038, 53.619587778242646], [-0.23896243737510636, 53.61954249455119], [-0.23853358217096074, 53.6194718771815], [-0.23811843572700916, 53.61937660634697], [-0.23772099672736718, 53.61925759972449], [-0.23734509320376357, 53.619116003610344], [-0.23699434565117164, 53.61895318187317], [-0.2369386911437908, 53.61892166324851], [-0.23693819889468432, 53.61891954340557], [-0.23682427798452452, 53.61902645064986], [-0.23655042153718187, 53.61923498924499], [-0.23624350184876708, 53.619426563438076], [-0.23590647469496365, 53.61959932802394], [-0.23554258596245037, 53.61975161894791], [-0.2351553403842218, 53.619881969340504], [-0.23474846777611247, 53.61998912365301], [-0.2343258871001401, 53.620072049756764], [-0.23389166870137562, 53.62012994888995], [-0.23344999508284062, 53.62016226335525], [-0.23300512059718084, 53.62016868189465], [-0.2325613304443908, 53.62014914268896], [-0.23212289937165045, 53.620103833953365], [-0.23169405047421068, 53.620033192123245], [-0.23148626136318126, 53.6199854943598], [-0.2314867896845408, 53.6199887296448], [-0.23111001943033035, 53.620115536373575], [-0.23070313462675165, 53.62022267682633], [-0.23028054400105638, 53.620305588558104], [-0.2298463179942158, 53.62036347294548], [-0.2294046391825792, 53.62039577243324], [-0.2293450427054169, 53.620396630349205], [-0.22812058183827705, 53.61913498149602], [-0.22934387116371813, 53.620395423268235], [-0.22927122006369802, 53.620463583038664], [-0.22899731730526754, 53.620672103924335], [-0.22869035327207776, 53.62086365834005], [-0.22835328416709091, 53.62103640127116], [-0.22798935628123065, 53.62118866887145], [-0.2276020747247895, 53.621318994496136], [-0.22756925282597357, 53.62132763578633], [-0.22756795932355905, 53.621326619178944], [-0.22732793417595118, 53.621476393593746], [-0.2269908546537762, 53.62164913258594], [-0.22662691663485, 53.621801395945646], [-0.2262396253271011, 53.62193171706897], [-0.2258327109870367, 53.622038840689], [-0.22541009297883594, 53.622121734972794], [-0.22504839539899893, 53.6221699334205], [-0.22504651151960609, 53.62216872334077], [-0.22498028292978822, 53.622310781966696], [-0.22481995358775572, 53.622557589449166], [-0.22461970282132185, 53.622793865422665], [-0.22438145867811493, 53.62301733422285], [-0.22410751524114061, 53.62322584350234], [-0.22380051054851635, 53.6234173849674], [-0.22346340119491637, 53.623590113728085], [-0.22309943385903952, 53.62374236607462], [-0.222712114031282, 53.62387267550914], [-0.2223051722429517, 53.62397978687738], [-0.22188252812271061, 53.624062668464326], [-0.22144825262700396, 53.62412052193694], [-0.2210065288090569, 53.62415279003777], [-0.2205616115052385, 53.624159161955454], [-0.22011778632811463, 53.62413957631989], [-0.2196793283623035, 53.62409422179358], [-0.21925046096210962, 53.62402353525298], [-0.21883531504892936, 53.62392819757787], [-0.21843788930154684, 53.62380912708904], [-0.218062011623741, 53.62366747069798], [-0.2177113022611564, 53.62350459285391], [-0.2173891389233732, 53.623322062394905], [-0.2170986242475417, 53.62312163743002], [-0.2168425559172179, 53.622905248398574], [-0.21662339972420575, 53.62267497946976], [-0.2164432658326388, 53.622433048462376], [-0.21630388847347257, 53.622181785478155], [-0.21626952163721694, 53.622090577665965], [-0.2162685673849748, 53.62209101457294], [-0.2161763594279078, 53.62206338519514], [-0.21580050486884353, 53.62192172184784], [-0.21544981868974727, 53.62175883751812], [-0.21542307103389463, 53.62174368141638], [-0.2154240958049327, 53.62174126909477], [-0.21518161857813287, 53.621773559883444], [-0.21473991506366458, 53.621805805023754], [-0.21429502204890194, 53.62181215383664], [-0.21385122491238615, 53.621792545174635], [-0.21341279846854805, 53.62174716792202], [-0.2131469179366323, 53.62170332800461], [-0.2122624769089998, 53.61993206604865], [-0.21314863431359912, 53.6217067652296], [-0.213147729676378, 53.62170745358755], [-0.2128406871752814, 53.62189896666643], [-0.21250354601706695, 53.62207166432741], [-0.21213955318702976, 53.622223883160316], [-0.21175221442136447, 53.622354156990056], [-0.21134526043399518, 53.62246123100534], [-0.2109226109712498, 53.622544073850946], [-0.21048833704115236, 53.622601887567065], [-0.21004662168191618, 53.622634115279276], [-0.20960171964844868, 53.62264044656518], [-0.2091579164061927, 53.62262082044618], [-0.20906591849264927, 53.622611295233774], [-0.2090667352897303, 53.622612580383304], [-0.20904492992705004, 53.62262917021553], [-0.20873786230243002, 53.622820672532804], [-0.20840069722306565, 53.62299335841242], [-0.20803668190475522, 53.62314556455763], [-0.20764932230039343, 53.62327582491554], [-0.20724234932471852, 53.62338288480462], [-0.20681968290704586, 53.62346571300577], [-0.20638539421878843, 53.623523511700185], [-0.20594366644038276, 53.623555724158116], [-0.20549875444641041, 53.623562040104176], [-0.2050549437982883, 53.623542398707535], [-0.2046165094406135, 53.62349698916785], [-0.2041876745001531, 53.623426248891455], [-0.20377256958543968, 53.62333085927584], [-0.20337519298010096, 53.6232117391421], [-0.20311976039737623, 53.62311542851423], [-0.2024092669580109, 53.62105933678999], [-0.20311975640544325, 53.623115416962555], [-0.2030429743469849, 53.623187388809974], [-0.20276892571920474, 53.6233958483615], [-0.20246182440177998, 53.623587334272365], [-0.20212462792055505, 53.623760002187566], [-0.20176058379393227, 53.62391218898342], [-0.20137319825242997, 53.62404242879335], [-0.20096620246075042, 53.62414946713375], [-0.2005435165681, 53.62423227299311], [-0.20010921193358666, 53.62429004876776], [-0.1996674718913249, 53.62432223794884], [-0.1992225514340842, 53.624328530485144], [-0.19877873620483122, 53.62430886577139], [-0.1983403011922913, 53.62426343323175], [-0.19791146952950764, 53.6241926704943], [-0.19749637179338506, 53.62409725917276], [-0.19709900619832002, 53.623978118297366], [-0.1967232000682912, 53.623836395457595], [-0.19637257295933586, 53.623673455742725], [-0.1960505017882857, 53.623490868586686], [-0.19576008830405156, 53.62329039264463], [-0.19550412921504262, 53.62307395884673], [-0.19528508926042423, 53.622843651793254], [-0.19510507748435463, 53.62260168967001], [-0.19496582694129058, 53.62235040287829], [-0.1948686780271479, 53.622092211585084], [-0.19481456559603744, 53.6218296024103], [-0.1948040099856754, 53.62156510447546], [-0.1948371120367771, 53.621301265045076], [-0.19491355215325315, 53.6210406249947], [-0.1950325934110361, 53.62078569434268], [-0.19518816519395052, 53.62054649814086], [-0.19754632173383851, 53.62028443092756], [-0.1951923437858022, 53.62054603380871], [-0.195109996589287, 53.62049934520203], [-0.19481960782793414, 53.62029886708648], [-0.19456367134692348, 53.62008243136125], [-0.19434465166771567, 53.61985212264515], [-0.194164657639261, 53.61961015913998], [-0.1940254221451763, 53.61935887126032], [-0.19392828543654977, 53.61910067918359], [-0.19387418225006975, 53.61883806953722], [-0.19386363283455726, 53.6185735714473], [-0.19389673797121257, 53.61830973217978], [-0.19392537006452287, 53.618212105022714], [-0.19392491081081, 53.61821233884331], [-0.19378403066268018, 53.61821432519012], [-0.1933402825189491, 53.61819464083345], [-0.19290191703546, 53.61814918889151], [-0.19247315667531542, 53.61807840717916], [-0.1920581313283996, 53.61798297749292], [-0.1916608385116344, 53.6178638190399], [-0.19128510484779862, 53.617722079578826], [-0.19102750901388185, 53.6176023367994], [-0.18980133695282722, 53.61437066887962], [-0.18995603250086204, 53.61418832809324], [-0.19019440609157687, 53.61396492861573], [-0.19046845383961913, 53.6137564975566], [-0.1907755363295796, 53.613565041985545], [-0.19111269616191928, 53.613392405483474], [-0.19147668643539617, 53.61324025039715], [-0.1918640020114018, 53.61311004183886], [-0.19227091325935142, 53.61300303358535], [-0.19269350195852739, 53.6129202560109], [-0.19312769901128626, 53.612862506171155], [-0.1935693236052397, 53.61283034013203], [-0.19401412344822963, 53.612824067618476], [-0.1944578156897181, 53.61284374903347], [-0.19489612813566376, 53.61288919487663], [-0.19532484036116698, 53.612959967567384], [-0.1957398243261304, 53.61305538565593], [-0.19613708410391825, 53.613174530380874], [-0.19651279434142085, 53.61331625451099], [-0.19686333708101983, 53.61347919338618], [-0.19718533659052231, 53.613661778051274], [-0.19747569186616887, 53.61386225035703], [-0.19773160649591895, 53.614078679882724], [-0.19795061559550073, 53.61430898251808], [-0.19813060955759315, 53.614550940525746], [-0.198269854385013, 53.614802223891566], [-0.19836700841145136, 53.61506041275716], [-0.19842113524790547, 53.615323020719195], [-0.19843171282914862, 53.615587518771115], [-0.19839863847202738, 53.61585135965691], [-0.19837001840174817, 53.61594898801874], [-0.19837047760642407, 53.61594875418057], [-0.19851135011651957, 53.61594676236952], [-0.19885717023078128, 53.61596208849073], [-0.1988570052404158, 53.61596085747731], [-0.19925396223344444, 53.61590804336832], [-0.19968031901438515, 53.615876969747966], [-0.20026528168765825, 53.6163755641819], [-0.1996812419015316, 53.615877756384585], [-0.1998286913151758, 53.615703903123794], [-0.20049124475801078, 53.615607221472935], [-0.19983053511030563, 53.61570363407778], [-0.19973066989393817, 53.61566596942798], [-0.19938009799109638, 53.61550303877181], [-0.19905807504167564, 53.615320459874866], [-0.19876770233025934, 53.61511999131258], [-0.19851177617274407, 53.614903563944054], [-0.19829276099136617, 53.61467326230756], [-0.19811276559199234, 53.614431304536694], [-0.19797352287169723, 53.6141800209908], [-0.1978763731514349, 53.613921831805584], [-0.1978222512934834, 53.61365922358065], [-0.19781167772675182, 53.613394725428414], [-0.1978229242097807, 53.61330501411935], [-0.19782193167765394, 53.61330509901834], [-0.19771532938878142, 53.61311271254521], [-0.19766037409375403, 53.612966655466984], [-0.19766045901454432, 53.61296662715201], [-0.1975018999857684, 53.61287671885285], [-0.19721155123991033, 53.61267624663352], [-0.1969556476132287, 53.61245981603827], [-0.1967366533109708, 53.61222951163644], [-0.19655667693795117, 53.61198755158826], [-0.19641745120805956, 53.61173626627495], [-0.196320316278694, 53.611478075849234], [-0.19626620686977672, 53.61121546692264], [-0.19625564329043343, 53.61095096861432], [-0.19628872645864673, 53.61068712819232], [-0.1963651369606865, 53.61042648654185], [-0.19648413815816304, 53.61017155369664], [-0.19664458331159107, 53.60992478466954], [-0.19684492665073794, 53.60968855581422], [-0.19708323828412702, 53.60946514194611], [-0.19735722280321033, 53.60925669444217], [-0.1976642414013632, 53.60906522053053], [-0.19800133729416844, 53.60889256396882], [-0.19836526419592196, 53.60874038729699], [-0.19875251757805482, 53.60861015583525], [-0.19915936840865625, 53.60850312358085], [-0.19958189904856413, 53.6084203211393], [-0.20001604095898123, 53.60836254580554], [-0.20045761385828623, 53.608330353891084], [-0.20090236595190714, 53.608324055369955], [-0.20134601484893108, 53.60834371089558], [-0.20178428877256233, 53.60838913121675], [-0.20221296766875382, 53.60845987899867], [-0.20245335837591827, 53.60851514250819], [-0.20216399903016125, 53.61087503251256], [-0.20245336836959224, 53.60851506099909], [-0.20271856890282025, 53.6084797618857], [-0.2031601412016106, 53.60844755999057], [-0.20360489435710644, 53.608441251430065], [-0.20404854596817062, 53.60846089695421], [-0.2041322586917003, 53.608469570645426], [-0.20413231908413468, 53.60847030584109], [-0.20443606164831707, 53.608429872073486], [-0.2048776322647914, 53.608397663824306], [-0.2053223847868496, 53.60839134887283], [-0.20559528245990658, 53.60840342943901], [-0.2055913518349606, 53.60840165041291], [-0.2054706653283952, 53.60818390159765], [-0.2053734826429161, 53.60792571799192], [-0.20531932098758846, 53.60766311258998], [-0.20530870117493025, 53.60739861447716], [-0.20534172466466558, 53.60713477091975], [-0.20541807261793157, 53.60687412283317], [-0.205537008998787, 53.60661918031328], [-0.20569738769197568, 53.606372398466206], [-0.20589766356726386, 53.60613615376915], [-0.20613590738277376, 53.605912721190194], [-0.20640982438291539, 53.60570425228657], [-0.206716776411091, 53.60551275449256], [-0.20697950943712626, 53.605378139604895], [-0.2069800085971202, 53.60537846726197], [-0.20706897374720518, 53.605322963610405], [-0.2074060017162609, 53.60515027989221], [-0.20776986296362124, 53.60499807398496], [-0.2081570535926866, 53.60486781149048], [-0.20836253089319987, 53.604813731500634], [-0.21160857977349465, 53.607186758050645], [-0.21653996717690077, 53.60605921975748], [-0.21667155313070824, 53.60617046034288], [-0.21689062616390586, 53.60640072910145], [-0.21690873062786586, 53.60642505318305], [-0.21340376772330488, 53.60811184921806], [-0.21690596410011323, 53.60642638469474], [-0.2169893838368788, 53.606465143242175], [-0.21633231477213935, 53.60891973961173], [-0.2169898886379961, 53.60646325735329], [-0.2170126772166855, 53.606457257829156], [-0.21743515384168335, 53.606374391861685], [-0.21786925180116806, 53.60631655135847], [-0.21806949839399456, 53.60630192190048], [-0.21953049311134537, 53.6091696026225], [-0.21806818329177227, 53.60629934040215], [-0.2184566005839534, 53.60619707677585], [-0.21887907188909966, 53.606114205662166], [-0.21931316531783698, 53.606056359879865], [-0.21975470105511152, 53.606024096418736], [-0.22019942766400133, 53.60601772594162], [-0.22023616964508264, 53.60601934794398], [-0.22023541016509518, 53.60601870241493], [-0.22023876413528437, 53.60601150718773], [-0.22039905515984518, 53.60576470489868], [-0.2205992465706093, 53.60552843488301], [-0.22083740993881093, 53.60530497235269], [-0.22111125128323222, 53.60509646915353], [-0.22141813317547326, 53.6049049330501], [-0.22175510014698452, 53.604732208399014], [-0.22211890715292948, 53.604579958395945], [-0.22250605081868124, 53.60444964906726], [-0.22291280316826165, 53.604342535160086], [-0.2233352475102874, 53.604259648066034], [-0.2237693161364883, 53.604201785895235], [-0.2242108294705351, 53.604169505795205], [-0.22465553629114285, 53.60416311858905], [-0.22509915464317368, 53.604182685783975], [-0.22553741304390484, 53.60422801897926], [-0.225966091588833, 53.604298681678955], [-0.22638106256233265, 53.6043939934921], [-0.22677833016317644, 53.60451303668056], [-0.22715406896339183, 53.60465466499071], [-0.22750466073091788, 53.604817514685045], [-0.2278267292621692, 53.60500001766709], [-0.22811717288954325, 53.605200416574185], [-0.22837319435107462, 53.60541678169248], [-0.228592327734627, 53.60564702953195], [-0.22877246223694075, 53.60588894288311], [-0.2289118625082976, 53.606140192161995], [-0.22900918538624454, 53.60639835783873], [-0.22906349285640515, 53.60666095373358], [-0.22907426111457313, 53.606925450956496], [-0.22904138564172535, 53.607189302259734], [-0.22896518224191445, 53.607449966569014], [-0.22884638403182445, 53.6077049334571], [-0.22868613440981278, 53.60795174732392], [-0.22848597607100973, 53.60818803105033], [-0.22824783617324648, 53.608411508897426], [-0.22797400779578197, 53.608620028430856], [-0.2276671278687052, 53.60881158125831], [-0.2273301517850444, 53.60898432238042], [-0.22696632493981136, 53.60913658796864], [-0.22657915147004573, 53.60926691139758], [-0.22633533780458734, 53.60933111850735], [-0.22207433301419177, 53.60758164557915], [-0.22633698187209605, 53.60933179346766], [-0.22631081161722003, 53.60954170666656], [-0.2262885411886534, 53.60961786418931], [-0.22628870507767262, 53.60961772609905], [-0.22639658751226893, 53.60958141350435], [-0.22680337994056368, 53.60947428677628], [-0.2272258684359302, 53.609391386364216], [-0.22765998486501265, 53.60933351050642]]]}}]}