{"type":"FeatureCollection","features":[{"type":"Feature","properties":{"AREA_NAME":"Hurworth School - Priority 5 (Hurworth and Hurworth Place)"},"geometry":{"type":"Polygon","coordinates":[[[-1.5163344157057825,54.49509044729592],[-1.5163385663867954,54.49471431866135],[-1.516491925179217,54.49461690654273],[-1.5165450201916493,54.49440532690163],[-1.5166980811001958,54.4943347808478],[-1.516700747183944,54.49409298382836],[-1.5168535105269985,54.49404930390768],[-1.5169125246502115,54.493300397299095],[-1.5170649888276058,54.49328358343974],[-1.5171225182208539,54.49266900834419],[-1.5172749799625727,54.49265219421331],[-1.5172915460417442,54.49114767872231],[-1.5174947221344284,54.491134214983695],[-1.5174964961794322,54.490973016867834],[-1.5172939124980707,54.490932747906825],[-1.5172995327051952,54.490422287188956],[-1.5174519860102966,54.490405472811396],[-1.5175602237310746,54.489794247809414],[-1.518473156932021,54.489854554815906],[-1.5190284099874087,54.490133202974235],[-1.5193324295500827,54.490180168748694],[-1.5194323957168654,54.49032120020021],[-1.5196848151237383,54.490445414372715],[-1.520038675268885,54.49057632714691],[-1.52074845712386,54.490650085029536],[-1.5208484293082392,54.49079111531142],[-1.521304322813296,54.490874990019215],[-1.5213538703348783,54.49098580449211],[-1.5224685477623903,54.49116694265718],[-1.5225183911670783,54.491250890284036],[-1.5228224230673604,54.49129784729865],[-1.522821546512549,54.491378446412824],[-1.5238852285369766,54.49158308952261],[-1.5239350753488305,54.49166703656648],[-1.5245944528258193,54.49171055761279],[-1.5246440102506753,54.49182137074182],[-1.5248468964794248,54.49183476102775],[-1.5249471764553906,54.491948921550424],[-1.5254543941132002,54.491982395358484],[-1.5255039541903395,54.492093208135316],[-1.526314056931379,54.49228109337853],[-1.5267178077087202,54.492495932682424],[-1.526716938777017,54.492576531823985],[-1.5270209853788592,54.49262347829958],[-1.5270201170393662,54.49270407744281],[-1.5276287916370686,54.492744235343054],[-1.5279311074337756,54.49295237782992],[-1.5304162679167173,54.49314318434086],[-1.530462109251914,54.4936032581663],[-1.5308171791030558,54.4936266738881],[-1.530872781213322,54.4931732902427],[-1.5353872271272753,54.49347091142143],[-1.5354370998072573,54.49355485374708],[-1.5378716076196752,54.493742164036995],[-1.5379214857226782,54.493826105344624],[-1.54010267440709,54.49396979382138],[-1.540558081899137,54.49410732887419],[-1.5446161653261725,54.494374536379425],[-1.5446641127502505,54.4946465399805],[-1.5448670196938017,54.494659896704356],[-1.544919690563485,54.494475170769604],[-1.5455284095087234,54.49451523863032],[-1.545579968030316,54.49443797815968],[-1.546137960453423,54.494474704102224],[-1.5464941538545949,54.49439060804205],[-1.546498027545254,54.49401447781562],[-1.5462449509062344,54.49394405239383],[-1.5462479962741316,54.49364852149137],[-1.54609692725305,54.49353103993902],[-1.5460484176249158,54.493312769734594],[-1.5461091124693824,54.49234891618305],[-1.5463125621096363,54.49230853756125],[-1.5463139460675002,54.4921742052969],[-1.5465179479515974,54.49208009341885],[-1.5465193312241585,54.491945761145764],[-1.5466717784118782,54.49192890991621],[-1.5466726080694622,54.49184831054906],[-1.546876883923188,54.49172733159897],[-1.5469295418917473,54.49154260467427],[-1.5470822636925505,54.49149888646431],[-1.5471385115578733,54.49096489545155],[-1.547343886025512,54.490736449833484],[-1.5472970297458937,54.490356981235216],[-1.5473529970769615,54.48984985648028],[-1.5476581509335168,54.48978928521506],[-1.5477105269941556,54.48963142434872],[-1.547862965084801,54.489614571593414],[-1.5478637923268637,54.48953397218256],[-1.5480167812849686,54.4894633862905],[-1.5487268703098513,54.489510113519515],[-1.5487767655732907,54.48959405044007],[-1.5510592105676222,54.489744215941286],[-1.55111075261986,54.489666953020006],[-1.5514663472772285,54.48963657511041],[-1.5516196037235095,54.48953911816633],[-1.5516209701390808,54.48940478574658],[-1.55177395216801,54.48933419508557],[-1.551979838699792,54.489052008493665],[-1.5519836612576947,54.48867587766255],[-1.5518317745996375,54.488639002649236],[-1.551833959671874,54.48842407073799],[-1.5511260745782063,54.48816242987756],[-1.551033393008166,54.48729602916129],[-1.5507806237594244,54.48719874672691],[-1.5501215645056756,54.48712850205674],[-1.5500209516969528,54.48704122870471],[-1.5500777033596274,54.48645350286165],[-1.549875109683344,54.486413288446585],[-1.5498762072620735,54.486305822479565],[-1.5496755361865424,54.48607754228439],[-1.5496840461775727,54.485244680964506],[-1.54938085211818,54.48511719199274],[-1.5494373354764466,54.48455633277319],[-1.5493364556832108,54.484495925327515],[-1.5493386534990397,54.48428099333808],[-1.5491892589052196,54.48400231651644],[-1.5491950300277249,54.48343811999217],[-1.5493521144800049,54.48296453473363],[-1.5493052480829996,54.48258506640566],[-1.5491539360508648,54.482494455024984],[-1.549155310183488,54.482360122490945],[-1.5489535625028208,54.4822393070228],[-1.548956037091459,54.481997508455436],[-1.5487540166954148,54.481903559159804],[-1.5487570425879282,54.48160802756735],[-1.5485561254009794,54.481406611901534],[-1.5485608038740484,54.48094988122652],[-1.548459934222891,54.48088947303265],[-1.5484615858098645,54.48072827396304],[-1.5482096893914334,54.48055038659942],[-1.5479561416119954,54.48053369777834],[-1.547754957881997,54.480359147274285],[-1.5477094878574778,54.47984534563217],[-1.5475581894433492,54.479754732239044],[-1.5475637062527747,54.47921740195217],[-1.5474118586027055,54.479180521402796],[-1.547414617929641,54.47891185624491],[-1.5472123401860167,54.478844770877174],[-1.5472173092319654,54.47836117356991],[-1.5468119315268118,54.478307601386994],[-1.5468133131163964,54.478173268800646],[-1.5466620228399632,54.47808265427636],[-1.5466667218276857,54.47762592346235],[-1.5462621821322036,54.47749174988642],[-1.5462646721509694,54.47724995121349],[-1.5459113964126887,54.47706538193437],[-1.5459125039940214,54.47695791585607],[-1.545811371086965,54.47692437195843],[-1.5458152484862924,54.47654824067205],[-1.54540989055329,54.4764946638093],[-1.5454121082899683,54.47627973164459],[-1.5446515483058596,54.476229646108024],[-1.5443495481233727,54.47599467840975],[-1.5443503818469533,54.47591407885349],[-1.5439957355464826,54.475863836568834],[-1.5433407701847668,54.47541742391996],[-1.5423813267505941,54.474977833748],[-1.542180193938846,54.4748032739042],[-1.542181031889521,54.47472267435516],[-1.5416258289835254,54.474444131921366],[-1.541576805765753,54.47427959235436],[-1.541323299532731,54.474262889684745],[-1.5410720338089081,54.474031254362586],[-1.540767828450354,54.47401120982823],[-1.5406675479318155,54.47389706208857],[-1.5383860240908334,54.47374670181236],[-1.5381843504909658,54.47362586834457],[-1.537170348671011,54.473559026055334],[-1.536867279920599,54.47343150569928],[-1.535094778825556,54.473126441316566],[-1.534792572167604,54.472918316273216],[-1.5339828123332637,54.472730487912465],[-1.5337820111247713,54.472529047626104],[-1.5334271221835534,54.472505640885906],[-1.533377278980175,54.47242169749642],[-1.53292242156333,54.47225726893072],[-1.5317586577735014,54.47196541695789],[-1.5317099632273,54.471774006914764],[-1.5308481096213675,54.47171714542406],[-1.5304448280808343,54.47147545304661],[-1.5298871630518458,54.47143865519025],[-1.5298356041701577,54.471515909261846],[-1.5274018753208594,54.4713821721433],[-1.5274007194599568,54.4714896380531],[-1.5271970657136893,54.47155685163581],[-1.5261312777870355,54.47159403624342],[-1.5255712938072714,54.471772150248704],[-1.525064325987827,54.471738677320275],[-1.5239466698894246,54.47187996110337],[-1.52338900537203,54.47184313327062],[-1.5233374337507233,54.47192038453942],[-1.518825155544448,54.47164918384681],[-1.5187735755826326,54.47172643315385],[-1.5175553922224592,54.471780358357336],[-1.5175038097052143,54.47185760711565],[-1.516996847620777,54.47182410036308],[-1.5169443765312935,54.47198194818838],[-1.5164854445467228,54.472193587997225],[-1.5159781827100371,54.47218694339998],[-1.51591562614014,54.47325824932768],[-1.5160149467278887,54.47345301674378],[-1.516267252184908,54.47357723816562],[-1.5164169775450325,54.47380222275223],[-1.5166701744394402,54.47384584405564],[-1.5169215967201581,54.47405066339088],[-1.5177313037345732,54.47423860589507],[-1.5179320342435803,54.474440072641585],[-1.5186394698443582,54.474701907527724],[-1.519348091618366,54.47485627255324],[-1.5194483150025901,54.4749704378429],[-1.5202583455269563,54.47513149701917],[-1.5203081650989225,54.47521544573196],[-1.5219294194167252,54.475430081405285],[-1.5221310537887056,54.47555094187615],[-1.522839995487111,54.47567842002611],[-1.5239044359101617,54.475775596909834],[-1.5239539724592046,54.47588641057228],[-1.5249173076710483,54.47595001631598],[-1.5250685418779502,54.476040657971986],[-1.5255752726643974,54.47610099741527],[-1.52567406569468,54.47634948980576],[-1.5260263740498443,54.47661471739886],[-1.5260237647256614,54.47685651543658],[-1.5262254181991441,54.47697736908742],[-1.5262677181842217,54.47775984295383],[-1.52641954139687,54.47779675002199],[-1.5264108508392522,54.478602743328],[-1.5263088606604873,54.47864978247254],[-1.5263068323295916,54.47883784755746],[-1.5264073744943436,54.47892514061986],[-1.5264554732296651,54.47917028541803],[-1.5265565957309608,54.47920384547534],[-1.5265519620121222,54.479633708492884],[-1.5266015103251063,54.47974452102302],[-1.5267533411809384,54.479781427675064],[-1.5267997062394953,54.48018777092545],[-1.5270529537103275,54.48023137053524],[-1.5271532116434077,54.48034552940361],[-1.5271998704707934,54.480725006036685],[-1.5273517054963908,54.48076191193951],[-1.527334069531737,54.482400764281905],[-1.5271816500028874,54.48241759121012],[-1.5271179225990363,54.48362323377481],[-1.5267614939724878,54.48373413942971],[-1.526758309236783,54.48402967004301],[-1.5265551713315793,54.48404314944115],[-1.5265006932387488,54.484389066053254],[-1.526348265974803,54.4844058919097],[-1.526347396581667,54.48448649115573],[-1.5261946789945693,54.484530183232266],[-1.5261428066155012,54.484634301927805],[-1.5256843603388872,54.484792243203906],[-1.5251772314425116,54.48475877049869],[-1.525074061946005,54.48491327415587],[-1.5247179074569361,54.4849973073207],[-1.5246150265666243,54.48512494416929],[-1.5240064681335936,54.48508477127957],[-1.5239035848100124,54.48521240751598],[-1.523396452215407,54.48517892733559],[-1.5233445719036702,54.4852830448033],[-1.5229388654382048,54.485256258952724],[-1.522887275942253,54.485333509821764],[-1.5215687312759982,54.48524644584488],[-1.521520068928942,54.48505503218403],[-1.5212665045032576,54.48503828736387],[-1.5212615211350615,54.48549501604002],[-1.5203991003559951,54.4854649460142],[-1.5203472120707253,54.4855690621745],[-1.515530066742331,54.485197040154866],[-1.5154808388158933,54.485059356863786],[-1.512743576232376,54.48477088248769],[-1.5124912127993209,54.48464665382191],[-1.5114262702153618,54.4845762425198],[-1.5111232007029418,54.48444865785235],[-1.5067116539237393,54.48412997664812],[-1.5061547478790214,54.48401247003947],[-1.5026038246589217,54.4838850086666],[-1.50245016782367,54.484009269683746],[-1.5016388088396198,54.48395555648579],[-1.501587180905444,54.4840327981994],[-1.5011802763319881,54.48411340467014],[-1.5006221599053526,54.48410333789059],[-1.5006209332721154,54.48421080316472],[-1.5007715308010166,54.48435520767842],[-1.5009740655987143,54.48439550426478],[-1.5010229375699757,54.48456005969069],[-1.501629016925026,54.48481527877299],[-1.5017802320374845,54.48490594938937],[-1.5017790084037237,54.485013414667286],[-1.5021330699016244,54.48511751342556],[-1.5025357068000698,54.485413032275865],[-1.5028897736798592,54.4855171288224],[-1.502988756527018,54.48573877279663],[-1.5032420126166792,54.48578242226515],[-1.5034427279427562,54.4859839126535],[-1.5037460893813561,54.48608465019386],[-1.503745175482202,54.48616524915966],[-1.5038967047909924,54.486229050807076],[-1.503894877570584,54.486390248737216],[-1.5042987567641037,54.4865782964229],[-1.5042978439348726,54.486658895388516],[-1.5046021247110832,54.48667903181892],[-1.5047020316400754,54.48682007540655],[-1.5052577569767922,54.4870450540192],[-1.5052568460175941,54.48712565298974],[-1.5055101131139432,54.48716929771987],[-1.505609417507654,54.487364073202215],[-1.5058623831958584,54.48743458352023],[-1.5063148757571316,54.487814044215625],[-1.5064670209052748,54.48782410999622],[-1.5065672398340948,54.487938285710385],[-1.5070236770813203,54.487968481528114],[-1.5071238979145436,54.48808265678206],[-1.507326759731412,54.48809607642558],[-1.5073759638269735,54.48823376291773],[-1.507628937936923,54.488304269546745],[-1.507778669121002,54.48852926429569],[-1.5079812314850871,54.48856954917205],[-1.5080307401933524,54.48868036906571],[-1.5083347362113493,54.48872736245727],[-1.5083827379430403,54.48897251384297],[-1.508585001602138,54.489039664037755],[-1.508785156380104,54.48929487818863],[-1.5089370063839957,54.48933180719845],[-1.5091368636356168,54.48961388708898],[-1.5094903818181087,54.489771696995675],[-1.509641030986151,54.48991609043387],[-1.5096893426677496,54.490134374944674],[-1.509942332501575,54.490204876743356],[-1.5099399275492842,54.49041980736068],[-1.5102934557731833,54.49057761491887],[-1.5102913530236401,54.490765679207215],[-1.5105449482501219,54.49078244709445],[-1.5105944665357192,54.49089326591739],[-1.511201298833833,54.491094704404794],[-1.5115032191996196,54.49132975415294],[-1.5122112035666935,54.491564760113846],[-1.5124125892682696,54.49171250290568],[-1.512411692222821,54.49179310189624],[-1.5126139764209803,54.49186024536144],[-1.5126130797666784,54.49194084435233],[-1.513018248189878,54.492021397609705],[-1.5130164564563695,54.492182595595345],[-1.513320782652666,54.49220271015678],[-1.513673742909729,54.492414240504935],[-1.513672550124273,54.49252170583217],[-1.5139759851740926,54.49262241774422],[-1.5139744951702423,54.49275674940405],[-1.5141758930807707,54.49290448925464],[-1.5141749994636913,54.49298508824939],[-1.5144286100601332,54.4930018480159],[-1.5145291614337997,54.49308915077104],[-1.514527077927328,54.49327721509409],[-1.5147284803830923,54.49342495402078],[-1.514927505196653,54.49378762326061],[-1.5149239364968092,54.49411001922003],[-1.5151259389909364,54.494204024817634],[-1.515275732765327,54.49442901018915],[-1.5152739497512866,54.494590208161775],[-1.5157289833250853,54.4947547028881],[-1.5157776298514258,54.4949461185398],[-1.5163344157057825,54.49509044729592]]]}},{"type":"Feature","properties":{"AREA_NAME":"Hurworth School - Priority 6 Associated Areas (Bishopton, Sadberge, Great Stainton, Little Stainton)"},"geometry":{"type":"Polygon","coordinates":[[[-1.46667995016811,54.5640749870922],[-1.46660356623549,54.5638796913718],[-1.4668708012047,54.5631959929166],[-1.46714068222029,54.5628961154846],[-1.4673018477509,54.5625140024418],[-1.4664358405056,54.561917049058],[-1.46646148387684,54.5612602286879],[-1.46813248406933,54.5611831204286],[-1.47010209523213,54.5607504381238],[-1.47027106538806,54.5604717645927],[-1.47035577119971,54.5600245357832],[-1.47034142951748,54.5598223266133],[-1.47016121701534,54.5590486182608],[-1.47004826350361,54.558811746858],[-1.46985667498048,54.5585629419299],[-1.46929635946343,54.5580113708243],[-1.46782935190899,54.5567934981003],[-1.46666286771892,54.5552947328924],[-1.46651908130378,54.5551764053434],[-1.46589314704543,54.5543261600539],[-1.4647307874368,54.554424349808],[-1.46427502331842,54.554397179447],[-1.46427460019118,54.5544295213002],[-1.46337754262221,54.5543312164378],[-1.46237927720611,54.5542908542989],[-1.46183817775693,54.5541707573276],[-1.45990680308982,54.5541864205357],[-1.45940760575786,54.5542920061787],[-1.45896046388881,54.5543169628216],[-1.45847101296266,54.5546203327548],[-1.45836282182108,54.5547330514693],[-1.45687575474536,54.5549358186329],[-1.45655430934466,54.5545758141262],[-1.45592746344592,54.5546260082243],[-1.45502646693846,54.5544800065415],[-1.4542848735307,54.5544452234464],[-1.45268968647279,54.5547534670346],[-1.45214677387101,54.5550088635295],[-1.45193882745382,54.5550583251887],[-1.45174237719866,54.5551823183104],[-1.44979147676629,54.5558501773508],[-1.44906632180163,54.5558522736501],[-1.44879630830755,54.5558052262902],[-1.44864207382322,54.5556616735132],[-1.44847151044858,54.5553580362716],[-1.44834399339329,54.5552944757378],[-1.44675561644352,54.5556683504143],[-1.44613918358061,54.5548333163178],[-1.44566467096377,54.5539126788847],[-1.44556336638055,54.5529398411273],[-1.44529343329368,54.5523238977513],[-1.44474690106457,54.5506732178611],[-1.44465688473777,54.5505810750514],[-1.44441577735464,54.5498906933744],[-1.44432968507314,54.5492935648304],[-1.4441163550971,54.5489430097905],[-1.44406983110442,54.5483891865641],[-1.44372092798522,54.5474448673252],[-1.44352754044401,54.5465471712584],[-1.44353599658597,54.5461499258534],[-1.44370027919575,54.5457750490214],[-1.44365941866645,54.5456023637042],[-1.44292830693995,54.5438914552754],[-1.44276096366003,54.5433487551092],[-1.44265412626002,54.5432485374745],[-1.44258214739122,54.5430873885812],[-1.44260935444057,54.5430173463969],[-1.44335329996846,54.5428725277082],[-1.44336790963423,54.5427071949014],[-1.44383843602181,54.5424344378928],[-1.44401320844678,54.5421961700648],[-1.44406390026916,54.5418791685503],[-1.44417366831892,54.5418760786165],[-1.44415443374604,54.541359214515],[-1.4442480570593,54.5412967543088],[-1.44418286506902,54.5407482350635],[-1.44437715243172,54.5405550665955],[-1.44504093029917,54.5401536388174],[-1.44511411631659,54.5400003432089],[-1.44513435977749,54.5397667546293],[-1.44528400800908,54.5394439165608],[-1.44530746399766,54.5388508822789],[-1.44612351859848,54.5380512443742],[-1.4460499986754,54.537777696191],[-1.44683556426239,54.5373929877762],[-1.44698943017572,54.5372184965908],[-1.4469724072429,54.536875130267],[-1.4467388288048,54.5367814347595],[-1.44671349286644,54.5367139373901],[-1.44638107288965,54.5364949980536],[-1.44630675486306,54.5363840615362],[-1.44594133268914,54.5362125868328],[-1.44591049656864,54.5360901697312],[-1.44597954552227,54.5360159164442],[-1.44597138691263,54.5359314269831],[-1.44556754025716,54.5357372245497],[-1.44564530442711,54.5355839495395],[-1.44553913891954,54.5354351326838],[-1.44541478734366,54.5353779621126],[-1.44485779232445,54.5353152144313],[-1.44465511016667,54.5352181533836],[-1.44417048673484,54.5349400221247],[-1.44395844982352,54.5346218133425],[-1.44383904442085,54.5345385192721],[-1.44478417992154,54.5343541876187],[-1.44591710947513,54.5336620191671],[-1.44829274958782,54.5339748301374],[-1.44905235268505,54.5340259063599],[-1.44961067055287,54.532956254708],[-1.44968903250279,54.5328802431147],[-1.4498379248507,54.5324953986616],[-1.44990616859041,54.5324705523948],[-1.45046271406848,54.5324506188523],[-1.45206744015106,54.5321756917295],[-1.45364786538816,54.5317343311506],[-1.45468982665094,54.5315898863855],[-1.45546575439597,54.5313399279733],[-1.4565446409853,54.530850451476],[-1.45717187098012,54.5306286546746],[-1.4573169353607,54.5305267928772],[-1.45733169070559,54.5304612727613],[-1.45728599690298,54.5304098564309],[-1.46004454984041,54.5292224074879],[-1.46205207282438,54.5284899466687],[-1.46485257411778,54.5277276270886],[-1.4649348518865,54.5276902559856],[-1.46490897344607,54.5276622899813],[-1.46592241594127,54.527319874031],[-1.46772438447376,54.5265774268314],[-1.46802818274164,54.526746771374],[-1.46819827741993,54.5266172435138],[-1.46844969970477,54.5265230229253],[-1.46877291358479,54.52650197992],[-1.47148634241444,54.52600075012],[-1.47384460589945,54.5253657565011],[-1.47545891957438,54.5251435662353],[-1.47542313722335,54.5252817718003],[-1.47520616022002,54.5254534229423],[-1.47512190322572,54.5256364298243],[-1.4748613854161,54.5258356534215],[-1.47481707159878,54.5259136267489],[-1.47484496524992,54.5260333298794],[-1.47521239845339,54.5260501970101],[-1.47525024824755,54.5261087595662],[-1.47517936116393,54.5262225551632],[-1.47582213908826,54.5264545322588],[-1.47628499347467,54.526750415621],[-1.47662267939433,54.5270520454252],[-1.47705226690121,54.5272902822032],[-1.47749593708438,54.5273937217396],[-1.47765131420656,54.527566983148],[-1.47829775392164,54.5278843151515],[-1.47852577450092,54.5280560010546],[-1.478689783408,54.528282306372],[-1.47870924200468,54.5284549812378],[-1.47865080848454,54.5285517624886],[-1.4775178184871,54.5294330145826],[-1.47705112213371,54.5296744790945],[-1.47650422840889,54.530149369822],[-1.47654149653456,54.53025375059],[-1.47673710449833,54.5304298821674],[-1.47688715687181,54.530532053966],[-1.47705353125551,54.530573203253],[-1.4770619824433,54.5306397238551],[-1.47696628625647,54.5308703010502],[-1.47644494246375,54.5313983098625],[-1.47655378658398,54.531714223493],[-1.4766998766314,54.5318873559725],[-1.47683978203023,54.5319464496603],[-1.47700020641435,54.53196511117],[-1.47711516492195,54.5319224824909],[-1.47730590506601,54.531991587349],[-1.47762103011891,54.5319983373865],[-1.4779727115675,54.532535506426],[-1.4781121749284,54.5328695200696],[-1.47820648230096,54.5332275967185],[-1.47819275644982,54.5334548432439],[-1.47814161487272,54.5335885797454],[-1.47762616670037,54.5342621556802],[-1.47759969438949,54.5343995019094],[-1.47768704720546,54.5348133356292],[-1.47786338462376,54.5351636743153],[-1.47857209389384,54.535823659635],[-1.47877252656136,54.536104023887],[-1.47904872613866,54.5363784247671],[-1.47958883407878,54.53705295203],[-1.47990672325008,54.5375773829852],[-1.48031699377144,54.5380023952076],[-1.48084180473577,54.5386705623408],[-1.48094463462191,54.5387213152402],[-1.48178387994208,54.5387222137718],[-1.48188873312307,54.539348149257],[-1.48198978799822,54.5396703096162],[-1.48198216788078,54.5402724041671],[-1.4835595461512,54.5402027755598],[-1.48625882032564,54.5402780469368],[-1.48636270946233,54.540245246119],[-1.48653760789261,54.5409720983322],[-1.48669949927201,54.5409988394584],[-1.48681154818933,54.5414334359869],[-1.48709072087703,54.5414777432827],[-1.48726285795623,54.5420500502593],[-1.48734337595996,54.5425302358889],[-1.48760409719336,54.5430615854037],[-1.48811346183527,54.5438689019354],[-1.48883105218691,54.5452002434272],[-1.49017906310104,54.5474229494617],[-1.49029844223476,54.5476417678009],[-1.4902808297721,54.547694790014],[-1.4903407001334,54.547728283077],[-1.49109297077799,54.5490084572095],[-1.49107931106176,54.5491126153967],[-1.49317274462787,54.5525929731944],[-1.49299800968474,54.5525904445166],[-1.49279568535021,54.5527055831774],[-1.4933153820284,54.5531804167221],[-1.49358390921646,54.5535975967084],[-1.49353172005435,54.5536944974365],[-1.49326064441986,54.5537301995119],[-1.49202700573492,54.5540934732506],[-1.49115845361686,54.5544456918869],[-1.49086823700703,54.5546565887877],[-1.4905967917262,54.5549672891594],[-1.49050843784051,54.5549884795401],[-1.49052788388064,54.5551673466446],[-1.490391425852,54.5554480682166],[-1.49005390966452,54.5554843816181],[-1.4899114521331,54.5556222274714],[-1.4894164102238,54.5557674828571],[-1.48861562120712,54.5561299422781],[-1.48782194552464,54.5569110896844],[-1.48722118159426,54.5569759306139],[-1.48694355630771,54.5569217478021],[-1.48651240498811,54.5571446167753],[-1.4859149522697,54.5573208689968],[-1.48576222012159,54.5575341349132],[-1.48521027219907,54.5579029289674],[-1.48475937477202,54.5579710889578],[-1.48450893223748,54.5580967915919],[-1.48375060673325,54.5581483672959],[-1.48310046244067,54.5584466582466],[-1.48265563072282,54.5587808632112],[-1.48273947290529,54.5588755554204],[-1.48274488559113,54.559052659611],[-1.48256677645547,54.5593251122732],[-1.48253578325375,54.5594471664866],[-1.48258617985557,54.5595048814786],[-1.48252113102125,54.5598803272589],[-1.48232993743748,54.5600780642881],[-1.4820714023858,54.5602270874921],[-1.48202111307743,54.5604128479759],[-1.48184861666438,54.5605936834265],[-1.48023010681248,54.561170015005],[-1.47952105072906,54.5613529478368],[-1.47940098819486,54.5614297868003],[-1.47826055451037,54.561485078417],[-1.47768857477742,54.5623255232054],[-1.47715712202707,54.5627663381256],[-1.4768601140666,54.5628899383136],[-1.47687462614836,54.5630913393527],[-1.47680395990069,54.5632931806828],[-1.47683016924235,54.5634173675282],[-1.4765685151164,54.5638071446105],[-1.4767044689913,54.5639443833499],[-1.47666392870044,54.5640834644677],[-1.47637513832631,54.5643015249432],[-1.47619542077028,54.5645649761027],[-1.47592754115006,54.564832449429],[-1.47619362986282,54.564944196524],[-1.4779471583013,54.5660553024771],[-1.48043042285055,54.5673187423459],[-1.48292032626117,54.5691591303424],[-1.48393148838573,54.5698050976644],[-1.48516742114849,54.570407987204],[-1.48508583916421,54.5705064683435],[-1.48579999820923,54.5707809155782],[-1.48655071840202,54.5709881308292],[-1.48746731063714,54.5715357380772],[-1.48772123104494,54.5717596217028],[-1.48822486658809,54.5720547268457],[-1.48903264750838,54.5723933378484],[-1.49017722979479,54.572775676694],[-1.49181274404215,54.5736083791894],[-1.49254861230305,54.5741354249321],[-1.49307747351184,54.5746543240619],[-1.49352719988535,54.5751891510729],[-1.49431896551985,54.5755833619565],[-1.49405302954305,54.5756973417113],[-1.49391931493345,54.5758764686144],[-1.49323856152299,54.5762610277317],[-1.49194624677923,54.5773097450038],[-1.49088507921044,54.5779208968152],[-1.4908752652793,54.5779612847724],[-1.49107625907499,54.5782200675511],[-1.4913410357383,54.5784476725776],[-1.49216024171284,54.5788851375247],[-1.49263870580797,54.5788538982696],[-1.49329882873654,54.578635556175],[-1.49356864865662,54.5785908631253],[-1.49458601288004,54.5786328422852],[-1.49516078723312,54.5785696517318],[-1.49553467341542,54.5786089419145],[-1.49783986071452,54.5792305198983],[-1.49850226788125,54.5795837386031],[-1.49909549096655,54.5800355842317],[-1.49976347084839,54.5804463176305],[-1.50012521918039,54.5808441050072],[-1.50015009626452,54.5812198405006],[-1.50010105153684,54.5816843047736],[-1.5001328859185,54.5817410369351],[-1.50006599681587,54.5822773016529],[-1.50015600674536,54.5825112631661],[-1.50005299960142,54.5830905040754],[-1.49966569285917,54.5838842833763],[-1.49943735651396,54.5842167474968],[-1.49865770102825,54.5852110501535],[-1.49776171889404,54.5864807741631],[-1.49756418248903,54.5866920742673],[-1.49748191132716,54.5867114990954],[-1.49754365108134,54.5867225363911],[-1.4975842542275,54.5868134456333],[-1.4986123148677,54.5871448162267],[-1.50004606742304,54.5877088375254],[-1.49984809181289,54.5880818566273],[-1.50182252199209,54.5887154651933],[-1.50305835679851,54.5891428866049],[-1.50320730674956,54.589243311838],[-1.50405268423104,54.5894552074441],[-1.50506110923775,54.5896265239793],[-1.50587953724025,54.5898949874613],[-1.50580726875335,54.5911456607014],[-1.50650879834344,54.5912284770252],[-1.50679097238146,54.5913077879158],[-1.50750501055689,54.5916449943629],[-1.5082360683154,54.5921063381561],[-1.50853997497248,54.5921830380252],[-1.50881128136765,54.5921481997764],[-1.51003784051718,54.5915537321802],[-1.51103090346824,54.5917249375667],[-1.51175887528305,54.5919246255277],[-1.5119714521567,54.5920099331092],[-1.51219833232151,54.5921906211007],[-1.51255344210212,54.5922648215892],[-1.51298487659699,54.5921551497965],[-1.5135793223049,54.5917495608441],[-1.51382155538875,54.591680365846],[-1.51424815303184,54.5913324980201],[-1.51555377570251,54.5907221201358],[-1.5161046804674,54.5908546806697],[-1.51625760541307,54.5910107187149],[-1.51631170212709,54.5910109344966],[-1.51402995067574,54.5953554691059],[-1.51003884688063,54.5948303404821],[-1.50992878687856,54.5948450835898],[-1.5098138198551,54.5949334987594],[-1.50916731360976,54.5949763576817],[-1.50919020911321,54.5951319224835],[-1.506471661107,54.5961127688378],[-1.50505698321166,54.5959785829694],[-1.50517225574333,54.5958916113073],[-1.50435620481462,54.5958748892158],[-1.50207558193254,54.5956795211453],[-1.49887997802924,54.5956233234694],[-1.49741634765248,54.5956971661709],[-1.4966825294986,54.5958777278333],[-1.49629230237626,54.5959196058398],[-1.4963756258461,54.5960029004047],[-1.49579860745818,54.5962314681443],[-1.49408093684132,54.5967829474042],[-1.49349115801708,54.5968902183603],[-1.49273972471536,54.5971649560506],[-1.49138189898473,54.5978350907307],[-1.49044252295387,54.5981477611062],[-1.48905968464144,54.5989680275215],[-1.48796534613278,54.5993407792062],[-1.48686158776226,54.5993774606475],[-1.48609876727083,54.5995779689176],[-1.4846822320747,54.5996965251103],[-1.48449065111383,54.5996686608559],[-1.48365336148896,54.5992939414645],[-1.48327156017796,54.5992289587483],[-1.48151109692788,54.5992627907917],[-1.48131765166698,54.5992967436222],[-1.48111971259376,54.5994041899098],[-1.48053403795144,54.5994143561405],[-1.47843029097049,54.5991785939844],[-1.47821810939061,54.5991887358722],[-1.47794871820571,54.5992789742524],[-1.47761755238995,54.5992856375419],[-1.47354983667572,54.5990829313929],[-1.47207388882756,54.5989468395707],[-1.4715167928142,54.5995362010817],[-1.47119050651702,54.5998114857552],[-1.47055482399191,54.6002283103427],[-1.47036238995598,54.6004462087634],[-1.46917044444595,54.6005242182589],[-1.46782577400147,54.6004790556541],[-1.46774087113585,54.6004494760912],[-1.46771606524135,54.6002621727544],[-1.46638154622827,54.6001517027393],[-1.46552431990564,54.600023190817],[-1.46447540848218,54.5996752664559],[-1.46351741751813,54.5994654139852],[-1.46198114703141,54.598457295785],[-1.46068124541779,54.5975231835486],[-1.46019687184838,54.5968256281525],[-1.4592832870573,54.5972905827587],[-1.45914039348317,54.5974805564561],[-1.45908241514197,54.5978502856749],[-1.45920581659361,54.5984790150922],[-1.45801898642679,54.5987227431371],[-1.45723170659896,54.5990076100021],[-1.45661064428862,54.599095057001],[-1.45612279802525,54.5992909399044],[-1.45579871096086,54.5983814588522],[-1.45538575596855,54.5969751466894],[-1.45485610188028,54.5958498659688],[-1.45477004609894,54.5955598343825],[-1.45420322842365,54.5944386080945],[-1.45414323174562,54.5943419097742],[-1.4539505576184,54.5942253827635],[-1.45343869387199,54.5942066327668],[-1.45288049892593,54.5929653762502],[-1.45188577889931,54.5911353883273],[-1.45178466885442,54.590851213831],[-1.45122824560497,54.5908680483465],[-1.44933024641282,54.5911560214294],[-1.44685893297844,54.5911519649107],[-1.44493172532358,54.5908438926799],[-1.4444553810575,54.5906026387453],[-1.44439465698253,54.5905080250647],[-1.44424183650343,54.5904866614432],[-1.44412348405243,54.5905391266439],[-1.44340117937859,54.5906238611258],[-1.44342375199437,54.5907839755904],[-1.44323885327511,54.5909538287751],[-1.44333023088569,54.591064755586],[-1.44324136272412,54.5914535488066],[-1.44303235763005,54.5915756747201],[-1.44288095486854,54.5920027212791],[-1.44289209950603,54.5921025870789],[-1.44273365480993,54.5921377965215],[-1.44235509181129,54.5925485220216],[-1.44240477384476,54.5927698526929],[-1.44227352219713,54.5928599898456],[-1.4419075459884,54.5930299947285],[-1.44153575800893,54.593055236629],[-1.4410184584871,54.5933080949325],[-1.44086427996261,54.5932641703417],[-1.44068401114155,54.5933272173389],[-1.44022206298058,54.5933762956646],[-1.44003432644639,54.5935281615084],[-1.43979005347809,54.5935126582022],[-1.43940976827701,54.5937014571987],[-1.43936515966258,54.5938000770378],[-1.43965728591093,54.5938247863953],[-1.43976809568726,54.5940913210024],[-1.43991376093917,54.5941980074182],[-1.44000278458808,54.5944716288288],[-1.43978809005655,54.5946719739849],[-1.43933657290536,54.5946384428199],[-1.43935217010687,54.5947481223944],[-1.4392051601279,54.5949721387411],[-1.43888895886765,54.5948880211307],[-1.43873784430576,54.5949645859162],[-1.43859112756449,54.595167040843],[-1.43835548898022,54.5950796110357],[-1.43820084646603,54.5949576081164],[-1.43807254533712,54.5949525212539],[-1.43799618067012,54.5949845109076],[-1.43798137114848,54.5951615208231],[-1.43788733688419,54.5952536229892],[-1.43747954392708,54.595195131694],[-1.43663270083294,54.5955506594481],[-1.43581632411961,54.5957130736217],[-1.43568348508894,54.5956944865185],[-1.43522355467548,54.5953823003095],[-1.4346050907304,54.5953327007604],[-1.43430464820181,54.5952351688015],[-1.43397780445543,54.5953675083571],[-1.43383540397712,54.5953668436351],[-1.43375077973748,54.5953314099118],[-1.43367744748969,54.5951531801369],[-1.43354010520912,54.5951282806277],[-1.43260181080389,54.5952667438359],[-1.43207724662932,54.5954853896467],[-1.43184427289844,54.5954276087751],[-1.43161079191874,54.5953052270833],[-1.43136860066384,54.5953597936671],[-1.43129165443902,54.5954331937769],[-1.43114163266031,54.5957605037196],[-1.43020937455557,54.5963617544446],[-1.42960984127708,54.5966195683938],[-1.429703308473,54.5969084912827],[-1.42933481333478,54.597252739514],[-1.42918658975285,54.5977786977061],[-1.42940122427919,54.5979261502781],[-1.42974855915263,54.5979925599476],[-1.42984289907064,54.5983291032848],[-1.4297661604527,54.5987349194255],[-1.42949073191915,54.5989475384209],[-1.42944441939437,54.599385840015],[-1.42959595717408,54.5997298401904],[-1.42996273499783,54.5999499707398],[-1.42996494678286,54.6000110742342],[-1.42976735970616,54.6001962087607],[-1.4297592051737,54.6003417142661],[-1.4294983436442,54.6006163927792],[-1.42922773427851,54.600711251204],[-1.42897417317318,54.6009104954346],[-1.42892805052121,54.6011152086283],[-1.42792727756566,54.6015031914628],[-1.42792466484266,54.6015804440025],[-1.42807506914106,54.6017860837616],[-1.42803907525464,54.6018137649838],[-1.42738442657692,54.601798995581],[-1.4273125981903,54.6018426791206],[-1.42719998515514,54.6021468022992],[-1.42678324346011,54.6022858854633],[-1.42660314770493,54.602432466036],[-1.42632392582656,54.6023664585837],[-1.42602195306102,54.6023758112112],[-1.42591546803718,54.6024606565636],[-1.42590996629164,54.6025253174634],[-1.42605344786206,54.6026689351448],[-1.42603894487687,54.6027110927545],[-1.42569326162147,54.6027426974844],[-1.42513219983588,54.6025701474737],[-1.42502691419524,54.6025786333461],[-1.42485139073077,54.6027261298821],[-1.42469890496695,54.6027873984208],[-1.42414170930649,54.6028934626701],[-1.42389398174916,54.6030019834127],[-1.42332719850805,54.603126865251],[-1.423198899076,54.6031199661452],[-1.42287987358657,54.6029081277269],[-1.42249972443271,54.602749992762],[-1.42231505480865,54.6025684408919],[-1.4218303018645,54.6022533893868],[-1.4217998806604,54.6021032079822],[-1.42213825136374,54.601929538714],[-1.42221579888446,54.6016981153451],[-1.42211037644833,54.6010568579503],[-1.42212103268788,54.6007360818268],[-1.42197267688572,54.6005052884742],[-1.42145426735744,54.6004965274256],[-1.42111165714567,54.6004203235691],[-1.42070816783694,54.6001640532974],[-1.42066190461717,54.6000424557623],[-1.42057767667356,54.5999791637811],[-1.41967655925602,54.5997798972135],[-1.41950221566432,54.5996370220264],[-1.41936555526359,54.5996624222796],[-1.41903147989781,54.5998666503619],[-1.41876914620142,54.5999166036328],[-1.41849821356231,54.5998173765857],[-1.41827196932671,54.5998333619039],[-1.4179275602029,54.5996690052951],[-1.41765430708269,54.5996164831478],[-1.41704168078085,54.5993780633958],[-1.41692239532905,54.5992768665998],[-1.41705829810455,54.5990806758758],[-1.41701864259168,54.5989349405125],[-1.41684257593417,54.5987974443886],[-1.41638397170534,54.5986146548873],[-1.41627724801705,54.5985009399569],[-1.41635328718892,54.5981624210203],[-1.41620294136355,54.5979577554685],[-1.41579666831888,54.5977930948076],[-1.41531646787705,54.5977117191869],[-1.41503193207161,54.5975836690849],[-1.41469701051918,54.5973025536979],[-1.41451671019087,54.597033864111],[-1.41451499900568,54.5969305372996],[-1.41470125049902,54.5967920906564],[-1.4147008111595,54.5966088099237],[-1.41446208786708,54.5963030022118],[-1.41394570453376,54.5960497579572],[-1.41336464812349,54.5958842441181],[-1.41320971679507,54.5957873635705],[-1.41304223262047,54.5955959968115],[-1.41200541325055,54.5953654696567],[-1.4112051329086,54.5949436397509],[-1.41133783308309,54.5945452940538],[-1.41129138149102,54.5944390547687],[-1.41096831247539,54.59430442986],[-1.41045767428538,54.5941869494733],[-1.41028043330141,54.594248977304],[-1.41008020659483,54.5944978555229],[-1.40953565680622,54.5943783199333],[-1.40815018174823,54.5944013027919],[-1.40809041556654,54.5943604922276],[-1.40802043045348,54.5940645689671],[-1.40762798498247,54.5938047156092],[-1.40729171028139,54.5937284125877],[-1.40744314882154,54.593642005823],[-1.40737158352945,54.5932354781862],[-1.40767243575802,54.5930877204015],[-1.40766273808152,54.5929025976949],[-1.40755023957068,54.5928643142385],[-1.40767790588218,54.5924982912332],[-1.40761963864099,54.5923541690238],[-1.40774349309102,54.5922424703339],[-1.40784023016448,54.5919679355051],[-1.40794521922828,54.5918813012642],[-1.40794117710033,54.5917374439287],[-1.40814959829529,54.591556978943],[-1.40817775650458,54.5913216392523],[-1.40844852279983,54.5911090455057],[-1.4085113560994,54.5906196206731],[-1.40898407227663,54.5899226819572],[-1.41043401466139,54.5891694936132],[-1.41103623286672,54.5889387405745],[-1.41130158637261,54.5887810074376],[-1.41173218588026,54.5886482438333],[-1.41199881983687,54.588507586749],[-1.41234006053635,54.5884490465198],[-1.41267667133102,54.5882861755568],[-1.41308423342866,54.588237837285],[-1.41296455142755,54.5877402488689],[-1.41296933052126,54.587513869676],[-1.41313447405946,54.586896372984],[-1.413221549494,54.5862155185519],[-1.41360360688636,54.5852566807255],[-1.41395334744381,54.5846023406094],[-1.41396138591396,54.5844774985172],[-1.41441558143272,54.5837706557504],[-1.41451324360134,54.5835338535798],[-1.41452975986351,54.5830306306034],[-1.41473158986611,54.5824411536614],[-1.41486998053701,54.5821749864199],[-1.4148670718489,54.5819502742046],[-1.41493950878121,54.5818625770557],[-1.41497607307479,54.5816874680519],[-1.41498446687289,54.5808777490974],[-1.4155596636069,54.5796088767762],[-1.41562250745817,54.5793260832464],[-1.41584172026033,54.5788122456082],[-1.41590579072276,54.5783362027688],[-1.41615122572639,54.5780488965433],[-1.41596163020985,54.576703563944],[-1.41614599814256,54.5764671746241],[-1.41649328450266,54.5761920368022],[-1.41680788337626,54.5758295926273],[-1.41681718375727,54.5753920093212],[-1.41671196286842,54.5750697723646],[-1.41690597645829,54.5748091673577],[-1.41695589367785,54.5744481426829],[-1.41693732778482,54.5742386263724],[-1.41677060492874,54.5738828498057],[-1.41638544369969,54.5734532485813],[-1.41637292801665,54.5733560666136],[-1.41617440073172,54.5730667111986],[-1.4158109092762,54.5726299356447],[-1.41535266789293,54.5722287297713],[-1.41467726754336,54.5717545097565],[-1.41456518027521,54.5715931473899],[-1.41413199704444,54.5712693246294],[-1.414284154435,54.5711262173536],[-1.41465695840729,54.5710085227417],[-1.41482250847664,54.570900609601],[-1.41629392274777,54.5704394254544],[-1.41670192247019,54.5706786667273],[-1.41689945208441,54.5707065688427],[-1.41775483385773,54.5704895675876],[-1.41843051971015,54.57050538526],[-1.41839569477907,54.570452210241],[-1.41846930246265,54.5703878752259],[-1.4192013427396,54.5702520310468],[-1.41950622046583,54.5701295045351],[-1.42205861775008,54.5695682962888],[-1.42433405560809,54.5688916193493],[-1.42608968826276,54.5684380425479],[-1.42678298483157,54.5681869698439],[-1.42877238005159,54.5676094836945],[-1.43192114827786,54.5668468377891],[-1.43453906560969,54.5658723066979],[-1.43549288430034,54.565456190026],[-1.43773861587623,54.564206654748],[-1.43975798526139,54.56333166914],[-1.43985300411308,54.5633949987142],[-1.44097175395989,54.564813851233],[-1.44172179440241,54.5658408942975],[-1.44246095551246,54.565619596142],[-1.4437984883086,54.5655233153267],[-1.44481762711596,54.5652943024874],[-1.44543448827732,54.5650814998158],[-1.44651570736893,54.5648428739154],[-1.44917690716103,54.5645188859454],[-1.4493798276415,54.5648469271897],[-1.44980583510723,54.5652460574452],[-1.45011174460094,54.5656158925084],[-1.45076719413605,54.5665642832599],[-1.45083043163121,54.5668027439386],[-1.45103809795697,54.5671209220158],[-1.45105592899886,54.5672935923926],[-1.451219787605,54.5676457123125],[-1.45125475908586,54.5679190851075],[-1.4513646341155,54.568027394757],[-1.45155076530441,54.5684496922212],[-1.45201198447142,54.5691185974295],[-1.45236626838917,54.5699173803887],[-1.45243247976861,54.570172925323],[-1.45270714460277,54.5706899567126],[-1.45293439401034,54.5709291582582],[-1.45329307433426,54.5711725449389],[-1.45482845215703,54.5720224585372],[-1.45561705546479,54.5723917543256],[-1.45580953886953,54.572341407174],[-1.45674040097324,54.5717856762253],[-1.45774711529521,54.5706335386268],[-1.45788642292362,54.570514669747],[-1.45883529999922,54.5699895505971],[-1.45928464213839,54.5693382141962],[-1.45935363299435,54.5688073685583],[-1.45917091727415,54.5683518554973],[-1.45917985355205,54.568138876812],[-1.45966311611947,54.5678525446916],[-1.45979261228868,54.567654567714],[-1.45962843084427,54.5674372235847],[-1.45872504659966,54.5667457116584],[-1.45836930904373,54.5662803525516],[-1.45802629407823,54.5660199808264],[-1.45803148812989,54.5659840672791],[-1.45960881750253,54.5656388341654],[-1.46028230485154,54.5651197559308],[-1.46137493454982,54.5647048691078],[-1.46202235711095,54.564633174678],[-1.46344371178649,54.5646242014598],[-1.46439287744168,54.564528672682],[-1.46552924155276,54.5643242645543],[-1.46667819362534,54.5642098338134],[-1.46667995016811,54.5640749870922]]]}}]}