{"type":"FeatureCollection","features":[{"type":"Feature","properties":{"NAME":"The Aldgate School"},"geometry":{"type":"Polygon","coordinates":[[[-0.11380233868014838,51.51825625642148],[-0.11378510453897163,51.51816407334136],[-0.11376622618236841,51.51809074861459],[-0.11375461607006256,51.51805081395192],[-0.11373960097000756,51.51800956555507],[-0.11372154822604537,51.51797555244975],[-0.11369444027001123,51.51793743693137],[-0.1136541490407926,51.51789047638374],[-0.11353873037017784,51.51776757796503],[-0.11335795992134146,51.517576362652804],[-0.11325217609436362,51.51746450013447],[-0.11311920788478301,51.51733034789622],[-0.113088213708686,51.517299094157565],[-0.11302638810153112,51.51723613963543],[-0.11299360700329125,51.51720278879565],[-0.11283607260169576,51.51703883476884],[-0.11271911672084514,51.51692184602505],[-0.11257747963989329,51.51677433433139],[-0.11246013940867033,51.51664924564044],[-0.1123178395549066,51.51650037402932],[-0.11222361626150835,51.51639139437741],[-0.1122030330016911,51.51636633306589],[-0.11217560108103097,51.51633261841891],[-0.1121189346357393,51.51625301986666],[-0.11210272368168799,51.516230277086954],[-0.11205356586620281,51.51616428847536],[-0.11200047747010168,51.5160887941835],[-0.11190958740964288,51.51595154069315],[-0.11184060950403832,51.51584206772696],[-0.11174979961661055,51.5156854809444],[-0.11167931265622953,51.51556024624312],[-0.11166654038414062,51.51553800838355],[-0.11165184930246325,51.51550989433939],[-0.11158494434905818,51.515370659740164],[-0.11156758290129676,51.515334527914355],[-0.11155763563478643,51.515313684430545],[-0.11150993472973138,51.515195111338315],[-0.11143663919318722,51.51501587466057],[-0.111344087279109,51.51476213759231],[-0.11131063681889493,51.51466492681945],[-0.11128246930960718,51.514561955791244],[-0.11122573911184935,51.51438298564303],[-0.11118091210289262,51.514229836496575],[-0.11114541855040225,51.51411235903781],[-0.11110850347502545,51.5139944090369],[-0.1110976928714972,51.51395961281295],[-0.11108638528982212,51.513919412924736],[-0.11105767940868469,51.51382947266422],[-0.11123475185493488,51.51379950016349],[-0.1115717564755183,51.513753217237856],[-0.11171547869416575,51.51372810281049],[-0.1119362049593185,51.51368804060532],[-0.1119185035945296,51.51366302560036],[-0.11190480710265817,51.5136457189018],[-0.1118994734936214,51.513635291376616],[-0.1118941212991008,51.513625313190325],[-0.1118874775289124,51.51361171710924],[-0.11180031919211636,51.51341921796753],[-0.11171884828401034,51.51322860884852],[-0.11170646698816637,51.51319693486574],[-0.11170384670421839,51.51319059775066],[-0.11183593342261335,51.513167993731],[-0.11189214579865603,51.51315046331766],[-0.11189885652760838,51.51314850299116],[-0.11199352680659011,51.513121069969344],[-0.11208345990966212,51.513089693744924],[-0.11217468447733815,51.513061935342584],[-0.11230603651368046,51.51302223272103],[-0.11224115034796475,51.51295329319278],[-0.11218170947192727,51.51289208510689],[-0.11221177372069129,51.51287952940728],[-0.11220617994579325,51.51287539264452],[-0.11225214369381256,51.51285823670284],[-0.1123598785867165,51.51281806404683],[-0.11233741516132692,51.51278622789829],[-0.11240305263619253,51.51276381296046],[-0.11249721352711213,51.512731245469894],[-0.11250847071424785,51.512727379853615],[-0.11246383652019776,51.51267405399932],[-0.11244329190297285,51.512648094042866],[-0.11239718044558748,51.51259564366739],[-0.11229715469757241,51.51263063467448],[-0.11228676910093337,51.512634334440676],[-0.11223375393300433,51.512574578690895],[-0.11219044894591015,51.51252397194595],[-0.11216296349967649,51.51249160530283],[-0.1121148779995342,51.51243462665741],[-0.11209080741598335,51.51240681133621],[-0.11206001886856676,51.51236719729368],[-0.1120436652392935,51.51234445217965],[-0.11216059433036596,51.51230496725338],[-0.11209600672813946,51.51222883821334],[-0.11202519847598368,51.51214631408014],[-0.11196884381913427,51.51208020951098],[-0.1118924052045383,51.511994447201744],[-0.11188550144202188,51.51198714186768],[-0.11176211048461653,51.51202607286273],[-0.11166769293309065,51.51192203546203],[-0.11156341731084674,51.51181244361924],[-0.11155666234719025,51.511801543552274],[-0.11154940156050874,51.51175061751711],[-0.11154592234190626,51.511712791874466],[-0.11154338631803987,51.51166958575363],[-0.11154103619757107,51.511621886240235],[-0.11153617254549973,51.51158268939355],[-0.11153631737741801,51.51152693655152],[-0.11153468737467573,51.51147924862966],[-0.11153597007916388,51.51144824422272],[-0.11153677434371229,51.51141138681278],[-0.11154367016240738,51.51131437590771],[-0.11155254133281439,51.511152199215935],[-0.11155387488920396,51.511137382612986],[-0.11155992038951867,51.511043505484615],[-0.11156238789064812,51.51100127918582],[-0.11156687185150525,51.51094514655414],[-0.1115718107682944,51.5109128520885],[-0.11156907026316422,51.51087458869482],[-0.10887173747614129,51.5108936236763],[-0.10689026929415375,51.5108616626678],[-0.103430011393568,51.510859303400046],[-0.10344645339483431,51.510693014673954],[-0.10285533332298917,51.51069535349343],[-0.10286870352512227,51.51083238155437],[-0.10278222660847613,51.51084882824646],[-0.10201059917455663,51.51083634578941],[-0.09938061248422302,51.51081159758236],[-0.0986307631911821,51.510734009785594],[-0.09790120715854113,51.51062700550116],[-0.09616177563181663,51.51027756848824],[-0.0945198652066096,51.509876155200125],[-0.09391367526213817,51.50978302759364],[-0.09371943168524087,51.50986909555355],[-0.09254988084986797,51.509570505699266],[-0.09258367501664247,51.50944614064368],[-0.09204566682841646,51.50931842210978],[-0.09084184587288516,51.50915607117037],[-0.0898754330439571,51.50901541935318],[-0.08700636404925009,51.50878425707162],[-0.08373295577694412,51.50842148785893],[-0.08366756739833033,51.50861671284558],[-0.08152449489339093,51.50834966263477],[-0.08153252074437889,51.508385484370464],[-0.08135228284395334,51.5083646883215],[-0.0813450052154876,51.50831103455481],[-0.08125827533940898,51.508333407459006],[-0.0803252338736194,51.50808019326584],[-0.080139221658945,51.50797007584779],[-0.07939367935292518,51.5077931493003],[-0.0786247764073669,51.50759296295725],[-0.0772696299612923,51.507178147260355],[-0.07571748579203946,51.5068243227666],[-0.07460663596699472,51.50658479922609],[-0.07409193823036389,51.508210939131],[-0.07383261442618853,51.5092059947475],[-0.07464026556032478,51.5099873583543],[-0.07445533733669141,51.509940233020735],[-0.07444610530155818,51.509937023799125],[-0.0744319729897493,51.50993382398244],[-0.07440929455069822,51.50993165278487],[-0.07438513800715324,51.50993377379553],[-0.07434737576328765,51.50994412437148],[-0.07430704008540548,51.50996081747082],[-0.07426642001929246,51.509984250416274],[-0.07421108767936836,51.51000798113069],[-0.07413596082194629,51.510032915267075],[-0.0740560625158294,51.51005480334061],[-0.0738733107116322,51.51008929923193],[-0.07377887456412563,51.510100516614585],[-0.07364175320351586,51.510108963912174],[-0.07353166520960767,51.510108592981155],[-0.07330896158958461,51.51010286325936],[-0.07322722949252349,51.51009990073423],[-0.07310707582621197,51.51009558696223],[-0.07308244551562222,51.51009527188196],[-0.07305797060178756,51.51009468957048],[-0.07303346913140671,51.51009473630696],[-0.07299249291795334,51.5100992782603],[-0.07296990505423848,51.51010520171367],[-0.07294869283306535,51.510112676545575],[-0.07291940786442791,51.5101270329326],[-0.0726402336366018,51.510160873742606],[-0.07112658417606867,51.51033821183748],[-0.06947101223549085,51.51071543392675],[-0.0684948221361053,51.510806417636154],[-0.0687694757507607,51.511524742444024],[-0.06912339656586144,51.51194695594375],[-0.06997463339403062,51.51300788211918],[-0.07112622547335824,51.51440685226668],[-0.07155590383569974,51.51484220257144],[-0.0717862761162971,51.51525642681009],[-0.07440867199726603,51.518404564792235],[-0.07447661669141362,51.51860197561534],[-0.07450218227713415,51.51912584609626],[-0.07621118508266349,51.51907063897245],[-0.07809943539599792,51.518978191786665],[-0.07837393863890181,51.518959762142295],[-0.07886137024816105,51.518926927379795],[-0.0794122703374904,51.518886138132814],[-0.07928240789274496,51.51918724327643],[-0.07913876822565348,51.519575891108246],[-0.0790407492860158,51.51985323766182],[-0.07901618513909753,51.51994024395099],[-0.07899151688103166,51.52005368704021],[-0.07897542294126825,51.52016547214479],[-0.07895003043809044,51.520326924319654],[-0.07889749212407222,51.520729115429965],[-0.07886594744680557,51.520656656764174],[-0.07884524696212589,51.520617648827375],[-0.07882895279232706,51.520696517373494],[-0.0788129462562378,51.52081990445],[-0.07879856543863435,51.52088756349527],[-0.07877783478630038,51.52095197099253],[-0.07875708515280581,51.52101682780895],[-0.07873694218436465,51.52108439237457],[-0.07872655722120209,51.52110850237449],[-0.07871039257956092,51.521150053359236],[-0.07870324808940216,51.52116567343008],[-0.07869996974458272,51.521175062004716],[-0.0786880685524155,51.52120094567974],[-0.0786081517316398,51.52137004684602],[-0.07859613690089484,51.52139862645489],[-0.07858343964413116,51.52142629560409],[-0.0785686194498348,51.52145303067402],[-0.07855307898185702,51.52147975393192],[-0.07854007772005327,51.52149752613291],[-0.07852837645704473,51.52151181249944],[-0.07912266277113855,51.5215985328632],[-0.0795268577496104,51.521660282840735],[-0.07978707611387338,51.52170420486348],[-0.08034454829681675,51.52180263575315],[-0.0804389230200813,51.52181740095535],[-0.08053187317757073,51.52183861748283],[-0.08067447061954343,51.521878992181804],[-0.0808669575830416,51.52193277351677],[-0.08104041697428523,51.52197284384604],[-0.08110019862623573,51.521850443104036],[-0.08120201249246199,51.52163691523036],[-0.08126201710574446,51.52151604680951],[-0.08132968922175883,51.52138766011159],[-0.08139367034315782,51.521271622852694],[-0.08142511571703125,51.521219710312046],[-0.0814664755369647,51.521151413533715],[-0.08152814499585315,51.52104576987174],[-0.08160515522699485,51.52093866870519],[-0.08170322462583443,51.5208175239219],[-0.08177911622197795,51.520740439909154],[-0.08185857953519844,51.52067096816968],[-0.08194164809507687,51.520604882681326],[-0.08204828270171567,51.520533697299435],[-0.08242224300991183,51.520289191030024],[-0.08282518280918641,51.520020427789],[-0.082980839974586,51.51992828126461],[-0.0831243121218527,51.51985167242156],[-0.0831665644558772,51.519837525630045],[-0.08320981812935194,51.51982699227815],[-0.08324766716143905,51.51982158626827],[-0.08328077835207724,51.51981916026653],[-0.08331423108013362,51.519818898087195],[-0.08341160823710866,51.51983074242863],[-0.08351107942878559,51.519851074063986],[-0.0839941499426057,51.519994313403565],[-0.08442388415612022,51.52011707482168],[-0.08455962968009029,51.520155804045906],[-0.08523263555603972,51.52034845278332],[-0.08724694796282571,51.52050517641931],[-0.08967340745620496,51.520719006155424],[-0.0898373436454365,51.520735256340814],[-0.09009924130700461,51.5207770228493],[-0.09041280026719678,51.5208312308727],[-0.0905261832157389,51.520846476799434],[-0.09059197372682086,51.52085195477892],[-0.09068457370918805,51.52086092687193],[-0.09138054892041822,51.52094294235657],[-0.09159570202500526,51.52096505984444],[-0.09178286701691006,51.520984293350686],[-0.09204851081744898,51.52100894045434],[-0.09215549769327824,51.5210185951729],[-0.09225924284653571,51.52102648842697],[-0.09235976632718144,51.521035588146354],[-0.09241687315534235,51.521203961689956],[-0.09246777094688682,51.5213519106495],[-0.09248016987430832,51.521400133480434],[-0.09249903763150878,51.52147292174307],[-0.09258123220333958,51.52145843193155],[-0.09274756148271966,51.52142786500824],[-0.09287458340555561,51.521406550391895],[-0.09306477472197176,51.52137412301354],[-0.09313599848821068,51.52135999391579],[-0.09330302853162696,51.521329887225185],[-0.09333987055780485,51.52141411867789],[-0.0933836913623108,51.52150727648119],[-0.09340947074417703,51.52155958371067],[-0.09341890924322938,51.521557938668494],[-0.09351041315298593,51.52154144135088],[-0.09352776939316472,51.521574547017785],[-0.0935394062248541,51.521572038444255],[-0.09354737348352306,51.52158835489803],[-0.09359246151561298,51.52157874649435],[-0.09371897861730374,51.52155571413841],[-0.09373841678294897,51.521552792836545],[-0.0938935663408852,51.52153103520875],[-0.09398708065506024,51.52151816728955],[-0.0940609977257821,51.521508577776615],[-0.0941485997177278,51.521499210692994],[-0.09423974667504448,51.521491250078796],[-0.09431855534142311,51.521485337007924],[-0.09435952696516783,51.521695083727465],[-0.09436917454957741,51.52174020414419],[-0.0943765603804343,51.521770449809374],[-0.09441102747069205,51.5217631864069],[-0.09442342946220708,51.52180448472331],[-0.0944575723609087,51.52191888752206],[-0.09448121835339882,51.52198779639016],[-0.09453601667886345,51.52210811039281],[-0.09458203114021053,51.52221785005017],[-0.0946433829107055,51.52234348630169],[-0.094701240405561,51.522452698985305],[-0.09478007669407969,51.52258770198718],[-0.09492007396194609,51.522832240995854],[-0.09500111138602232,51.52296979759581],[-0.09509015646983147,51.52310892310177],[-0.09537872455701644,51.5237810587062],[-0.09572439028923846,51.524272057322186],[-0.0969537448069071,51.52387801782744],[-0.09848781168843972,51.523310458162015],[-0.09794526726301529,51.522874349862],[-0.09791467076590632,51.52284408749177],[-0.09787812545052878,51.52280437615226],[-0.09783556597578556,51.52275332630508],[-0.09778178182695854,51.52269490012418],[-0.09776109132937696,51.52267253220276],[-0.09773905395913941,51.52264789424032],[-0.09771783056150359,51.522621021300175],[-0.09770212588384923,51.52260008318325],[-0.09768788051308198,51.52257871910847],[-0.0976599414811275,51.522540046635015],[-0.09764040228415463,51.52250735573868],[-0.09762562403896127,51.522481486645404],[-0.09760084724878625,51.522436120928624],[-0.0975723671069513,51.522375857106404],[-0.09755929178520013,51.52234372073085],[-0.0975487041410624,51.52232106708995],[-0.0975327290172653,51.522289333289265],[-0.09751138516986954,51.52224806999474],[-0.09749829119040013,51.52221638294679],[-0.09748425212622264,51.52219007619712],[-0.09747163488721017,51.522164242157054],[-0.09746051441456452,51.52213708349753],[-0.09745326591968885,51.52212077895],[-0.0974468313820718,51.522102239429714],[-0.09743580461961869,51.522072834106766],[-0.09742686373783034,51.52204526118095],[-0.09741762308493655,51.522024877572335],[-0.09741146962053981,51.521999598065456],[-0.09740381941423362,51.52197564317635],[-0.09739618795222857,51.52195123895458],[-0.09739066109473613,51.521928217798376],[-0.09738185142310078,51.521897499543904],[-0.09737364961060983,51.52186948897279],[-0.09736836635083033,51.521840626495475],[-0.09736498158385254,51.52181808973998],[-0.09736082034299748,51.52179688929175],[-0.09735800595460797,51.521777958884584],[-0.09735681946827847,51.52175455853343],[-0.09735679246276624,51.52173792154687],[-0.09735608266513641,51.52172037420585],[-0.09736204262144335,51.52169843874846],[-0.09736527140568031,51.52167286187314],[-0.09736990324138081,51.52164820704143],[-0.0973759381265822,51.52162447425308],[-0.09738655704351623,51.52158590951278],[-0.09739267499349,51.52158607714816],[-0.09746628131791943,51.521601210439854],[-0.09750068535496459,51.52160581549752],[-0.09750787008804804,51.52156141808322],[-0.09751430998061775,51.52152105530878],[-0.09752458306931973,51.52148210364896],[-0.09753523083534503,51.52143416533819],[-0.09754512084796707,51.52138711400187],[-0.09755668655817519,51.52131715839542],[-0.09756136813436263,51.521239447251645],[-0.09756224865045567,51.52121832862449],[-0.09757243210277358,51.521174609355135],[-0.0976067475516659,51.520998918583416],[-0.09766260067034031,51.52071294690386],[-0.09767015121148567,51.52071163058726],[-0.09774041086072173,51.52069982111316],[-0.09783185909584652,51.52068457844171],[-0.09792130555833799,51.52066894351073],[-0.09803882871862285,51.52065061655984],[-0.09811361365501471,51.52063744143731],[-0.09821175909535801,51.52062059849325],[-0.09827971742129085,51.52060866143139],[-0.09834938558146628,51.52059720170113],[-0.09841123757930291,51.52058651442194],[-0.09848885835876063,51.52057446418246],[-0.09849103408172007,51.52057413976251],[-0.09872281691146154,51.520532755433415],[-0.09882217068104017,51.5205076582497],[-0.09890652252482104,51.520486274512564],[-0.09910604339357229,51.52043384474352],[-0.09939024265832536,51.52035562938558],[-0.09957951248989091,51.52030357216545],[-0.09964196687236539,51.52028359549744],[-0.09984116377980769,51.52021986431329],[-0.10009591661186233,51.52014602600646],[-0.10015861318483296,51.52013580111068],[-0.10024185812705246,51.52013058538453],[-0.10031823923192353,51.52012058215294],[-0.1003986629916615,51.52010695735094],[-0.1004633274466489,51.52009100882122],[-0.10051445133283962,51.52007484086903],[-0.10126077041570601,51.519844306244636],[-0.10174934487496513,51.51968324257689],[-0.10177521491070242,51.519674668426504],[-0.10201314247968711,51.5195962343681],[-0.10353409644376668,51.5191151691422],[-0.1036258774739804,51.5190862321278],[-0.10507408608931666,51.51862962532336],[-0.10516465790829588,51.51860060281414],[-0.1052829985248281,51.51855889930397],[-0.10529089998197239,51.51855605930915],[-0.10532659124225369,51.51854350632],[-0.10580567077133349,51.51839863558923],[-0.10598134862000184,51.518343738507255],[-0.10612110307205441,51.5183000417438],[-0.10624129082177286,51.51826241381452],[-0.10659386210060304,51.51815452616466],[-0.10732381844168357,51.51793114443258],[-0.10734004183003941,51.51792574073076],[-0.10781929502326366,51.5177659365311],[-0.10856185950901208,51.51783969113676],[-0.10946540950582911,51.517938247520455],[-0.1102240187325411,51.51802843713445],[-0.11074561630715711,51.51809897801547],[-0.11111002955605614,51.51815043921493],[-0.11165895564074309,51.5182015420589],[-0.11237479694079541,51.5182630619032],[-0.11253706811858635,51.51827421586399],[-0.11261257537373796,51.5182782184066],[-0.11279283806103788,51.51828651399536],[-0.11284451228697503,51.51828824451719],[-0.11297903435420979,51.5182872609049],[-0.11311265587568334,51.5182836547543],[-0.11325464301332741,51.51827991320936],[-0.11332897742609153,51.518277421642765],[-0.1134962649115215,51.518271838491046],[-0.11372129291476471,51.51826070871412],[-0.11380233868014838,51.51825625642148]]]}}]}