{
  "type": "FeatureCollection",
  "features": [
    {
      "type": "Feature",
      "properties": {
        "CATCHMENT_NAME": "Ormiston Chadwick Academy catchment",
        "SCHOOL_URN": 140864,
        "SCHOOL_NAME": "Ormiston Chadwick Academy"
      },
      "geometry": {
        "type": "Polygon",
        "coordinates": [
          [
            [-2.7939560246609565, 53.32258628804458],
            [-2.795285917058162, 53.32266185323401],
            [-2.795380909372248, 53.323020787883806],
            [-2.7976607249103145, 53.32449430907769],
            [-2.7995922352967315, 53.3256466782165],
            [-2.801618737997235, 53.32655346048966],
            [-2.804215194582255, 53.32798919908883],
            [-2.805988384445195, 53.32836702503598],
            [-2.8109913129870625, 53.330482850340026],
            [-2.813524441362692, 53.33123850223433],
            [-2.8177674313918706, 53.33297650159122],
            [-2.819540621254811, 53.333505457917234],
            [-2.8201739033487185, 53.33354324051194],
            [-2.8213771393271423, 53.333845501269664],
            [-2.8228970163525196, 53.333845501269664],
            [-2.824923519053023, 53.333505457917234],
            [-2.8256834575657117, 53.33320319715951],
            [-2.8262534114502285, 53.332712023428215],
            [-2.8265067242877913, 53.3329387189965],
            [-2.8270766781723076, 53.33263645823878],
            [-2.8273933192192615, 53.33290093640179],
            [-2.8275833038474336, 53.3326742408335],
            [-2.831351332306182, 53.33541347895034],
            [-2.8314779887249633, 53.33564017451863],
            [-2.831857957981308, 53.33579130489749],
            [-2.832681224703387, 53.33779378241739],
            [-2.831446324620268, 53.33785045630946],
            [-2.8314146605155726, 53.338284956148684],
            [-2.8311930117827053, 53.33834163004076],
            [-2.827456647428652, 53.338379412635476],
            [-2.824860190843632, 53.337963804093604],
            [-2.8238469394933805, 53.337963804093604],
            [-2.823625290760513, 53.33915395582713],
            [-2.822992008666606, 53.33987182512672],
            [-2.822580375305566, 53.34117532464439],
            [-2.820933841861407, 53.340948629076095],
            [-2.8208071854426255, 53.340344107560654],
            [-2.81900233147499, 53.340325216263295],
            [-2.81900233147499, 53.34138312891532],
            [-2.819952254615851, 53.3418365200519],
            [-2.818495705799864, 53.34304556308278],
            [-2.818432377590473, 53.34346117162465],
            [-2.818210728857606, 53.34336671513786],
            [-2.8179890801247383, 53.34357451940879],
            [-2.818210728857606, 53.3437067584903],
            [-2.818400713485778, 53.34359341070615],
            [-2.819160651998467, 53.34389567146387],
            [-2.819952254615851, 53.34436795389781],
            [-2.81900233147499, 53.34606817065999],
            [-2.8188756750562085, 53.34833512634289],
            [-2.8185590340092546, 53.348524039316466],
            [-2.8185273699045594, 53.3487318435874],
            [-2.8177674313918706, 53.34888297396626],
            [-2.816849172355705, 53.34943082158963],
            [-2.816342546680579, 53.35071542980994],
            [-2.811782915604447, 53.353435776629425],
            [-2.811276289929321, 53.35404029814487],
            [-2.809091466705341, 53.35541936285196],
            [-2.8035185842789567, 53.35606166696212],
            [-2.7986423121558706, 53.35621279734098],
            [-2.79857898394648, 53.35643949290927],
            [-2.798515655737089, 53.35621279734098],
            [-2.7977557172244003, 53.35617501474626],
            [-2.7979140377478773, 53.35604277566476],
            [-2.797534068491533, 53.3558916452859],
            [-2.7976607249103145, 53.355816080096474],
            [-2.797185763339884, 53.355683841014965],
            [-2.796837458188235, 53.355967210475335],
            [-2.797629060805619, 53.35617501474626],
            [-2.7871482421514533, 53.35657173199077],
            [-2.787021585732672, 53.35721403610093],
            [-2.786261647219983, 53.35830973134767],
            [-2.786261647219983, 53.35872533988953],
            [-2.784741770194606, 53.36087894778829],
            [-2.7839185034725262, 53.36163459968259],
            [-2.7839185034725262, 53.36220133860331],
            [-2.7842984727288704, 53.36235246898217],
            [-2.7808154212123806, 53.36605516326425],
            [-2.780942077631162, 53.36715085851099],
            [-2.7815753597250694, 53.36741533667399],
            [-2.781448703306288, 53.36783094521586],
            [-2.780182139118473, 53.36934224900446],
            [-2.779992154490301, 53.37024903127762],
            [-2.7817653443532415, 53.37074020500892],
            [-2.781543695620374, 53.37094800927985],
            [-2.781290382782811, 53.37083466149571],
            [-2.7810687340499434, 53.37096690057721],
            [-2.781448703306288, 53.37108024836135],
            [-2.780435451956036, 53.37240263917638],
            [-2.7799288262809103, 53.373422769233684],
            [-2.779232215977612, 53.375765290106024],
            [-2.7784089492555326, 53.37584085529545],
            [-2.77815563641797, 53.377201028705194],
            [-2.7777756671616256, 53.37742772427348],
            [-2.7770157286489368, 53.379090158440945],
            [-2.776509102973811, 53.379770245145814],
            [-2.7760974696127714, 53.3811115272582],
            [-2.7755908439376453, 53.38088483168991],
            [-2.7746409207967844, 53.38088483168991],
            [-2.7736909976559234, 53.3811115272582],
            [-2.7726777463056718, 53.3811115272582],
            [-2.7724560975728045, 53.3812437663397],
            [-2.7716961590601157, 53.382906200507165],
            [-2.7714111821178573, 53.383076222183384],
            [-2.7705879153957778, 53.383076222183384],
            [-2.7702079461394336, 53.38318956996753],
            [-2.769764648673698, 53.38300065699396],
            [-2.769542999940831, 53.38313289607546],
            [-2.769986297406566, 53.383359591643746],
            [-2.7688780537422284, 53.38390743926711],
            [-2.768434756276493, 53.38390743926711],
            [-2.7681814434389302, 53.38379409148297],
            [-2.7672315202980693, 53.38379409148297],
            [-2.7662815971572083, 53.38334070034639],
            [-2.76558498685391, 53.38315178737282],
            [-2.765015032969394, 53.38315178737282],
            [-2.7651733534928704, 53.38301954829131],
            [-2.76469839192244, 53.38281174402038],
            [-2.764508407294268, 53.38292509180452],
            [-2.764255094456705, 53.382698396236236],
            [-2.7631785148970627, 53.382698396236236],
            [-2.763115186687672, 53.3828495266151],
            [-2.7630835225829764, 53.382603939749444],
            [-2.7627352174313273, 53.38247170066794],
            [-2.7617219660810757, 53.382282787694365],
            [-2.7603920736838705, 53.382282787694365],
            [-2.758365570983367, 53.38092261428463],
            [-2.757478976051897, 53.380847049095195],
            [-2.757637296575374, 53.38071481001369],
            [-2.757288991423725, 53.38058257093219],
            [-2.757067342690857, 53.38071481001369],
            [-2.7572573273190293, 53.380828157797836],
            [-2.7570990067955528, 53.38092261428463],
            [-2.7569090221673807, 53.38080926650048],
            [-2.7564023964922546, 53.380847049095195],
            [-2.7560540913406055, 53.38109263596084],
            [-2.756275740073473, 53.38122487504235],
            [-2.757130670900248, 53.3809792881767],
            [-2.7570040144814665, 53.382603939749444],
            [-2.7572573273190293, 53.38301954829131],
            [-2.758333906878672, 53.38396411315919],
            [-2.759537142857096, 53.38437972170105],
            [-2.7570990067955528, 53.384814221540275],
            [-2.7554524733513936, 53.38534317786629],
            [-2.753489298860281, 53.38549430824515],
            [-2.752159406463076, 53.38579656900287],
            [-2.752317726986553, 53.385588764731935],
            [-2.7506711935423938, 53.38381298278033],
            [-2.7501962319719633, 53.383529613319965],
            [-2.7488346754700625, 53.38309511348074],
            [-2.749277972935798, 53.38094150558199],
            [-2.75124114742691, 53.37901459325152],
            [-2.749847926820314, 53.378145593573066],
            [-2.749657942192142, 53.37716324611048],
            [-2.749151316517016, 53.37618089864789],
            [-2.749151316517016, 53.376067550863745],
            [-2.749309637040493, 53.37612422475581],
            [-2.7495312857733607, 53.375954203079594],
            [-2.748518034423109, 53.37568972491659],
            [-2.7486763549465856, 53.37570861621395],
            [-2.748961331888844, 53.3754630293483],
            [-2.7486446908418904, 53.37519855118529],
            [-2.748771347260672, 53.37448068188571],
            [-2.7490246600982347, 53.374178421127986],
            [-2.7488980036794533, 53.37406507334384],
            [-2.7491829806217116, 53.37397061685706],
            [-2.749562949878056, 53.374046182046484],
            [-2.750101239657877, 53.37364946480198],
            [-2.7501645678672677, 53.3731960736654],
            [-2.7499745832390956, 53.37281824771825],
            [-2.750702857647089, 53.37298826939446],
            [-2.7509245063799566, 53.37285603031296],
            [-2.749847926820314, 53.37247820436581],
            [-2.749721270401533, 53.37202481322923],
            [-2.750006247343791, 53.37189257414773],
            [-2.750512873018917, 53.37189257414773],
            [-2.750861178170566, 53.37153363949793],
            [-2.751304475636301, 53.37138250911907],
            [-2.7514627961597777, 53.37072131371156],
            [-2.751747773102036, 53.37077798760363],
            [-2.751747773102036, 53.37108024836135],
            [-2.751969421834904, 53.371212487442854],
            [-2.752317726986553, 53.37108024836135],
            [-2.752001085939599, 53.37089133538778],
            [-2.7520644141489896, 53.37032459646705],
            [-2.7518427654161224, 53.37019235738555],
            [-2.7516211166832547, 53.37032459646705],
            [-2.751811101311427, 53.37047572684591],
            [-2.751399467950387, 53.3705701833327],
            [-2.751304475636301, 53.3699467705199],
            [-2.7505445371236124, 53.369606727167465],
            [-2.7505445371236124, 53.368775510083736],
            [-2.751969421834904, 53.368832183975805],
            [-2.752191070567771, 53.368624379704876],
            [-2.751969421834904, 53.368492140623374],
            [-2.7504812089142217, 53.36858659711016],
            [-2.749911255029705, 53.36155903449316],
            [-2.749562949878056, 53.361351230222226],
            [-2.7473464625493804, 53.36112453465394],
            [-2.7454466162676585, 53.360746708706785],
            [-2.744021731556367, 53.35966990475741],
            [-2.7431984648342875, 53.35808303577937],
            [-2.743071808415506, 53.356949557937924],
            [-2.743230128938983, 53.35700623183],
            [-2.7435151058812415, 53.35668507977492],
            [-2.743071808415506, 53.35649616680134],
            [-2.7433251212530694, 53.35634503642248],
            [-2.7431034725202017, 53.35621279734098],
            [-2.7429451519967247, 53.356269471233055],
            [-2.7418052442276917, 53.354720384849735],
            [-2.7401587107835326, 53.353586907008285],
            [-2.7402853672023144, 53.35351134181885],
            [-2.7399053979459698, 53.35339799403471],
            [-2.740095382574142, 53.353284646250565],
            [-2.7398737338412746, 53.35315240716906],
            [-2.739652085108407, 53.35320908106113],
            [-2.739842069736579, 53.35305795068227],
            [-2.739303779956758, 53.35277458122191],
            [-2.7391771235379765, 53.35285014641134],
            [-2.738448849129983, 53.352340081382685],
            [-2.7383855209205925, 53.35200003803025],
            [-2.738543841444069, 53.35205671192232],
            [-2.7387654901769367, 53.35192447284082],
            [-2.738543841444069, 53.35179223375932],
            [-2.738353856815897, 53.35190558154346],
            [-2.738258864501811, 53.35177334246196],
            [-2.7386388337581553, 53.35165999467782],
            [-2.7384171850252876, 53.351527755596315],
            [-2.7382905286065062, 53.35160332078574],
            [-2.7381322080830293, 53.351357733920096],
            [-2.7383855209205925, 53.35116882094652],
            [-2.7380688798736386, 53.351055473162376],
            [-2.738258864501811, 53.35082877759408],
            [-2.737942223454857, 53.35063986462051],
            [-2.7381322080830293, 53.350450951646934],
            [-2.737752238826685, 53.350110908294496],
            [-2.7376255824079037, 53.349506386779055],
            [-2.7377839029313806, 53.34956306067113],
            [-2.738005551664248, 53.34943082158963],
            [-2.738005551664248, 53.34924190861605],
            [-2.7377839029313806, 53.34910966953455],
            [-2.7376255824079037, 53.349166343426624],
            [-2.737752238826685, 53.34833512634289],
            [-2.737562254198513, 53.348221778558745],
            [-2.74209022116995, 53.34986532142885],
            [-2.7480430728526786, 53.350734321107296],
            [-2.7503228883907447, 53.35069653851258],
            [-2.75424923737297, 53.35009201699714],
            [-2.7585555556115393, 53.34963862586056],
            [-2.7595054787524003, 53.34963862586056],
            [-2.762355248174983, 53.34907188693983],
            [-2.7648250483412213, 53.348240669856104],
            [-2.766756558727639, 53.3473527788803],
            [-2.768403092171798, 53.34629486622828],
            [-2.7684664203811886, 53.34595482287584],
            [-2.768941381951619, 53.34593593157848],
            [-2.769986297406566, 53.34504804060268],
            [-2.7708095641286454, 53.34417904092423],
            [-2.772582753991586, 53.34138312891532],
            [-2.773469348923056, 53.340287433668585],
            [-2.7756858362517316, 53.33839830393283],
            [-2.7779656517897977, 53.335904652681634],
            [-2.778662262093096, 53.334317783703604],
            [-2.7787889185118773, 53.332806479915],
            [-2.7787889185118773, 53.33227752358899],
            [-2.778282292836751, 53.331786349857694],
            [-2.7782189646273605, 53.33072843720567],
            [-2.7785356056743145, 53.32933048120122],
            [-2.779295544187003, 53.32831035114391],
            [-2.7834752060067913, 53.325136613187844],
            [-2.7858500138589433, 53.32387089626489],
            [-2.7899663474693406, 53.322737418423436],
            [-2.7935127271952216, 53.32269963582873],
            [-2.7939560246609565, 53.32258628804458]
          ]
        ]
      }
    },
    {
      "type": "Feature",
      "properties": {
        "CATCHMENT_NAME": "Wade Deacon High School catchment",
        "SCHOOL_URN": 139368,
        "SCHOOL_NAME": "Wade Deacon High School"
      },
      "geometry": {
        "type": "Polygon",
        "coordinates": [
          [
            [-2.7349974617181885, 53.34767393093538],
            [-2.7368339797905197, 53.34778727871952],
            [-2.737055628523387, 53.347919517801024],
            [-2.737055628523387, 53.34814621336932],
            [-2.7367389874764334, 53.34829734374817],
            [-2.7366756592670427, 53.34882630007419],
            [-2.736454010534175, 53.34876962618211],
            [-2.736074041277831, 53.349147452129266],
            [-2.735820728440268, 53.348996321750406],
            [-2.73512411813697, 53.34910966953455],
            [-2.7348391411947115, 53.34897743045305],
            [-2.7350291258228836, 53.34882630007419],
            [-2.7348074770900164, 53.348694060992685],
            [-2.7345858283571487, 53.34882630007419],
            [-2.7344591719383673, 53.349015213047764],
            [-2.73471248477593, 53.34924190861605],
            [-2.7345858283571487, 53.349506386779055],
            [-2.734775812985321, 53.349619734563205],
            [-2.7345858283571487, 53.34973308234735],
            [-2.7348391411947115, 53.34988421272621],
            [-2.7345858283571487, 53.35014869088921],
            [-2.734870805299407, 53.350280929970715],
            [-2.7350924540322743, 53.35014869088921],
            [-2.734965797613493, 53.35007312569978],
            [-2.7357574002308773, 53.34960084326585],
            [-2.7359473848590494, 53.349827538834134],
            [-2.7361690335919167, 53.34969529975263],
            [-2.7359790489637446, 53.34958195196849],
            [-2.736105705382526, 53.34943082158963],
            [-2.7363273541153936, 53.349298582508126],
            [-2.736612331057652, 53.349355256400194],
            [-2.7374989259891223, 53.352491211761546],
            [-2.7406653364586586, 53.35475816744445],
            [-2.740443687725791, 53.35492818912067],
            [-2.740190374888228, 53.35477705874181],
            [-2.739652085108407, 53.35494708041802],
            [-2.740190374888228, 53.35511710209424],
            [-2.740443687725791, 53.35496597171538],
            [-2.740633672353963, 53.35507931949953],
            [-2.7408869851915263, 53.35496597171538],
            [-2.7411086339243935, 53.35509821079688],
            [-2.7420585570652545, 53.356458384206626],
            [-2.742121885274645, 53.35672286236963],
            [-2.7418685724370824, 53.35687399274849],
            [-2.742121885274645, 53.35702512312735],
            [-2.7419952288558638, 53.357251818695644],
            [-2.742185213484036, 53.358045253184656],
            [-2.7430084802061154, 53.35974546994684],
            [-2.7437050905094136, 53.36031220886756],
            [-2.743578434090632, 53.360425556651705],
            [-2.7438000828235, 53.36055779573321],
            [-2.7439267392422813, 53.36048223054378],
            [-2.7452566316394864, 53.36131344762751],
            [-2.747029821502427, 53.361691273574664],
            [-2.748961331888844, 53.36189907784559],
            [-2.7490246600982347, 53.362805860118755],
            [-2.748549698527804, 53.36282475141611],
            [-2.748328049794937, 53.362956990497615],
            [-2.748549698527804, 53.36308922957912],
            [-2.7490879883076254, 53.363108120876475],
            [-2.7495946139827514, 53.369908987925186],
            [-2.7503545524954403, 53.37024903127762],
            [-2.7503545524954403, 53.370400161656484],
            [-2.7501962319719633, 53.37034348776441],
            [-2.7499745832390956, 53.37047572684591],
            [-2.7503545524954403, 53.37092911798249],
            [-2.749816262715619, 53.37125027003757],
            [-2.749562949878056, 53.371212487442854],
            [-2.748929667784149, 53.371476965605865],
            [-2.7484230421090228, 53.37200592193187],
            [-2.7482330574808507, 53.37189257414773],
            [-2.747979744643288, 53.37200592193187],
            [-2.7477897600151158, 53.37189257414773],
            [-2.747029821502427, 53.37200592193187],
            [-2.746776508664864, 53.37189257414773],
            [-2.7465865240366916, 53.37200592193187],
            [-2.7463965394085195, 53.37189257414773],
            [-2.7451933034300957, 53.37189257414773],
            [-2.744781670069056, 53.37210037841866],
            [-2.744971654697228, 53.372289291392235],
            [-2.7448449982784466, 53.37236485658167],
            [-2.7451933034300957, 53.3725726608526],
            [-2.745509944477049, 53.372459313068454],
            [-2.7463332111991288, 53.37253487825788],
            [-2.746523195827301, 53.37242153047374],
            [-2.746713180455473, 53.37253487825788],
            [-2.746966493293036, 53.37242153047374],
            [-2.747219806130599, 53.37253487825788],
            [-2.7484230421090228, 53.37253487825788],
            [-2.748613026737195, 53.37242153047374],
            [-2.748961331888844, 53.37266711733939],
            [-2.7490879883076254, 53.3731960736654],
            [-2.7484230421090228, 53.37313939977332],
            [-2.7480747369573737, 53.373384986638975],
            [-2.7474414548634667, 53.375803072700734],
            [-2.748201393376155, 53.3762186812426],
            [-2.748708019051281, 53.37731437648934],
            [-2.7488980036794533, 53.37829672395193],
            [-2.7501645678672677, 53.37905237584623],
            [-2.748328049794937, 53.38079037520313],
            [-2.748201393376155, 53.3812437663397],
            [-2.747916416433897, 53.38118709244763],
            [-2.7476947677010295, 53.381319331529134],
            [-2.747916416433897, 53.38148935320535],
            [-2.748201393376155, 53.38139489671856],
            [-2.7480747369573737, 53.381923853044576],
            [-2.747916416433897, 53.3818671791525],
            [-2.7476947677010295, 53.381999418234],
            [-2.747916416433897, 53.382131657315504],
            [-2.7480747369573737, 53.382074983423436],
            [-2.747821424119811, 53.383359591643746],
            [-2.749847926820314, 53.38411524353805],
            [-2.751367803845692, 53.38577767770551],
            [-2.751589452578559, 53.385909916787014],
            [-2.751747773102036, 53.38585324289494],
            [-2.751747773102036, 53.3860043732738],
            [-2.7509245063799566, 53.38660889478924],
            [-2.7509245063799566, 53.38691115554696],
            [-2.7487396831559763, 53.38817687246992],
            [-2.7478530882245065, 53.38825243765935],
            [-2.7474414548634667, 53.38846024193028],
            [-2.747251470235294, 53.38868693749857],
            [-2.7473147984446853, 53.38993376312417],
            [-2.7470931497118176, 53.38983930663738],
            [-2.74687150097895, 53.38997154571888],
            [-2.747061485607122, 53.39008489350303],
            [-2.746428203513215, 53.39182289285992],
            [-2.746428203513215, 53.39246519697008],
            [-2.7493729652498837, 53.39252187086215],
            [-2.749847926820314, 53.39371202259567],
            [-2.7472831343399897, 53.39425987021904],
            [-2.744370036708016, 53.39448656578733],
            [-2.7435151058812415, 53.39473215265298],
            [-2.743420113567155, 53.3951666524922],
            [-2.742786831473248, 53.39501552211334],
            [-2.74250185453099, 53.39518554378956],
            [-2.742786831473248, 53.39550669584464],
            [-2.7430084802061154, 53.39541223935785],
            [-2.7430084802061154, 53.395714500115574],
            [-2.744781670069056, 53.39749028206718],
            [-2.745478280372354, 53.39911493363993],
            [-2.7451616393254, 53.400135063697235],
            [-2.7444017008127117, 53.40096628078096],
            [-2.7442750443939303, 53.4020619760277],
            [-2.7440533956610627, 53.402231997703915],
            [-2.743230128938983, 53.402383128082775],
            [-2.740000390260056, 53.401249650241326],
            [-2.7353774309745327, 53.40060734613117],
            [-2.735504087393314, 53.40026730277874],
            [-2.735820728440268, 53.40056956353646],
            [-2.73601071306844, 53.400493998347024],
            [-2.7365173387435657, 53.400645128725884],
            [-2.7367389874764334, 53.40051288964438],
            [-2.7363273541153936, 53.400305085373446],
            [-2.7359473848590494, 53.40038065056288],
            [-2.7361690335919167, 53.40021062888666],
            [-2.7359473848590494, 53.40007838980516],
            [-2.735504087393314, 53.4001917375893],
            [-2.735314102765142, 53.40007838980516],
            [-2.734870805299407, 53.40053178094174],
            [-2.728474656150943, 53.39939830310029],
            [-2.7239783532842017, 53.399436085695],
            [-2.720115332511367, 53.39970056385801],
            [-2.718247150334341, 53.39945497699236],
            [-2.7189120965329434, 53.399360520505574],
            [-2.7191020811611155, 53.399436085695],
            [-2.7192920657892876, 53.39932273791086],
            [-2.719608706836241, 53.39947386828972],
            [-2.719830355569109, 53.3993038466135],
            [-2.719228737579897, 53.39894491196371],
            [-2.718785440114162, 53.399058259747854],
            [-2.7185954554859895, 53.39894491196371],
            [-2.7183421426484267, 53.399171607532],
            [-2.7182154862296453, 53.39909604234257],
            [-2.7179938374967776, 53.39922828142407],
            [-2.718088829810864, 53.399436085695],
            [-2.7160623271103606, 53.39902047715314],
            [-2.7155240373305394, 53.39609232606272],
            [-2.713117565373692, 53.391445066912766],
            [-2.712737596117347, 53.391407284318056],
            [-2.712737596117347, 53.39084054539733],
            [-2.7122626345469167, 53.39021713258453],
            [-2.7098878266947644, 53.389555937177015],
            [-2.709761170275983, 53.389102546040434],
            [-2.7099828190088506, 53.389197002527226],
            [-2.7102044677417183, 53.389064763445724],
            [-2.7099828190088506, 53.38885695917479],
            [-2.7097928343806785, 53.38897030695893],
            [-2.7092862087055525, 53.38870582879593],
            [-2.7062464546547975, 53.387950176901626],
            [-2.7064047751782745, 53.387817937820124],
            [-2.706183126445407, 53.38768569873862],
            [-2.7058031571890626, 53.38783682911748],
            [-2.7046632494200296, 53.387496785765045],
            [-2.704599921210639, 53.386363307923595],
            [-2.700990213275367, 53.38647665570774],
            [-2.6970005360837512, 53.385909916787014],
            [-2.695923956524109, 53.385909916787014],
            [-2.695860628314718, 53.38609882976059],
            [-2.6958289642100226, 53.385891025489656],
            [-2.6954806590583735, 53.385758786408154],
            [-2.690446066411811, 53.38494646062178],
            [-2.691744294704321, 53.38470087375613],
            [-2.6937074691954335, 53.38409635224069],
            [-2.6958922924194133, 53.38294398310188],
            [-2.697222184816619, 53.38128154893442],
            [-2.6972855130260096, 53.38041254925597],
            [-2.6965889027227115, 53.380374766661255],
            [-2.6973488412354003, 53.380336984066545],
            [-2.697602154072963, 53.379090158440945],
            [-2.6973488412354003, 53.36922890122032],
            [-2.697222184816619, 53.36820877116301],
            [-2.696715559141493, 53.367679814837],
            [-2.6970955283978375, 53.36756646705285],
            [-2.6967472232461884, 53.36732088018721],
            [-2.69646224630393, 53.367377554079276],
            [-2.693675805090738, 53.36439272909679],
            [-2.693485820462566, 53.36348594682363],
            [-2.6935491486719565, 53.36144568670901],
            [-2.6964305821992345, 53.36172905616938],
            [-2.6990270387842545, 53.36176683876409],
            [-2.7008635568565857, 53.36165349097995],
            [-2.702890059557089, 53.361351230222226],
            [-2.7047265776294203, 53.360897839085645],
            [-2.7068164085393143, 53.35999105681248],
            [-2.7090962240773804, 53.3592731875129],
            [-2.7170122502512215, 53.35507931949953],
            [-2.7195453786268504, 53.35496597171538],
            [-2.7216352095367444, 53.35515488468896],
            [-2.7237883686560296, 53.35515488468896],
            [-2.726194840612877, 53.3550037543101],
            [-2.726954779125566, 53.35481484133652],
            [-2.7283163356274667, 53.35419142852373],
            [-2.728791297197897, 53.35315240716906],
            [-2.7310077845265726, 53.35243453786947],
            [-2.7316410666204796, 53.35262345084305],
            [-2.731926043562738, 53.35245342916683],
            [-2.7317043948298707, 53.35232119008533],
            [-2.731292761468831, 53.352340081382685],
            [-2.7317993871439565, 53.35184890765139],
            [-2.7317993871439565, 53.35124438613595],
            [-2.7313560896782216, 53.34984643013149],
            [-2.7315460743063937, 53.34927969121077],
            [-2.732970959017685, 53.34801397428781],
            [-2.7349974617181885, 53.34767393093538]
          ]
        ]
      }
    }
  ]
}
